,Education_Sector,School_Name,School_Type,Address_Line,Address_Town,Address_State,Address_Postcode,Full_Phone_No,LGA_ID,LGA_Name,X,Y
4,Government,Warrandyte Primary School,Primary,5-11 Forbes Street,Research - North Warrandyte,VIC,3113,03 9844 3537,421.0,Manningham (C),145.21398,-37.74268
6,Government,Bacchus Marsh Primary School,Primary,56-62 Lerderderg Street,Bacchus Marsh,VIC,3340,03 5367 2745,515.0,Moorabool (S),144.44312,-37.67303
9,Government,Berwick Primary School,Primary,37 Fairholme Boulevard,Berwick,VIC,3806,03 9707 1026,161.0,Casey (C),145.35374,-38.04418
13,Government,Newport Lakes Primary School,Primary,Elizabeth Street,Newport,VIC,3015,03 9391 8942,311.0,Hobsons Bay (C),144.87833999999998,-37.83842
20,Government,St Andrews Primary School,Primary,Caledonia Street,Panton Hill - St Andrews,VIC,3761,03 9710 1255,571.0,Nillumbik (S),145.26983,-37.60232
22,Government,Dromana Primary School,Primary,Mcculloch Street,Dromana,VIC,3936,03 5987 2367,534.0,Mornington Peninsula (S),144.95965,-38.33964
23,Government,Doncaster Primary School,Primary,2 - 12 Council Street,Doncaster,VIC,3108,03 9848 1122,421.0,Manningham (C),145.12967,-37.7868
25,Government,Eltham Primary School,Primary,Dalton Street,Eltham,VIC,3095,03 9439 9374,571.0,Nillumbik (S),145.1478,-37.72498
28,Government,Hallam Primary School,Primary,24 Harmer Road,Hallam,VIC,3803,03 9703 1536,161.0,Casey (C),145.25849,-38.00158
29,Government,Flemington Primary School,Primary,Mt Alexander Road,Flemington,VIC,3031,03 9376 7137,506.0,Moonee Valley (C),144.9336,-37.78139
30,Government,Footscray Primary School,Primary,Cnr Geelong Road & Barkly St,Footscray,VIC,3011,03 9687 1910,433.0,Maribyrnong (C),144.89266999999998,-37.79838
31,Government,Gisborne Primary School,Primary,35 Fisher Street,Gisborne,VIC,3437,03 5428 2022,413.0,Macedon Ranges (S),144.58844,-37.49086
33,Government,Sandringham Primary School,Primary,31 Bamfield Street,Sandringham - Black Rock,VIC,3191,03 9598 1488,91.0,Bayside (C),145.00931,-37.94763
36,Government,Hawthorn West Primary School,Primary,Cnr Wood Street & Burwood Road,Hawthorn,VIC,3122,03 9818 2233,111.0,Boroondara (C),145.01838,-37.82011
37,Government,Heidelberg Primary School,Primary,Cape Street,Heidelberg - Rosanna,VIC,3084,03 9457 2259,66.0,Banyule (C),145.0678,-37.7547
41,Government,Huntly Primary School,Primary,101 Brunel Street,Ormond - Glen Huntly,VIC,3551,03 5448 8866,262.0,Greater Bendigo (C),144.3344,-36.66254
45,Government,Romsey Primary School,Primary,2-56 Station Street,Romsey,VIC,3434,03 5429 5099,413.0,Macedon Ranges (S),144.74538,-37.35418
51,Government,Melton Primary School,Primary,Unitt Street,Melton,VIC,3337,03 9743 5335,465.0,Melton (C),144.58647,-37.68108
52,Government,Fitzroy Primary School,Primary,319 George Street,Fitzroy,VIC,3065,03 9417 4222,735.0,Yarra (C),144.98151000000001,-37.7996
55,Government,Burwood East Primary School,Primary,Cnr Blackburn And Highbury Rds,Burwood East,VIC,3151,03 9802 8618,698.0,Whitehorse (C),145.15221,-37.85978
58,Government,Essendon Primary School,Primary,38 Raleigh Street,Essendon - Aberfeldie,VIC,3040,03 9370 7816,506.0,Moonee Valley (C),144.92103999999998,-37.7531
59,Government,Coburg Primary School,Primary,92 Bell Street,Coburg,VIC,3058,03 9354 9332,525.0,Moreland (C),144.96803,-37.74118
62,Government,Mernda Primary School,Primary,25 Everton Drive,Mernda,VIC,3754,03 9717 7900,707.0,Whittlesea (C),145.09224,-37.5946
66,Government,Riddells Creek Primary School,Primary,69-77 Main Road,Riddells Creek,VIC,3431,03 5428 7277,413.0,Macedon Ranges (S),144.67978,-37.461220000000004
71,Government,South Yarra Primary School,Primary,601 Punt Road,South Yarra,VIC,3141,03 9866 3424,460.0,Melbourne (C),144.98561999999998,-37.84135
76,Government,Thomastown Primary School,Primary,6 Spring Street,Thomastown,VIC,3074,03 9465 2225,707.0,Whittlesea (C),145.01174,-37.682390000000005
81,Government,Werribee Primary School,Primary,2 Deutgam Street,Werribee,VIC,3030,03 9742 6659,726.0,Wyndham (C),144.65911,-37.9067
84,Government,Wallan Primary School,Primary,46-48 Queen Street,Wallan,VIC,3756,03 5783 1232,485.0,Mitchell (S),144.97503999999998,-37.41146
87,Government,Yarram Primary School,Primary,2-14 Wesley Street,Plenty - Yarrambat,VIC,3971,03 5182 5688,681.0,Wellington (S),146.67532,-38.55853
93,Government,Clayton North Primary School,Primary,1714 Dandenong Road,Clayton,VIC,3168,03 9544 1522,497.0,Monash (C),145.12275,-37.912040000000005
106,Government,Preston South Primary School,Primary,56B Hotham Street,Preston,VIC,3072,03 9484 1544,189.0,Darebin (C),145.00745,-37.74787
109,Government,Mordialloc Beach Primary School,Primary,58 Barkly Street,Mordialloc - Parkdale,VIC,3195,03 9580 1468,343.0,Kingston (C),145.08881,-38.00558
110,Government,Healesville Primary School,Primary,2 View Street,Healesville - Yarra Glen,VIC,3777,03 5962 4053,745.0,Yarra Ranges (S),145.51604,-37.65713
120,Government,Lilydale Primary School,Primary,63 - 65 Castella Street,Lilydale - Coldstream,VIC,3140,03 9735 1642,745.0,Yarra Ranges (S),145.35407,-37.75367
126,Government,Camberwell Primary School,Primary,290 Camberwell Road,Camberwell,VIC,3124,03 9882 4663,111.0,Boroondara (C),145.05795,-37.83266
127,Government,Greenvale Primary School,Primary,12-24 Bradford Avenue,Greenvale - Bulla,VIC,3059,03 9333 2500,327.0,Hume (C),144.88593,-37.64031
129,Government,Rockbank Primary School,Primary,97-105 Westcott Parade,Rockbank - Mount Cottrell,VIC,3335,03 9747 1210,465.0,Melton (C),144.66214,-37.73202
131,Government,Doreen Primary School,Primary,75 Doctors Gully Road,Doreen,VIC,3754,03 9717 3563,571.0,Nillumbik (S),145.14648,-37.606320000000004
133,Government,Yarra Glen Primary School,Primary,Symonds Street,Healesville - Yarra Glen,VIC,3775,03 9730 1254,745.0,Yarra Ranges (S),145.37162,-37.6491
136,Government,Westmeadows Primary School,Primary,34-46 Riddell Street,Gladstone Park - Westmeadows,VIC,3049,03 9309 4350,327.0,Hume (C),144.8957,-37.67565
137,Government,Sunbury Primary School,Primary,41 The Heights,Sunbury,VIC,3429,03 9744 9744,327.0,Hume (C),144.72814,-37.59769
138,Government,Diamond Creek Primary School,Primary,17 Clyde Street,Wattle Glen - Diamond Creek,VIC,3089,03 9438 1108,571.0,Nillumbik (S),145.15165,-37.67185
141,Government,Vermont Primary School,Primary,4-10 Nurlendi Road,Vermont,VIC,3133,03 9874 2511,698.0,Whitehorse (C),145.19418000000002,-37.83766
143,Government,Balwyn Primary School,Primary,86B Balwyn Road,Balwyn,VIC,3103,03 9836 7121,111.0,Boroondara (C),145.08151999999998,-37.81394
144,Government,Scoresby Primary School,Primary,11 Ingrid Street,Knoxfield - Scoresby,VIC,3179,03 9763 7484,367.0,Knox (C),145.2275,-37.89395
149,Government,Mickleham Primary School,Primary,1880 Mickleham Road,Mickleham - Yuroke,VIC,3064,03 9745 2250,327.0,Hume (C),144.8772,-37.563340000000004
154,Government,Kew Primary School,Primary,Peel Street,Kew,VIC,3101,03 9853 8325,111.0,Boroondara (C),145.03316,-37.804629999999996
161,Government,Hastings Primary School,Primary,10 - 20 Hodgins Road,Hastings - Somers,VIC,3915,03 5979 1517,534.0,Mornington Peninsula (S),145.18912,-38.299459999999996
165,Government,Moorabbin Primary School,Primary,61 Worthing Road,Moorabbin - Heatherton,VIC,3189,03 9555 1101,343.0,Kingston (C),145.03916999999998,-37.94236
172,Government,Panton Hill Primary School,Primary,585 Kangaroo Grd-St Andrews Rd,Panton Hill - St Andrews,VIC,3759,03 9719 7202,571.0,Nillumbik (S),145.23956,-37.6416
186,Government,Albert Park Primary School,Primary,Bridport Street,Albert Park,VIC,3206,03 9699 9090,590.0,Port Phillip (C),144.9524,-37.84179
187,Government,Williamstown Primary School,Primary,Cecil Street,Williamstown,VIC,3016,03 9397 1248,311.0,Hobsons Bay (C),144.89973999999998,-37.86381
194,Government,Skye Primary School,Primary,395 Ballarto Road,Skye - Sandhurst,VIC,3977,03 9786 1555,217.0,Frankston (C),145.20123999999998,-38.117709999999995
198,Government,Carlton North Primary School,Primary,60 Lee Street,Carlton North - Princes Hill,VIC,3054,03 9347 4822,735.0,Yarra (C),144.97303,-37.791059999999995
220,Government,Mount Eliza Primary School,Primary,Wooralla Drive,Mount Eliza,VIC,3930,03 9787 1385,534.0,Mornington Peninsula (S),145.09203,-38.19547
227,Government,Northcote Primary School,Primary,33 Helen Street,Northcote,VIC,3070,03 9481 0009,189.0,Darebin (C),144.99688,-37.77176
228,Government,North Melbourne Primary School,Primary,210 Errol Street,North Melbourne,VIC,3051,03 9329 6902,460.0,Melbourne (C),144.95078,-37.79861
229,Government,Dandenong Primary School,Primary,174-182 Foster Street,Dandenong,VIC,3175,03 9792 2743,267.0,Greater Dandenong (C),145.21982,-37.98792
231,Government,Williamstown North Primary School,Primary,133 Melbourne Road,Williamstown,VIC,3016,03 9397 5722,311.0,Hobsons Bay (C),144.89176,-37.8559
238,Government,Cairnlea Park Primary School,Primary,Carmody Drive,Cairnlea,VIC,3023,03 9363 1187,118.0,Brimbank (C),144.78726,-37.75756
245,Government,Frankston Primary School,Primary,Davey Street,Frankston,VIC,3199,03 9783 3769,217.0,Frankston (C),145.12403,-38.14756
248,Government,St Kilda Primary School,Primary,2B Brighton Road,St Kilda,VIC,3182,03 9534 3993,590.0,Port Phillip (C),144.98901999999998,-37.87022
253,Government,Fitzroy North Primary School,Primary,Fergie Street,Fitzroy North,VIC,3068,03 9481 5860,735.0,Yarra (C),144.98415,-37.78502
255,Government,Preston Primary School,Primary,240 Tyler Street,Preston,VIC,3072,03 9470 1167,189.0,Darebin (C),145.01031,-37.73055
256,Government,Tooradin Primary School,Primary,Bayview Road,Pearcedale - Tooradin,VIC,3980,03 5998 3321,161.0,Casey (C),145.37849,-38.20763
257,Government,Glenferrie Primary School,Primary,78 - 98 Manningtree Road,Hawthorn,VIC,3122,03 9818 4338,111.0,Boroondara (C),145.03386,-37.824040000000004
260,Government,Brighton Primary School,Primary,59 Wilson Street,Brighton,VIC,3186,03 9592 0177,91.0,Bayside (C),145.00223,-37.91175
271,Government,Keilor Primary School,Primary,25 Kennedy Street,Keilor,VIC,3036,03 9336 7098,118.0,Brimbank (C),144.8357,-37.7169
280,Government,Oakleigh Primary School,Primary,20 Warrigal Road,Oakleigh - Huntingdale,VIC,3166,03 9568 0558,497.0,Monash (C),145.08862,-37.89447
282,Government,Malvern Central School,Primary,Spring Road,Malvern - Glen Iris,VIC,3144,03 8823 9500,635.0,Stonnington (C),145.0344,-37.85601
291,Government,Macedon Primary School,Primary,67 Smith Street,Macedon,VIC,3440,03 5426 1518,413.0,Macedon Ranges (S),144.56268,-37.418690000000005
313,Government,Silvan Primary School,Primary,269 Monbulk Road,Monbulk - Silvan,VIC,3795,03 9737 9258,745.0,Yarra Ranges (S),145.42246,-37.82451
320,Government,Lysterfield Primary School,Primary,Bellfield Drive,Lysterfield,VIC,3156,03 9752 7953,367.0,Knox (C),145.27623,-37.9116
324,Government,Abbotsford Primary School,Primary,Lithgow Street,Abbotsford,VIC,3067,03 9428 5977,735.0,Yarra (C),144.99881000000002,-37.80898
326,Government,Stonnington Primary School,Primary,Hornby Street,Prahran - Windsor,VIC,3181,03 9521 3711,635.0,Stonnington (C),144.99563,-37.85715
331,Government,Footscray City Primary School,Primary,10 Hyde Street,Footscray,VIC,3011,03 9687 2826,433.0,Maribyrnong (C),144.90025,-37.8064
333,Government,Plenty Parklands Primary School,Primary,48 Blossom Park Drive,Mill Park,VIC,3082,03 9404 4311,707.0,Whittlesea (C),145.07693999999998,-37.66972
344,Government,Morang South Primary School,Primary,77 Gorge Road,South Morang,VIC,3752,03 9404 1548,707.0,Whittlesea (C),145.09466,-37.65287
351,Government,Mornington Primary School,Primary,Vale Street,Mornington,VIC,3931,03 5976 5500,534.0,Mornington Peninsula (S),145.04287,-38.221790000000006
356,Government,Brighton Beach Primary School,Primary,19 Windermere Crescent,Brighton,VIC,3186,03 9591 0888,91.0,Bayside (C),144.99611000000002,-37.9221
358,Government,Yarrambat Primary School,Primary,552 Yan Yean Road,Plenty - Yarrambat,VIC,3091,03 9436 1464,571.0,Nillumbik (S),145.13256,-37.64095
363,Government,Greensborough Primary School,Primary,130 Grimshaw Street,Greensborough,VIC,3088,03 9435 1496,66.0,Banyule (C),145.09939,-37.70391
365,Government,Cranbourne Primary School,Primary,Bakewell Street,Cranbourne,VIC,3977,03 5996 1744,161.0,Casey (C),145.28902,-38.11165
369,Government,Whittlesea Primary School,Primary,2425-2435 Plenty Road,Whittlesea,VIC,3757,03 9716 2140,707.0,Whittlesea (C),145.11405,-37.51427
383,Government,Bayswater Primary School,Primary,Birch Street,Bayswater,VIC,3153,03 9721 3755,367.0,Knox (C),145.25936000000002,-37.8433
385,Government,Mulgrave Primary School,Primary,Gladeswood Drive,Mulgrave,VIC,3170,03 9795 2477,497.0,Monash (C),145.19737,-37.93295
389,Government,Kinglake Primary School,Primary,20 Mcmahons Rd,Kinglake,VIC,3763,03 5786 1284,562.0,Murrindindi (S),145.35664,-37.521570000000004
394,Government,Bunyip Primary School,Primary,1290 Nar Nar Goon - Longwarry Road,Bunyip - Garfield,VIC,3815,03 5629 5462,145.0,Cardinia (S),145.71293,-38.09892
397,Government,Toora Primary School,Primary,5 Harriet Street,Pearcedale - Tooradin,VIC,3962,03 5686 2283,617.0,South Gippsland (S),146.32843,-38.664590000000004
398,Government,Montrose Primary School,Primary,Leith Road,Montrose,VIC,3765,03 9728 2203,745.0,Yarra Ranges (S),145.34413999999998,-37.80879
408,Government,The Basin Primary School,Primary,Cnr Liverpool Road & Mountain Highway,The Basin,VIC,3154,03 9762 1143,367.0,Knox (C),145.30841999999998,-37.849509999999995
412,Government,Kensington Primary School,Primary,Mccracken Street,Kensington,VIC,3031,03 9376 6013,506.0,Moonee Valley (C),144.92758,-37.7927
417,Government,Ivanhoe Primary School,Primary,122 Waterdale Road,Ivanhoe,VIC,3079,03 9499 1880,66.0,Banyule (C),145.04298,-37.76657
421,Government,St Kilda Park Primary School,Primary,68 Fitzroy Street,St Kilda,VIC,3182,03 8598 6444,590.0,Port Phillip (C),144.97802,-37.85815
433,Government,Malvern Primary School,Primary,17 Tooronga Road,Malvern East,VIC,3145,03 9571 6281,635.0,Stonnington (C),145.03846000000001,-37.871590000000005
435,Government,Carlton Gardens Primary School,Primary,215 Rathdowne Street,Carlton,VIC,3053,03 9663 6502,460.0,Melbourne (C),144.96951,-37.80205
436,Government,Ascot Vale Primary School,Primary,Bank Street,Ascot Vale,VIC,3032,03 9370 6507,506.0,Moonee Valley (C),144.92612,-37.77432
438,Government,Rosebud Primary School,Primary,Point Nepean Road,Rosebud - McCrae,VIC,3939,03 5986 8274,534.0,Mornington Peninsula (S),144.90896999999998,-38.355140000000006
439,Government,Koo Wee Rup Primary School,Primary,Moody Street,Koo Wee Rup,VIC,3981,03 5997 1272,145.0,Cardinia (S),145.49267,-38.1949
440,Government,Armadale Primary School,Primary,9-23 Densham Road,Armadale,VIC,3143,03 9822 7003,635.0,Stonnington (C),145.01776999999998,-37.85219
441,Government,Osborne Primary School,Primary,120 Craigie Rd,Mount Martha,VIC,3934,03 5975 1792,534.0,Mornington Peninsula (S),145.03995,-38.25699
442,Government,Somerville Primary School,Primary,37 Eramosa Road East,Somerville,VIC,3912,03 5977 5421,534.0,Mornington Peninsula (S),145.17914,-38.22402
450,Government,Fairfield Primary School,Primary,Langridge Street,Alphington - Fairfield,VIC,3078,03 9489 2966,189.0,Darebin (C),145.0204,-37.77799
452,Government,Garfield Primary School,Primary,84 Railway Avenue,Bunyip - Garfield,VIC,3814,03 5629 2274,145.0,Cardinia (S),145.67408,-38.09026
454,Government,Officer Primary School,Primary,13-23 Tivendale Road,Beaconsfield - Officer,VIC,3809,03 5943 2315,145.0,Cardinia (S),145.41019,-38.05832
455,Government,Brunswick South Primary School,Primary,56 Brunswick Road,Brunswick East,VIC,3057,03 9380 1231,525.0,Moreland (C),144.97241,-37.77867
458,Government,Surrey Hills Primary School,Primary,Beatrice Avenue,Surrey Hills,VIC,3127,03 9890 1560,698.0,Whitehorse (C),145.1009,-37.82553
459,Government,Montague Continuing Education Centre,Special,100 Montague Street,South Melbourne,VIC,3205,03 9690 3535,590.0,Port Phillip (C),144.94974,-37.8306
464,Government,Seville Primary School,Primary,639 Warburton Highway,Wandin - Seville,VIC,3139,03 5964 4557,745.0,Yarra Ranges (S),145.46441000000002,-37.77389
465,Government,Yarraville West Primary School,Primary,30 Powell Street,Yarraville,VIC,3013,03 9314 3816,433.0,Maribyrnong (C),144.88539,-37.81475
466,Government,Moreland Primary School,Primary,157-163 Moreland Road,Coburg,VIC,3058,03 9386 2510,525.0,Moreland (C),144.96648000000002,-37.75505
469,Government,Elsternwick Primary School,Primary,Murphy Street,Brighton,VIC,3186,03 8534 6100,91.0,Bayside (C),144.99729,-37.891420000000004
471,Government,Carnegie Primary School,Primary,51 Truganini Road,Carnegie,VIC,3163,03 9571 2662,231.0,Glen Eira (C),145.05486000000002,-37.89085
473,Government,Croydon Primary School,Primary,Cnr Kent Avenue & Croydon Road,Croydon,VIC,3136,03 9723 2472,441.0,Maroondah (C),145.28132,-37.79317
474,Government,Moonee Ponds West Primary School,Primary,150 Athol Street,Moonee Ponds,VIC,3039,03 9370 6875,506.0,Moonee Valley (C),144.90957,-37.76828
475,Government,Mitcham Primary School,Primary,294 Mitcham Road,Mitcham,VIC,3132,03 9873 1551,698.0,Whitehorse (C),145.19252,-37.80846
478,Government,Blackburn Primary School,Primary,185 Whitehorse Road,Blackburn,VIC,3130,03 9878 1483,698.0,Whitehorse (C),145.15767,-37.81754
480,Government,Port Melbourne Primary School,Primary,415 Graham Street,Port Melbourne,VIC,3207,03 9646 1001,590.0,Port Phillip (C),144.93381000000002,-37.83532
481,Government,Auburn Primary School,Primary,51 Rathmines Road,Hawthorn East,VIC,3123,03 9882 7035,111.0,Boroondara (C),145.05055,-37.82026
482,Government,Mentone Primary School,Primary,6 Childers Street,Mentone,VIC,3194,03 9583 2995,343.0,Kingston (C),145.06797,-37.98295
483,Government,Princes Hill Primary School,Primary,280 Pigdon Street,Carlton North - Princes Hill,VIC,3054,03 9389 5300,735.0,Yarra (C),144.9681,-37.7804
485,Government,Research Primary School,Primary,1570 Main Road,Research - North Warrandyte,VIC,3095,03 9437 1917,571.0,Nillumbik (S),145.18357,-37.70292
486,Government,Pearcedale Primary School,Primary,Baxter-tooradin Road,Pearcedale - Tooradin,VIC,3912,03 5978 6250,161.0,Casey (C),145.23198,-38.20301
489,Government,St Albans Primary School,Primary,39 West Esplanade,St Albans,VIC,3021,03 9366 2832,118.0,Brimbank (C),144.79577,-37.73875
492,Government,Toorak Primary School,Primary,Canterbury Road,Toorak,VIC,3142,03 9827 2959,635.0,Stonnington (C),145.00991000000002,-37.845079999999996
495,Government,Beaconsfield Primary School,Primary,71-77 Old Princes Highway,Beaconsfield - Officer,VIC,3807,03 9707 1510,145.0,Cardinia (S),145.37163999999999,-38.048629999999996
501,Government,Ormond Primary School,Primary,Cnr Murray & Wheatley Roads,Ormond - Glen Huntly,VIC,3204,03 9578 1327,231.0,Glen Eira (C),145.03367,-37.907
504,Government,Pascoe Vale Primary School,Primary,362 Gaffney Street,Pascoe Vale,VIC,3044,03 9354 1611,525.0,Moreland (C),144.93763,-37.73122
508,Government,Merri Creek Primary School,Primary,Miller Street,Fitzroy North,VIC,3068,03 9481 0177,735.0,Yarra (C),144.98739,-37.77697
509,Government,Sunshine Primary School,Primary,Cnr Hampshire & Derby Roads,Sunshine,VIC,3020,03 8311 5700,118.0,Brimbank (C),144.8311,-37.79088
511,Government,Wales Street Primary School,Primary,Wales Street,Thornbury,VIC,3071,03 9484 3949,189.0,Darebin (C),145.00883000000002,-37.761509999999994
514,Government,Kew East Primary School,Primary,35 Kitchener Street,Kew East,VIC,3102,03 9859 2903,111.0,Boroondara (C),145.04915,-37.79647
517,Government,Brunswick East Primary School,Primary,195a Stewart Street,Brunswick East,VIC,3057,03 9387 3361,525.0,Moreland (C),144.9794,-37.7651
523,Government,Wonga Park Primary School,Primary,Dudley Road,Warrandyte - Wonga Park,VIC,3115,03 9722 1325,421.0,Manningham (C),145.274,-37.73064
526,Government,Monbulk Primary School,Primary,1 Main Road,Monbulk - Silvan,VIC,3793,03 9756 6481,745.0,Yarra Ranges (S),145.41026000000002,-37.87685
529,Government,Mount Dandenong Primary School,Primary,Farndons Road,Mount Dandenong - Olinda,VIC,3767,03 9751 1136,745.0,Yarra Ranges (S),145.36217,-37.830740000000006
531,Government,Badger Creek Primary School,Primary,Badger Creek Rd,Healesville - Yarra Glen,VIC,3777,03 5962 4019,745.0,Yarra Ranges (S),145.53277,-37.68005
535,Government,Clarinda Primary School,Primary,1166 Centre Road,Clarinda,VIC,3169,03 9544 3231,343.0,Kingston (C),145.10251,-37.926970000000004
536,Government,Chelsea Heights Primary School,Primary,194 Thames Promenade,Chelsea Heights,VIC,3196,03 9772 4139,343.0,Kingston (C),145.13898999999998,-38.04468
538,Government,Tecoma Primary School,Primary,1536 Burwood Highway,Upwey - Tecoma,VIC,3160,03 9754 2354,745.0,Yarra Ranges (S),145.34492,-37.90696
542,Government,Emerald Primary School,Primary,10 Heroes Avenue,Emerald - Cockatoo,VIC,3782,03 5968 4311,145.0,Cardinia (S),145.44243,-37.93338
543,Government,Carrum Primary School,Primary,Walkers Road,Carrum - Patterson Lakes,VIC,3197,03 9772 1117,343.0,Kingston (C),145.1265,-38.07809
547,Government,Mount Waverley Primary School,Primary,37-45 Park Lane,Mount Waverley,VIC,3149,03 9807 1480,497.0,Monash (C),145.12409,-37.88091
550,Government,Murrumbeena Primary School,Primary,Hobart Road,Murrumbeena,VIC,3163,03 9568 1300,231.0,Glen Eira (C),145.07041,-37.88617
553,Government,Warranwood Primary School,Primary,1 Wellington Park Drive,Croydon Hills - Warranwood,VIC,3134,03 9876 6066,441.0,Maroondah (C),145.24698,-37.77435
555,Government,Olinda Primary School,Primary,45 Charlemont Lane,Mount Dandenong - Olinda,VIC,3788,03 9751 1181,745.0,Yarra Ranges (S),145.36619,-37.8547
559,Government,Langwarrin Primary School,Primary,90 Warrandyte Road,Langwarrin,VIC,3910,03 9789 7346,217.0,Frankston (C),145.18963,-38.16037
560,Government,Cockatoo Primary School,Primary,19-33 Belgrave-Gembrook Road,Emerald - Cockatoo,VIC,3781,03 5968 8017,145.0,Cardinia (S),145.49621000000002,-37.9393
563,Government,Sydenham - Hillside Primary School,Primary,Community Hub,Sydenham,VIC,3037,03 9361 5300,118.0,Brimbank (C),144.7621,-37.70218
567,Government,Brunswick North Primary School,Primary,Pearson Street,Brunswick West,VIC,3055,03 9383 1400,525.0,Moreland (C),144.95063000000002,-37.759859999999996
568,Government,Fawkner Primary School,Primary,Lorne Street,Fawkner,VIC,3060,03 9357 3579,525.0,Moreland (C),144.97353,-37.71589
569,Government,Alphington Primary School,Primary,Yarralea Street,Alphington - Fairfield,VIC,3078,03 9499 2200,735.0,Yarra (C),145.03201,-37.78352
571,Government,Banyan Fields Primary School,Primary,90 Cadles Road,Carrum Downs,VIC,3201,03 9782 1333,217.0,Frankston (C),145.18719,-38.094770000000004
572,Government,Norris Bank Primary School,Primary,146 Settlement Road,Bundoora,VIC,3083,03 9467 2206,707.0,Whittlesea (C),145.04263,-37.69451
574,Government,Black Rock Primary School,Primary,Arkaringa Crescent,Sandringham - Black Rock,VIC,3193,03 9598 2293,91.0,Bayside (C),145.02165,-37.96987
575,Government,Mount Evelyn Primary School,Primary,33 Monbulk Road,Mount Evelyn,VIC,3796,03 9736 2233,745.0,Yarra Ranges (S),145.38881999999998,-37.790929999999996
576,Government,Kilsyth Primary School,Primary,Durham Road,Kilsyth,VIC,3137,03 9725 4320,745.0,Yarra Ranges (S),145.31493999999998,-37.80211
580,Government,Noble Park Primary School,Primary,65 Buckley Street,Noble Park,VIC,3174,03 9546 8811,267.0,Greater Dandenong (C),145.17391,-37.97063
581,Government,Deepdene Primary School,Primary,958a Burke Road,Balwyn,VIC,3103,03 9817 1917,111.0,Boroondara (C),145.06128,-37.808479999999996
587,Government,Glen Huntly Primary School,Primary,Grange Road,Ormond - Glen Huntly,VIC,3163,03 9571 2933,231.0,Glen Eira (C),145.04623,-37.89377
589,Government,Wantirna Primary School,Primary,120 Mountain Highway,Wantirna,VIC,3152,03 9801 1938,367.0,Knox (C),145.21662,-37.85606
591,Government,Melton South Primary School,Primary,34 - 46 Exford Road,Melton South,VIC,3338,03 9743 2922,465.0,Melton (C),144.57422,-37.70843
592,Government,Chelsea Primary School,Primary,34-44 Argyle Ave,Chelsea - Bonbeach,VIC,3196,03 9773 2055,343.0,Kingston (C),145.12264,-38.0555
594,Government,Hampton Primary School,Primary,528 Hampton Street,Hampton,VIC,3188,03 9598 1412,91.0,Bayside (C),145.00348,-37.93339
595,Government,Victorian College For The Deaf,Special,597 St Kilda Road,Melbourne,VIC,3004,03 9510 1706,460.0,Melbourne (C),144.98231,-37.84977
597,Government,Edithvale Primary School,Primary,Edithvale Road,Edithvale - Aspendale,VIC,3196,03 9772 1393,343.0,Kingston (C),145.11297,-38.037490000000005
599,Government,Penders Grove Primary School,Primary,370 Victoria Road,Thornbury,VIC,3071,03 9484 1076,189.0,Darebin (C),145.01426999999998,-37.75452
602,Government,Seaford Primary School,Primary,Mcrae Street,Seaford,VIC,3198,03 9786 1357,217.0,Frankston (C),145.1305,-38.104440000000004
603,Government,Wattle Park Primary School,Primary,225 Warrigal Road,Burwood,VIC,3125,03 9808 2165,698.0,Whitehorse (C),145.09812,-37.8434
605,Government,Preston West Primary School,Primary,383 Murray Road,Preston,VIC,3072,03 9470 1546,189.0,Darebin (C),144.99553,-37.73737
606,Government,Thornbury Primary School,Primary,16-22 Hutton Street,Thornbury,VIC,3071,03 9484 3254,189.0,Darebin (C),144.99675,-37.75543
607,Government,Footscray West Primary School,Primary,Argyle Street,West Footscray - Tottenham,VIC,3012,03 9687 1535,433.0,Maribyrnong (C),144.87521999999998,-37.794940000000004
609,Government,Gardenvale Primary School,Primary,66 Landcox Street,Brighton East,VIC,3187,03 9596 2871,91.0,Bayside (C),145.01503,-37.90468
610,Government,Beaumaris Primary School,Primary,79-99 Dalgetty Road,Beaumaris,VIC,3193,03 9589 2619,91.0,Bayside (C),145.03759,-37.98527
614,Government,Altona Primary School,Primary,109 Blyth Street,Altona,VIC,3018,03 9398 2925,311.0,Hobsons Bay (C),144.82273999999998,-37.867709999999995
616,Government,Upper Ferntree Gully Primary School,Primary,Talaskia Road,Upper Ferntree Gully,VIC,3156,03 9758 1527,367.0,Knox (C),145.31432,-37.8956
621,Government,Hurstbridge Primary School,Primary,Main Road,Hurstbridge,VIC,3099,03 9718 2386,571.0,Nillumbik (S),145.19808,-37.63617
622,Government,Coburg West Primary School,Primary,Reynard Street,Coburg,VIC,3058,03 9386 1286,525.0,Moreland (C),144.94762,-37.74715
623,Government,Elwood Primary School,Primary,Scott Street,Elwood,VIC,3184,03 9531 2762,590.0,Port Phillip (C),144.98836,-37.8815
628,Government,Reservoir Primary School,Primary,Duffy Street,Reservoir,VIC,3073,03 9460 5798,189.0,Darebin (C),145.00677,-37.711420000000004
635,Government,Moonee Ponds Primary School,Primary,87 Wilson Street,Moonee Ponds,VIC,3039,03 9375 2511,506.0,Moonee Valley (C),144.93368999999998,-37.76341
636,Government,Kingsville Primary School,Primary,58 Bishop Street,Yarraville,VIC,3013,03 9314 5869,433.0,Maribyrnong (C),144.87466,-37.8126
639,Government,Ascot Vale West Primary School,Primary,Langs Rd,Ascot Vale,VIC,3032,03 9370 8784,506.0,Moonee Valley (C),144.91111999999998,-37.78068
641,Government,Hartwell Primary School,Primary,Milverton St,Camberwell,VIC,3124,03 9889 4012,111.0,Boroondara (C),145.08415,-37.84794
643,Government,Wattle Glen Primary School,Primary,16-24 Reynolds Road,Wattle Glen - Diamond Creek,VIC,3096,03 9438 1259,571.0,Nillumbik (S),145.18200000000002,-37.66811
644,Government,Hampton Park Primary School,Primary,Somerville Road,Hampton Park - Lynbrook,VIC,3976,03 9799 1440,161.0,Casey (C),145.25294,-38.03046
646,Government,Ripponlea Primary School,Primary,25 Carrington Grove,St Kilda East,VIC,3183,03 9527 5728,231.0,Glen Eira (C),145.00512,-37.87471
648,Government,Montmorency Primary School,Primary,Rattray Road,Montmorency - Briar Hill,VIC,3094,03 9434 5944,66.0,Banyule (C),145.1216,-37.71765
650,Government,Ringwood North Primary School,Primary,172 Oban Road,Ringwood North,VIC,3134,03 9876 3411,441.0,Maroondah (C),145.23074,-37.79313
652,Government,Lloyd Street Primary School,Primary,Lloyd Street,Malvern East,VIC,3145,03 9573 4600,635.0,Stonnington (C),145.05611000000002,-37.87242
653,Government,Bayswater North Primary School,Primary,Stuart Street,Bayswater North,VIC,3153,03 9729 1744,441.0,Maroondah (C),145.29561999999999,-37.8288
654,Government,Westbreen Primary School,Primary,2-10 Pascoe Street,Pascoe Vale,VIC,3044,03 9306 9481,525.0,Moreland (C),144.93622,-37.71606
655,Government,Point Cook Prep - Year 9 College,Pri/Sec,18 - 50 Ponsford Drive,Point Cook,VIC,3030,03 8348 7100,726.0,Wyndham (C),144.72569,-37.89359
656,Government,Footscray North Primary School,Primary,14 Rosamond Road,Footscray,VIC,3011,03 9317 9047,433.0,Maribyrnong (C),144.88336999999999,-37.78775
659,Government,Parkdale Primary School,Primary,305-311 Nepean Highway,Mordialloc - Parkdale,VIC,3195,03 9580 1451,343.0,Kingston (C),145.08292,-37.99269
660,Government,Hughesdale Primary School,Primary,Brine Street,Hughesdale,VIC,3166,03 9570 4808,497.0,Monash (C),145.07764,-37.905840000000005
661,Government,Westgarth Primary School,Primary,45 Brooke St & 311 Clarke St,Northcote,VIC,3070,03 9481 5577,189.0,Darebin (C),145.00556,-37.77647
662,Government,Auburn South Primary School,Primary,419 Tooronga Road,Hawthorn East,VIC,3123,03 9882 2140,111.0,Boroondara (C),145.04474,-37.839529999999996
663,Government,Aspendale Primary School,Primary,23 Laura Street,Aspendale Gardens - Waterways,VIC,3195,03 9580 3255,343.0,Kingston (C),145.09976,-38.020270000000004
666,Government,Dandenong West Primary School,Primary,32 Birdwood Avenue,Dandenong,VIC,3175,03 9792 2868,267.0,Greater Dandenong (C),145.20042,-37.980740000000004
667,Government,Yarra Road Primary School,Primary,222 - 228 Yarra Road,Croydon,VIC,3136,03 9723 4182,441.0,Maroondah (C),145.27223,-37.7664
668,Government,Aberfeldie Primary School,Primary,1 Doone Street,Essendon - Aberfeldie,VIC,3040,03 9337 8084,506.0,Moonee Valley (C),144.89555,-37.7566
671,Government,Dingley Primary School,Primary,111-115 Centre Dandenong Road,Dingley Village,VIC,3172,03 9551 3555,343.0,Kingston (C),145.13194,-37.98268
676,Government,Nepean Special School,Special,33 Klauer St,Seaford,VIC,3198,03 9786 9111,217.0,Frankston (C),145.14233000000002,-38.11943
677,Government,Brunswick South West Primary School,Primary,South Daly Street,Brunswick West,VIC,3055,03 9387 6886,525.0,Moreland (C),144.94318,-37.77057
678,Government,Bell Primary School,Primary,78A Oakover Road,Preston,VIC,3072,03 9480 5622,189.0,Darebin (C),144.99071999999998,-37.747890000000005
679,Government,Chatham Primary School,Primary,Weybridge Street,Surrey Hills,VIC,3127,03 9830 1933,111.0,Boroondara (C),145.09188,-37.81711
681,Government,Ashburton Primary School,Primary,Fakenham Road,Ashburton,VIC,3147,03 9885 2559,111.0,Boroondara (C),145.08381,-37.86221
682,Government,Bentleigh West Primary School,Primary,23 Brewer Road,Bentleigh - McKinnon,VIC,3204,03 9557 1228,231.0,Glen Eira (C),145.02677,-37.920590000000004
685,Government,Briar Hill Primary School,Primary,25 Gladstone Road,Montmorency - Briar Hill,VIC,3088,03 9435 1633,66.0,Banyule (C),145.11622,-37.70831
687,Government,Mckinnon Primary School,Primary,253 Tucker Road,Ormond - Glen Huntly,VIC,3204,03 9578 1851,231.0,Glen Eira (C),145.0528,-37.90805
688,Government,Clayton South Primary School,Primary,539 Clayton Road,Clayton South,VIC,3169,03 9558 0599,343.0,Kingston (C),145.11622,-37.940540000000006
689,Government,Ivanhoe East Primary School,Primary,35 Warncliffe Road,Ivanhoe East - Eaglemont,VIC,3079,03 9499 2171,66.0,Banyule (C),145.05945,-37.77459
693,Government,Brunswick North West Primary School,Primary,Culloden Street,Brunswick West,VIC,3055,03 9386 4624,525.0,Moreland (C),144.9431,-37.75654
695,Government,Fleetwood Primary School,Primary,97 Fleetwood Drive,Narre Warren,VIC,3805,03 9705 2281,161.0,Casey (C),145.31704,-38.039359999999995
697,Government,Sandringham East Primary School,Primary,Holloway Road,Sandringham - Black Rock,VIC,3191,03 9598 1704,91.0,Bayside (C),145.02222,-37.95667
699,Government,Somers Primary School,Primary,87 Camp Hill Road,Hastings - Somers,VIC,3927,03 5983 5546,534.0,Mornington Peninsula (S),145.16461,-38.39212
700,Government,Upwey Primary School,Primary,15 Darling Avenue,Upwey - Tecoma,VIC,3158,03 9754 2369,745.0,Yarra Ranges (S),145.3328,-37.90287
701,Government,Coburg North Primary School,Primary,180 O'Hea Street,Coburg,VIC,3058,03 9354 1660,525.0,Moreland (C),144.95188000000002,-37.73603
702,Government,Rosanna Primary School,Primary,Grandview Grove,Heidelberg - Rosanna,VIC,3084,03 9457 2592,66.0,Banyule (C),145.0629,-37.73539
703,Government,Wantirna South Primary School,Primary,16 Tyner Road,Wantirna South,VIC,3152,03 9801 1900,367.0,Knox (C),145.23734,-37.87253
704,Government,Strathmore Primary School,Primary,Lloyd Street,Strathmore,VIC,3041,03 9379 5693,506.0,Moonee Valley (C),144.91711,-37.73556
705,Government,Balwyn North Primary School,Primary,Buchanan Avenue,Balwyn North,VIC,3104,03 9859 4258,111.0,Boroondara (C),145.0765,-37.79638
706,Government,Solway Primary School,Primary,Winton Road,Ashburton,VIC,3147,03 9885 2421,111.0,Boroondara (C),145.07283,-37.87324
709,Government,Newlands Primary School,Primary,2-26 Murphy Street,Preston,VIC,3072,03 9354 2928,189.0,Darebin (C),144.98475,-37.730059999999995
716,Government,Newport Gardens Primary School,Primary,Cnr Woods St & Maddox Rd,Newport,VIC,3015,03 9391 2168,311.0,Hobsons Bay (C),144.86768999999998,-37.844879999999996
718,Government,Malvern Valley Primary School,Primary,Abbotsford Avenue,Malvern East,VIC,3145,03 9569 5820,635.0,Stonnington (C),145.08155,-37.8808
720,Government,Belmore School,Special,49 Stroud Street,Balwyn,VIC,3103,03 9859 8762,111.0,Boroondara (C),145.08114,-37.80428
721,Government,Croxton Special School,Special,159-165 Beaconsfield Parade,Northcote,VIC,3070,03 9482 5482,189.0,Darebin (C),144.9874,-37.764
724,Government,Frankston East Primary School,Primary,6A Ashleigh Avenue,Frankston,VIC,3199,03 9789 9552,217.0,Frankston (C),145.14512,-38.14633
725,Government,Selby Primary School,Primary,2 Morley Street,Belgrave - Selby,VIC,3159,03 9754 2675,745.0,Yarra Ranges (S),145.36682,-37.911359999999995
726,Government,Reservoir East Primary School,Primary,58 Boldrewood Parade,Reservoir,VIC,3073,03 9460 1569,189.0,Darebin (C),145.02184,-37.71998
727,Government,Tucker Road Bentleigh Primary School,Primary,16 Tucker Road,Bentleigh - McKinnon,VIC,3204,03 9557 2044,231.0,Glen Eira (C),145.04901,-37.93254
732,Government,Greythorn Primary School,Primary,Reading Avenue,Balwyn North,VIC,3104,03 9857 9762,111.0,Boroondara (C),145.09588,-37.80146
737,Government,Eastwood Primary School,Primary,Alexandra Road,Ringwood East,VIC,3135,03 9870 6103,441.0,Maroondah (C),145.25247,-37.81718
738,Government,Pascoe Vale South Primary School,Primary,411 - 429 Reynard Street,Pascoe Vale South,VIC,3044,03 9386 4301,525.0,Moreland (C),144.93562,-37.74572
739,Government,Lalor Primary School,Primary,26 Maxwell Street,Lalor,VIC,3075,03 9465 3037,707.0,Whittlesea (C),145.02585,-37.67067
740,Government,Reservoir West Primary School,Primary,Carrington Road,Reservoir,VIC,3073,03 9478 8211,189.0,Darebin (C),144.99023,-37.72214
741,Government,Coatesville Primary School,Primary,21 Mackie Road,Bentleigh East,VIC,3165,03 9570 1652,231.0,Glen Eira (C),145.07324,-37.92034
744,Government,Box Hill North Primary School,Primary,Elizabeth Street,Box Hill North,VIC,3129,03 9890 5023,698.0,Whitehorse (C),145.12331,-37.80079
745,Government,Ferntree Gully North Primary School,Primary,111 Forest Road,Ferntree Gully,VIC,3156,03 9758 1662,367.0,Knox (C),145.29942,-37.874790000000004
748,Government,Dandenong North Primary School,Primary,117-125 Cleeland Street,Dandenong,VIC,3175,03 9794 7899,267.0,Greater Dandenong (C),145.21542,-37.97656
751,Government,Harrisfield Primary School,Primary,495 Princes Hwy,Noble Park,VIC,3174,03 9546 9210,267.0,Greater Dandenong (C),145.17953,-37.95442
752,Government,Pascoe Vale North Primary School,Primary,Kent Road,Pascoe Vale,VIC,3044,03 9354 3343,525.0,Moreland (C),144.94848000000002,-37.72126
753,Government,Belle Vue Primary School,Primary,20 Highview Road,Balwyn North,VIC,3104,03 9859 6123,111.0,Boroondara (C),145.07873,-37.781940000000006
756,Government,St Albans East Primary School,Primary,7-17 Station Avenue,St Albans,VIC,3021,03 9366 2071,118.0,Brimbank (C),144.81104,-37.74197
759,Government,Sunshine Heights Primary School,Primary,1-19 Mailey Street,Sunshine,VIC,3020,03 8311 7100,118.0,Brimbank (C),144.81781,-37.79221
760,Government,Sunshine North Primary School,Primary,65 - 71 Suffolk Road,Sunshine North,VIC,3020,03 9311 2400,118.0,Brimbank (C),144.83735,-37.77218
761,Government,Banyule Primary School,Primary,Banyule Road,Heidelberg - Rosanna,VIC,3084,03 9459 0732,66.0,Banyule (C),145.07765,-37.74337
763,Government,Rosanna Golf Links Primary School,Primary,Interlaken Parade,Heidelberg - Rosanna,VIC,3084,03 9457 4178,66.0,Banyule (C),145.07453,-37.73512
765,Government,Cranbourne South Primary School,Primary,Pearcedale Road,Cranbourne,VIC,3977,03 9782 2999,161.0,Casey (C),145.24508,-38.14839
771,Government,Craigieburn Primary School,Primary,87 - 91 Grand Boulevard,Craigieburn,VIC,3064,03 9308 1228,327.0,Hume (C),144.93287,-37.582570000000004
775,Government,Valkstone Primary School,Primary,Valkstone Street,Bentleigh East,VIC,3165,03 9570 3986,231.0,Glen Eira (C),145.05716999999999,-37.914609999999996
776,Government,Overport Primary School,Primary,Towerhill Road,Frankston,VIC,3199,03 9783 8777,217.0,Frankston (C),145.12697,-38.16049
777,Government,Wembley Primary School,Primary,32 St Leonards Ave,Yarraville,VIC,3013,03 9314 7054,433.0,Maribyrnong (C),144.87483999999998,-37.820479999999996
778,Government,Rosamond Special School,Special,276 Ballarat Road,Braybrook,VIC,3019,03 9311 1511,433.0,Maribyrnong (C),144.85541,-37.77964
779,Government,Bonbeach Primary School,Primary,29-63 Breeze Street,Chelsea - Bonbeach,VIC,3196,03 9772 3471,343.0,Kingston (C),145.12673999999998,-38.0666
780,Government,Heatherhill Primary School,Primary,959 Heatherton Road,Springvale,VIC,3171,03 9546 7562,267.0,Greater Dandenong (C),145.15847,-37.962709999999994
781,Government,Beaumaris North Primary School,Primary,Wood Street,Beaumaris,VIC,3193,03 9589 5449,91.0,Bayside (C),145.03627,-37.974140000000006
783,Government,Yarraman Oaks Primary School,Primary,27 Liege Avenue,Noble Park,VIC,3174,03 9792 4406,267.0,Greater Dandenong (C),145.19153,-37.970290000000006
784,Government,Mount Pleasant Road Nunawading Primary School,Primary,Mt Pleasant Road,Nunawading,VIC,3131,03 9878 1730,698.0,Whitehorse (C),145.18013,-37.82871
785,Government,Glenroy West Primary School,Primary,York Street,Glenroy,VIC,3046,03 9306 8955,525.0,Moreland (C),144.90843,-37.705040000000004
786,Government,Dandenong South Primary School,Primary,52 Kirkham Road,Dandenong,VIC,3175,03 9792 3726,267.0,Greater Dandenong (C),145.21202,-37.9985
787,Government,St Albans North Primary School,Primary,George Street,St Albans,VIC,3021,03 9366 2029,118.0,Brimbank (C),144.80131,-37.73168
789,Government,Beverley Hills Primary School,Primary,2 - 14 Cassowary Street,Doncaster East,VIC,3109,03 9842 1428,421.0,Manningham (C),145.15887,-37.796929999999996
791,Government,Frankston Heights Primary School,Primary,10 Kalmia Street,Frankston,VIC,3199,03 9783 4988,217.0,Frankston (C),145.14671,-38.162279999999996
792,Government,Kerrimuir Primary School,Primary,178 Dorking Road,Box Hill North,VIC,3129,03 9898 1494,698.0,Whitehorse (C),145.13512,-37.80363
794,Government,Strathmore North Primary School,Primary,Mascoma Street,Strathmore,VIC,3041,03 9379 6575,506.0,Moonee Valley (C),144.91615,-37.72486
796,Government,Thomastown East Primary School,Primary,82 Cedar Street,Thomastown,VIC,3074,03 9465 3032,707.0,Whittlesea (C),145.02513000000002,-37.68046
797,Government,Sussex Heights Primary School,Primary,36 Solomon Street,Mount Waverley,VIC,3149,03 9807 8120,497.0,Monash (C),145.11176,-37.8892
799,Government,Watsonia Primary School,Primary,Nell Street West,Watsonia,VIC,3087,03 9435 2917,66.0,Banyule (C),145.08661999999998,-37.70643
800,Government,Parktone Primary School,Primary,Robert Street,Mordialloc - Parkdale,VIC,3195,03 9580 1207,343.0,Kingston (C),145.08762,-37.98704
801,Government,Antonio Park Primary School,Primary,631-639 Whitehorse Road,Mitcham,VIC,3132,03 9874 4371,698.0,Whitehorse (C),145.20605,-37.8162
802,Government,Kingsbury Primary School,Primary,1A Maryborough Avenue,Kingsbury,VIC,3083,03 9462 2711,189.0,Darebin (C),145.0372,-37.71602
803,Government,Katandra School,Special,2 Walsh Street,Ormond - Glen Huntly,VIC,3204,03 9578 6991,231.0,Glen Eira (C),145.04074,-37.90206
804,Government,Ardeer Primary School,Primary,Suspension Street,Ardeer,VIC,3022,03 9363 1194,118.0,Brimbank (C),144.80047,-37.78096
805,Government,Westall Primary School,Primary,Fairbank Road,Clayton South,VIC,3169,03 9546 8964,343.0,Kingston (C),145.13582,-37.94243
806,Government,Tullamarine Primary School,Primary,Broadmeadows Road,Tullamarine,VIC,3043,03 9338 2826,327.0,Hume (C),144.87957,-37.7022
808,Government,Park Orchards Primary School,Primary,1-3 Bowmore Avenue,Donvale - Park Orchards,VIC,3114,03 9876 1249,421.0,Manningham (C),145.21582,-37.779720000000005
809,Government,Albion North Primary School,Primary,67-73 Furlong Road,Sunshine North,VIC,3020,03 9312 5900,118.0,Brimbank (C),144.8239,-37.76269
810,Government,Blackburn Lake Primary School,Primary,12 - 14 Florence Street,Blackburn,VIC,3130,03 9894 2855,698.0,Whitehorse (C),145.1661,-37.8276
811,Government,Laburnum Primary School,Primary,Janet Street,Blackburn,VIC,3130,03 9898 5811,698.0,Whitehorse (C),145.13875,-37.82708
813,Government,Heatherwood School,Special,370-380 Springvale Road,Donvale - Park Orchards,VIC,3111,03 9842 8319,421.0,Manningham (C),145.17803999999998,-37.800340000000006
815,Government,Pinewood Primary School,Primary,27-35 Pinewood Drive,Mount Waverley,VIC,3149,03 8847 3200,497.0,Monash (C),145.14221,-37.890159999999995
816,Government,Broadmeadows Primary School,Primary,62-70 Blair Street,Broadmeadows,VIC,3047,03 9302 6060,327.0,Hume (C),144.9291,-37.68042
817,Government,Moomba Park Primary School,Primary,111 Anderson Road,Fawkner,VIC,3060,03 9359 2028,525.0,Moreland (C),144.96657,-37.69579
818,Government,Keilor Heights Primary School,Primary,Ronald Grove,Keilor East,VIC,3033,03 9336 1739,506.0,Moonee Valley (C),144.86649,-37.73752
819,Government,Ainslie Parklands Primary School,Primary,Hinkley Ave,Croydon,VIC,3136,03 9870 1566,441.0,Maroondah (C),145.26424,-37.79379
820,Government,Parkmore Primary School,Primary,38-54 Jolimont Road,Forest Hill,VIC,3131,03 9878 5556,698.0,Whitehorse (C),145.17573000000002,-37.84363
822,Government,Mullum Primary School,Primary,18 Panfield Avenue,Ringwood,VIC,3134,03 9870 2120,441.0,Maroondah (C),145.23944,-37.797740000000005
823,Government,Cranbourne Park Primary School,Primary,1 Tucker Street,Cranbourne,VIC,3977,03 5996 1142,161.0,Casey (C),145.27748,-38.10393
824,Government,Viewbank Primary School,Primary,Nevin Parade,Viewbank - Yallambie,VIC,3084,03 9459 1512,66.0,Banyule (C),145.08999,-37.73473
825,Government,Greenhills Primary School,Primary,Mine Street,Greensborough,VIC,3088,03 9435 4181,66.0,Banyule (C),145.11865,-37.69228
826,Government,Upwey South Primary School,Primary,91 Morris Road,Upwey - Tecoma,VIC,3158,03 9757 0200,745.0,Yarra Ranges (S),145.32684,-37.913140000000006
829,Government,Eltham East Primary School,Primary,Grove Street,Eltham,VIC,3095,03 9439 9793,571.0,Nillumbik (S),145.1551,-37.71148
830,Government,Belvedere Park Primary School,Primary,30 Belvedere Road,Seaford,VIC,3198,03 9786 3205,217.0,Frankston (C),145.14681000000002,-38.10972
831,Government,Essex Heights Primary School,Primary,22-30 Essex Road,Mount Waverley,VIC,3149,03 9807 4944,497.0,Monash (C),145.11511000000002,-37.86295
832,Government,Mountain Gate Primary School,Primary,Adele Avenue,Ferntree Gully,VIC,3156,03 9758 2811,367.0,Knox (C),145.26877,-37.8863
833,Government,Fairhills Primary School,Primary,Manuka Drive,Ferntree Gully,VIC,3156,03 9758 3007,367.0,Knox (C),145.26571,-37.86925
834,Government,Boronia West Primary School,Primary,25 Tormore Road,Boronia,VIC,3155,03 9762 2510,367.0,Knox (C),145.27848,-37.85856
835,Government,Southmoor Primary School,Primary,Rica Street,Moorabbin - Heatherton,VIC,3189,03 9555 1235,343.0,Kingston (C),145.05596,-37.941829999999996
836,Government,Ringwood Heights Primary School,Primary,60 Summit Crescent,Ringwood North,VIC,3134,03 9870 3050,441.0,Maroondah (C),145.21781000000001,-37.802859999999995
837,Government,Glenroy Specialist School,Special,208 Hilton Street,Glenroy,VIC,3046,03 9304 2263,525.0,Moreland (C),144.92053,-37.69936
838,Government,Ruskin Park Primary School,Primary,18 - 20 Ruskin Ave,Croydon,VIC,3136,03 9723 3886,441.0,Maroondah (C),145.29616000000001,-37.79894
839,Government,Emerson School,Special,1430 Heatherton Road,Dandenong,VIC,3175,03 9791 8900,267.0,Greater Dandenong (C),145.2081,-37.96986
841,Government,Karingal Primary School,Primary,Mallum Avenue,Frankston,VIC,3199,03 9789 0514,217.0,Frankston (C),145.15228000000002,-38.13792
842,Government,Mount View Primary School,Primary,Shepherd Road,Glen Waverley,VIC,3150,03 9560 0471,497.0,Monash (C),145.17885,-37.88355
843,Government,Syndal South Primary School,Primary,14 Montgomery Avenue,Mount Waverley,VIC,3149,03 9802 5277,497.0,Monash (C),145.14297,-37.879090000000005
844,Government,Montmorency South Primary School,Primary,64 Buena Vista Drive,Montmorency - Briar Hill,VIC,3094,03 9439 6201,66.0,Banyule (C),145.12983,-37.72558
846,Government,Altona North Primary School,Primary,51 Cresser Street,Altona North,VIC,3025,03 9391 4572,311.0,Hobsons Bay (C),144.84936000000002,-37.836929999999995
847,Government,Burwood Heights Primary School,Primary,Cnr Hawthorn & Mahoneys Rds,Burwood East,VIC,3151,03 9803 8311,698.0,Whitehorse (C),145.16273999999999,-37.846740000000004
849,Government,Watsonia Heights Primary School,Primary,61 Henry Street,Greensborough,VIC,3088,03 9435 4617,66.0,Banyule (C),145.10073,-37.7153
851,Government,Pembroke Primary School,Primary,Pembroke Road,Mooroolbark,VIC,3138,03 9725 6689,745.0,Yarra Ranges (S),145.32549,-37.79596
852,Government,Mahogany Rise Primary School,Primary,25 Forster Avenue,Frankston North,VIC,3200,03 9786 3211,217.0,Frankston (C),145.1574,-38.12562
854,Government,Bundoora Primary School,Primary,Balmoral Avenue,Bundoora,VIC,3083,03 9467 2601,66.0,Banyule (C),145.06298999999999,-37.70734
855,Government,University Park Primary School,Primary,Lister Street,St Albans,VIC,3021,03 9366 1356,118.0,Brimbank (C),144.80302,-37.75506
856,Government,St Albans Heights Primary School,Primary,Norwich Street,St Albans,VIC,3021,03 9366 3127,118.0,Brimbank (C),144.80969,-37.748470000000005
858,Government,Hume Valley School,Special,15- 41 Koroit Avenue,Broadmeadows,VIC,3047,03 9309 3477,327.0,Hume (C),144.92701,-37.6724
859,Government,Mentone Park Primary School,Primary,Broome Avenue,Mentone,VIC,3194,03 9583 4935,343.0,Kingston (C),145.0828,-37.98001
860,Government,Donvale Primary School,Primary,Elata Street,Donvale - Park Orchards,VIC,3111,03 9842 3373,421.0,Manningham (C),145.17366,-37.80049
862,Government,Boronia Heights Primary School,Primary,Landscape Drive,Boronia,VIC,3155,03 9729 2614,367.0,Knox (C),145.29648,-37.844570000000004
863,Government,Glenallen School,Special,7 Allen Street,Glen Waverley,VIC,3150,03 9561 1966,497.0,Monash (C),145.16175,-37.88836
866,Government,Bayswater South Primary School,Primary,Enfield Drive,Bayswater,VIC,3153,03 9729 2862,367.0,Knox (C),145.26135,-37.8549
867,Government,Seaford North Primary School,Primary,81 Hallifax Street,Seaford,VIC,3198,03 9786 5674,217.0,Frankston (C),145.13361,-38.09016
869,Government,Lalor East Primary School,Primary,39 Cleveland Street,Thomastown,VIC,3074,03 9465 4350,707.0,Whittlesea (C),145.03496,-37.67653
870,Government,Jackson School,Special,Mulhall Drive,St Albans,VIC,3021,03 9366 4322,118.0,Brimbank (C),144.81418,-37.75602
871,Government,Carlton Primary School,Primary,Cnr Palmerston & Drummond Sts,Carlton,VIC,3053,03 9347 6022,460.0,Melbourne (C),144.97045,-37.7956
874,Government,Highvale Primary School,Primary,33 Ashton Street,Glen Waverley,VIC,3150,03 9887 8000,497.0,Monash (C),145.17421000000002,-37.8664
876,Government,Wooranna Park Primary School,Primary,89-105 Carlton Road,Dandenong,VIC,3175,03 9795 2007,267.0,Greater Dandenong (C),145.21681999999998,-37.9603
877,Government,Knox Park Primary School,Primary,Kathryn Road,Knoxfield - Scoresby,VIC,3180,03 9763 6533,367.0,Knox (C),145.2514,-37.88363
878,Government,Birralee Primary School,Primary,Heyington Avenue,Doncaster,VIC,3108,03 9848 4996,421.0,Manningham (C),145.11334,-37.793279999999996
881,Government,Derinya Primary School,Primary,Overport Road,Frankston South,VIC,3199,03 9787 3633,217.0,Frankston (C),145.12094,-38.174440000000004
882,Government,Thomastown West Primary School,Primary,98-112 Main Street,Thomastown,VIC,3074,03 9465 4317,707.0,Whittlesea (C),145.00079,-37.6787
883,Government,Rowville Primary School,Primary,Paratea Drive,Rowville,VIC,3178,03 9764 1955,367.0,Knox (C),145.23797,-37.923159999999996
884,Government,Mossfiel Primary School,Primary,Langridge Street,Hoppers Crossing,VIC,3029,03 9749 1227,726.0,Wyndham (C),144.69597,-37.87293
885,Government,Templestowe Heights Primary School,Primary,276-300 High Street,Templestowe Lower,VIC,3107,03 9850 1796,421.0,Manningham (C),145.11935,-37.76721
886,Government,Ballam Park Primary School,Primary,Belar Avenue,Frankston,VIC,3199,03 9789 5614,217.0,Frankston (C),145.15828,-38.147459999999995
887,Government,Sunbury West Primary School,Primary,479-491 Elizabeth Drive,Sunbury,VIC,3429,03 9740 8666,327.0,Hume (C),144.71348,-37.57478
888,Government,Gladstone Park Primary School,Primary,15 - 25 South Circular Road,Gladstone Park - Westmeadows,VIC,3043,03 9338 2774,327.0,Hume (C),144.8866,-37.68804
889,Government,Manchester Primary School,Primary,Monomeith Street,Mooroolbark,VIC,3138,03 9726 6931,745.0,Yarra Ranges (S),145.30858999999998,-37.77207
890,Government,Glendal Primary School,Primary,55 Nottingham Street,Glen Waverley,VIC,3150,03 9803 1330,497.0,Monash (C),145.15898,-37.8673
891,Government,Bimbadeen Heights Primary School,Primary,18 Hayrick Lane,Mooroolbark,VIC,3138,03 9726 9989,745.0,Yarra Ranges (S),145.32113999999999,-37.773759999999996
892,Government,Wattle View Primary School,Primary,Wattletree Road,Ferntree Gully,VIC,3156,03 9758 4322,367.0,Knox (C),145.27802,-37.875820000000004
893,Government,Sherbourne Primary School,Primary,Outlook Crescent,Montmorency - Briar Hill,VIC,3088,03 9434 7142,66.0,Banyule (C),145.1298,-37.708909999999996
894,Government,Donburn Primary School,Primary,Colchester Drive,Doncaster East,VIC,3109,03 9841 8099,421.0,Manningham (C),145.16552,-37.787459999999996
897,Government,Vermont South Special School,Special,22-30 Livingstone Road,Vermont South,VIC,3133,03 9802 8199,698.0,Whitehorse (C),145.1806,-37.85114
898,Government,Concord School,Special,411 Grimshaw Street,Bundoora,VIC,3083,03 9467 3972,66.0,Banyule (C),145.07501000000002,-37.702
899,Government,Deer Park West Primary School,Primary,Quinn Street,Deer Park - Derrimut,VIC,3023,03 9363 3519,118.0,Brimbank (C),144.76541,-37.77097
900,Government,Campbellfield Heights Primary School,Primary,1-13 Laurel Crescent,Campbellfield - Coolaroo,VIC,3061,03 9359 5502,327.0,Hume (C),144.96563999999998,-37.67443
901,Government,Lalor North Primary School,Primary,2 Derna Crescent,Lalor,VIC,3075,03 9465 4922,707.0,Whittlesea (C),145.02854,-37.66415
902,Government,Melton West Primary School,Primary,4 Westmelton Drive,Melton,VIC,3337,03 9743 5818,465.0,Melton (C),144.56749,-37.677479999999996
903,Government,Diamond Creek East Primary School,Primary,129-163 Main Hurstbridge Road,Wattle Glen - Diamond Creek,VIC,3089,03 9438 1413,571.0,Nillumbik (S),145.16595,-37.67347
904,Government,Brandon Park Primary School,Primary,1-5 Ninevah Crescent,Wheelers Hill,VIC,3150,03 9560 4423,497.0,Monash (C),145.17325,-37.914320000000004
905,Government,Bayswater West Primary School,Primary,Phyllis Street,Bayswater,VIC,3153,03 9729 3394,367.0,Knox (C),145.25252,-37.849579999999996
906,Government,Mornington Park Primary School,Primary,Robertson Drive,Mornington,VIC,3931,03 5975 4011,534.0,Mornington Peninsula (S),145.05817,-38.22602
908,Government,Aldercourt Primary School,Primary,Silver Avenue,Frankston North,VIC,3200,03 9786 4488,217.0,Frankston (C),145.16162,-38.116620000000005
909,Government,Richmond West Primary School,Primary,25 Lennox Street,Richmond,VIC,3121,03 9427 8736,735.0,Yarra (C),144.99573999999998,-37.813629999999996
911,Government,Stevensville Primary School,Primary,52 Kings Road,St Albans,VIC,3021,03 9366 1381,118.0,Brimbank (C),144.78096000000002,-37.73588
912,Government,Birmingham Primary School,Primary,43-49 Francis Crescent,Mount Evelyn,VIC,3796,03 9736 3260,745.0,Yarra Ranges (S),145.36852,-37.779579999999996
913,Government,Woodville Primary School,Primary,33-57 Warringa Crescent,Hoppers Crossing,VIC,3029,03 9749 2770,726.0,Wyndham (C),144.69233,-37.8837
914,Government,Glengala/Sunshine West Primary School,Primary,Kermeen Street,Sunshine,VIC,3020,03 9311 7810,118.0,Brimbank (C),144.81511,-37.79926
915,Government,Karingal Heights Primary School,Primary,Havana Crescent,Frankston,VIC,3199,03 9789 3288,217.0,Frankston (C),145.16636,-38.141020000000005
916,Government,Wallarano Primary School,Primary,38-64 Wallarano Drive,Noble Park,VIC,3174,03 9798 1890,267.0,Greater Dandenong (C),145.17059,-37.979690000000005
917,Government,Lilydale West Primary School,Primary,Bowen Road,Lilydale - Coldstream,VIC,3140,03 9735 4670,745.0,Yarra Ranges (S),145.33629,-37.7552
918,Government,Mooroolbark East Primary School,Primary,Taylor Road,Mooroolbark,VIC,3138,03 9726 9422,745.0,Yarra Ranges (S),145.3357,-37.7868
919,Government,Ardeer South Primary School,Primary,59-75 Murray Street,Sunshine West,VIC,3020,03 9363 2768,118.0,Brimbank (C),144.799,-37.7884
920,Government,Gladesville Primary School,Primary,Gladesville Drive,Kilsyth,VIC,3137,03 9728 1877,745.0,Yarra Ranges (S),145.32291,-37.8111
922,Government,Debney Meadows Primary School,Primary,100 Victoria Street,Flemington,VIC,3031,03 9376 1570,506.0,Moonee Valley (C),144.93525,-37.785779999999995
923,Government,Fountain Gate Primary School,Primary,Prospect Hill Road,Narre Warren,VIC,3805,03 9703 1187,161.0,Casey (C),145.2952,-38.00942
924,Government,Tinternvale Primary School,Primary,Tintern Avenue,Ringwood East,VIC,3135,03 9720 1215,441.0,Maroondah (C),145.26533999999998,-37.81841
927,Government,Naranga Special School,Special,14 Naranga Crescent,Frankston,VIC,3199,03 9788 2222,217.0,Frankston (C),145.16299999999998,-38.14716
928,Government,Kent Park Primary School,Primary,Greenaway Drive,Ferntree Gully,VIC,3156,03 9763 8055,367.0,Knox (C),145.26276000000001,-37.883359999999996
929,Government,Deer Park North Primary School,Primary,18-36 Mawson Avenue,Deer Park - Derrimut,VIC,3023,03 9363 4600,118.0,Brimbank (C),144.77494,-37.75615
930,Government,Rosewood Downs Primary School,Primary,25 Murray Road,Dandenong,VIC,3175,03 9795 3744,267.0,Greater Dandenong (C),145.21427,-37.94423
932,Government,Coburn Primary School,Primary,26 Richard Road,Melton South,VIC,3338,03 9971 2900,465.0,Melton (C),144.57193999999998,-37.6948
933,Government,Manorvale Primary School,Primary,232-246 Greaves St North,Werribee,VIC,3030,03 9741 6300,726.0,Wyndham (C),144.64389,-37.894059999999996
934,Government,Gladstone Views Primary School,Primary,195 - 227 Carrick Drive,Gladstone Park - Westmeadows,VIC,3043,03 9338 6083,327.0,Hume (C),144.89768,-37.6896
935,Government,Wheelers Hill Primary School,Primary,134-148 Whites Lane,Wheelers Hill,VIC,3150,03 9561 3457,497.0,Monash (C),145.17758999999998,-37.90017
936,Government,Ashwood School,Special,Montpellier Road,Ashwood - Chadstone,VIC,3147,03 9808 7444,497.0,Monash (C),145.10716000000002,-37.85966
937,Government,Broadmeadows Valley Primary School,Primary,Dimboola Road,Broadmeadows,VIC,3047,03 9099 1050,327.0,Hume (C),144.9132,-37.6811
938,Government,Bulleen Heights School,Special,49-61 Pleasant Road,Bulleen,VIC,3105,03 9850 7122,421.0,Manningham (C),145.09506000000002,-37.763290000000005
940,Government,Andersons Creek Primary School,Primary,36-42 Drysdale Road,Research - North Warrandyte,VIC,3113,03 9844 2757,421.0,Manningham (C),145.20819,-37.74838
941,Government,Waverley Meadows Primary School,Primary,11 Columbia Drive,Wheelers Hill,VIC,3150,03 9561 2879,497.0,Monash (C),145.18434,-37.914359999999995
942,Government,Kingswood Primary School,Primary,1-25 Plaza Crescent,Dingley Village,VIC,3172,03 9551 1727,343.0,Kingston (C),145.12344,-37.98304
943,Government,Ascot Vale Special School,Special,1 Tasma Street,Ascot Vale,VIC,3032,03 9370 8906,506.0,Moonee Valley (C),144.93236000000002,-37.77682
944,Government,Camelot Rise Primary School,Primary,Galahad Crescent,Glen Waverley,VIC,3150,03 9803 5344,497.0,Monash (C),145.18803,-37.86524
945,Government,Livingstone Primary School,Primary,25 - 29 Livingstone Road,Vermont South,VIC,3133,03 9803 7673,698.0,Whitehorse (C),145.18066000000002,-37.852920000000005
947,Government,St Albans Meadows Primary School,Primary,2A Laurel Street,St Albans,VIC,3021,03 9364 6144,118.0,Brimbank (C),144.8176,-37.753609999999995
948,Government,Silverton Primary School,Primary,77-123 Jacksons Road,Noble Park North,VIC,3174,03 9795 5033,267.0,Greater Dandenong (C),145.19298999999998,-37.94921
949,Government,Kalinda Primary School,Primary,39-49 Kalinda Road,Ringwood,VIC,3134,03 9876 3289,441.0,Maroondah (C),145.25486,-37.78962
951,Government,Coldstream Primary School,Primary,Kelso Street,Lilydale - Coldstream,VIC,3770,03 9739 1680,745.0,Yarra Ranges (S),145.38271,-37.73256
952,Government,Templestowe Park Primary School,Primary,399 Church Road,Templestowe,VIC,3106,03 9846 2700,421.0,Manningham (C),145.14326,-37.75627
953,Government,River Gum Primary School,Primary,63 Fordholm Road,Hampton Park - Lynbrook,VIC,3976,03 9799 1216,161.0,Casey (C),145.26098000000002,-38.03467
954,Government,Regency Park Primary School,Primary,Amesbury Avenue,Wantirna,VIC,3152,03 9801 3614,367.0,Knox (C),145.23616,-37.85487
955,Government,Dorset Primary School,Primary,Rescorla Avenue,Croydon,VIC,3136,03 9725 5038,441.0,Maroondah (C),145.28575,-37.81008
956,Government,Eastbourne Primary School,Primary,Allambi Avenue,Rosebud - McCrae,VIC,3939,03 5986 4884,534.0,Mornington Peninsula (S),144.8835,-38.373940000000005
957,Government,Thomastown Meadows Primary School,Primary,13-21 Diplomat Drive,Thomastown,VIC,3074,03 9466 1322,707.0,Whittlesea (C),144.99303999999998,-37.682970000000005
958,Government,Kingsley Park Primary School,Primary,Franciscan Avenue,Frankston,VIC,3199,03 9789 0077,217.0,Frankston (C),145.1557,-38.168079999999996
959,Government,James Cook Primary School,Primary,29-59 James Cook Drive,Endeavour Hills,VIC,3802,03 9700 2601,161.0,Casey (C),145.24585,-37.97906
960,Government,Movelle Primary School,Primary,Gum Road,Kings Park,VIC,3021,03 9366 8892,118.0,Brimbank (C),144.77563999999998,-37.737590000000004
961,Government,Mount Eliza North Primary School,Primary,6 Moseley Drive,Mount Eliza,VIC,3930,03 9787 6611,534.0,Mornington Peninsula (S),145.10054,-38.1884
963,Government,Yarrabah School,Special,23 Mill Street,Aspendale Gardens - Waterways,VIC,3195,03 9580 0384,343.0,Kingston (C),145.09669,-38.01399
964,Government,Frankston Special Developmental School,Special,Sassafras Drive,Frankston,VIC,3199,03 9789 6844,217.0,Frankston (C),145.1702,-38.1433
966,Government,Port Phillip Specialist School,Special,Cnr Nott & Pool Streets,Port Melbourne,VIC,3207,03 9646 0855,590.0,Port Phillip (C),144.94197,-37.83679
968,Government,Monash Special Developmental School,Special,15-25 Academy Avenue,Wheelers Hill,VIC,3150,03 9239 7400,497.0,Monash (C),145.1658,-37.90698
969,Government,Iramoo Primary School,Primary,261 - 269 Mcgrath Road,Wyndham Vale,VIC,3024,03 9741 2803,726.0,Wyndham (C),144.62866,-37.895759999999996
971,Government,Weeden Heights Primary School,Primary,41-51 Weeden Drive,Vermont South,VIC,3133,03 9802 0663,698.0,Whitehorse (C),145.1784,-37.85917
972,Government,Mill Park Primary School,Primary,Blamey Avenue,Mill Park,VIC,3082,03 9404 3337,707.0,Whittlesea (C),145.06588,-37.6746
973,Government,Diamond Valley Special Developmental School,Special,14-24 Brentwick Drive,Greensborough,VIC,3088,03 9432 1022,571.0,Nillumbik (S),145.11165,-37.68675
974,Government,Melton Specialist School,Special,159-211 Coburns Road,Melton,VIC,3337,03 9743 4966,465.0,Melton (C),144.56822,-37.68057
975,Government,Springvale Park Special Developmental School,Special,13-15 Sandown Road,Springvale,VIC,3171,03 9546 7666,267.0,Greater Dandenong (C),145.15431,-37.94935
976,Government,Warringa Park School,Special,81 Warringa Crescent,Hoppers Crossing,VIC,3029,03 9749 5774,726.0,Wyndham (C),144.68759,-37.88404
977,Government,Serpell Primary School,Primary,Tuckers Road,Templestowe,VIC,3106,03 9842 8182,421.0,Manningham (C),145.15556999999998,-37.7699
978,Government,Mount Martha Primary School,Primary,37 - 55 Glenisla Drive,Mount Martha,VIC,3934,03 5974 2800,534.0,Mornington Peninsula (S),145.01373,-38.27556
979,Government,Altona Meadows Primary School,Primary,78-88 Alma Avenue,Altona Meadows,VIC,3028,03 9369 1288,311.0,Hobsons Bay (C),144.77964,-37.86846
982,Government,Jells Park Primary School,Primary,17-33 Petronella Avenue,Wheelers Hill,VIC,3150,03 9560 6494,497.0,Monash (C),145.19228999999999,-37.90215
984,Government,Kismet Park Primary School,Primary,Mcewen Drive,Sunbury,VIC,3429,03 9744 4566,327.0,Hume (C),144.72836999999998,-37.565690000000004
985,Government,Kunyung Primary School,Primary,50 Kunyung Road,Mount Eliza,VIC,3930,03 9787 6102,534.0,Mornington Peninsula (S),145.07623,-38.18768
986,Government,Apollo Parkways Primary School,Primary,31-43 Civic Drive,Greensborough,VIC,3088,03 9433 1300,571.0,Nillumbik (S),145.10987,-37.68739
988,Government,Bethal Primary School,Primary,26-52 Eldorado Crescent,Meadow Heights,VIC,3048,03 9309 7626,327.0,Hume (C),144.91816,-37.6597
989,Government,Cranbourne West Primary School,Primary,110 Duff Street,Cranbourne,VIC,3977,03 5996 2878,161.0,Casey (C),145.26818,-38.10311
990,Government,Patterson Lakes Primary School,Primary,130-148 Gladesville Boulevard,Carrum - Patterson Lakes,VIC,3197,03 9772 4011,343.0,Kingston (C),145.14479,-38.06984
991,Government,Seaford Park Primary School,Primary,141 East Road,Seaford,VIC,3198,03 9786 5197,217.0,Frankston (C),145.15444,-38.10504
992,Government,Billanook Primary School,Primary,270 Sheffield Road,Montrose,VIC,3765,03 9728 2624,745.0,Yarra Ranges (S),145.33925,-37.82495
993,Government,Chirnside Park Primary School,Primary,66 Kimberley Drive,Chirnside Park,VIC,3116,03 9727 3466,745.0,Yarra Ranges (S),145.3112,-37.750209999999996
995,Government,Templeton Primary School,Primary,Crestdale Road,Wantirna,VIC,3152,03 9801 7450,367.0,Knox (C),145.23263,-37.861090000000004
996,Government,Sunbury Heights Primary School,Primary,Charter Road East,Sunbury,VIC,3429,03 9744 3377,327.0,Hume (C),144.70664,-37.58104
997,Government,Darley Primary School,Primary,21 Nelson Street,Bacchus Marsh,VIC,3340,03 5367 1558,515.0,Moorabool (S),144.43691,-37.65528
999,Government,Wallaroo Primary School,Primary,Stalwart Avenue,Hastings - Somers,VIC,3915,03 5979 2654,534.0,Mornington Peninsula (S),145.17257,-38.29833
1000,Government,Mossgiel Park Primary School,Primary,71 Scotsburn Way,Endeavour Hills,VIC,3802,03 9709 7777,161.0,Casey (C),145.26752,-37.968
1001,Government,Wedge Park Primary School,Primary,27 Cambrian Way,Melton West,VIC,3337,03 9743 7595,465.0,Melton (C),144.55421,-37.67562
1003,Government,Croydon Special Developmental School,Special,69-95 Belmont Road East,Croydon South,VIC,3136,03 9725 4933,441.0,Maroondah (C),145.28078,-37.81563
1004,Government,Milgate Primary School,Primary,96 Landscape Drive,Doncaster East,VIC,3109,03 9842 7744,421.0,Manningham (C),145.17518,-37.773920000000004
1005,Government,Berwick Lodge Primary School,Primary,139-145 Mansfield Street,Berwick,VIC,3806,03 9707 1766,161.0,Casey (C),145.32711,-38.03147
1006,Government,Furlong Park School For Deaf Children,Special,58 - 84 Furlong Road,Sunshine North,VIC,3020,03 9312 3244,118.0,Brimbank (C),144.8271,-37.76144
1007,Government,Jennings Street School,Special,4 Jennings Street,Laverton,VIC,3028,03 9360 9322,311.0,Hobsons Bay (C),144.77366,-37.85597
1008,Government,Sunbury And Macedon Ranges Specialist School,Special,127-143 Circular Drive,Sunbury,VIC,3429,03 9744 4879,327.0,Hume (C),144.72933,-37.59602
1009,Government,Northern School For Autism,Special,16-18 Gertz Ave,Reservoir,VIC,3073,03 9462 5990,189.0,Darebin (C),145.02993,-37.70058
1012,Government,Burwood East Special Developmental School,Special,18 Manooka Street,Burwood East,VIC,3151,03 9803 4590,698.0,Whitehorse (C),145.14212,-37.8572
1014,Government,Meadow Heights Primary School,Primary,50-70 Paringa Boulevard,Meadow Heights,VIC,3048,03 9305 2033,327.0,Hume (C),144.92356,-37.65017
1016,Government,Peninsula Specialist College,Special,25 Old White Hill Road,Dromana,VIC,3936,03 5987 2649,534.0,Mornington Peninsula (S),145.01011,-38.341840000000005
1017,Government,Chalcot Lodge Primary School,Primary,Primrose Hill Close,Endeavour Hills,VIC,3802,03 9700 4455,161.0,Casey (C),145.2477,-37.96973
1018,Government,Rangebank Primary School,Primary,14-36 Lesdon Avenue,Cranbourne,VIC,3977,03 5996 8900,161.0,Casey (C),145.27573999999998,-38.08736
1019,Government,Knox Gardens Primary School,Primary,80 Argyle Way,Wantirna South,VIC,3152,03 9800 2320,367.0,Knox (C),145.22958,-37.88228
1020,Government,Southern Cross Primary School,Primary,1-21 David Collins Drive,Endeavour Hills,VIC,3802,03 9700 4488,161.0,Casey (C),145.26457,-37.988
1021,Government,Kings Park Primary School,Primary,128b Gillespie Road,St Albans,VIC,3021,03 9367 6555,118.0,Brimbank (C),144.76837,-37.733270000000005
1022,Government,Dandenong Valley Special Developmental School,Special,19-21 Victoria Road,Narre Warren,VIC,3805,03 9704 4800,161.0,Casey (C),145.296,-38.0076
1023,Government,Mornington Special Developmental School,Special,40 Robertson Drive,Mornington,VIC,3931,03 5975 6111,534.0,Mornington Peninsula (S),145.05718000000002,-38.22611
1024,Government,Bayside Special Developmental School,Special,4 Genoa Street,Moorabbin - Heatherton,VIC,3189,03 9555 4155,343.0,Kingston (C),145.0568,-37.94336
1025,Government,Rolling Hills Primary School,Primary,52 Landscape Drive,Mooroolbark,VIC,3138,03 9726 4454,745.0,Yarra Ranges (S),145.32682,-37.76637
1026,Government,Craigieburn South Primary School,Primary,102 Hothlyn Drive,Craigieburn,VIC,3064,03 9308 3133,327.0,Hume (C),144.93561,-37.6087
1027,Government,Findon Primary School,Primary,Cuthbert Drive,Mill Park,VIC,3082,03 9404 1362,707.0,Whittlesea (C),145.05078999999998,-37.6668
1029,Government,Yarra Ranges Special Developmental School,Special,20 Burdap Drive,Mount Evelyn,VIC,3796,03 9736 2499,745.0,Yarra Ranges (S),145.38487,-37.77502
1031,Government,Goonawarra Primary School,Primary,2-6 Gullane Drive,Sunbury,VIC,3429,03 9744 7137,327.0,Hume (C),144.75151,-37.58056
1034,Government,Bellbridge Primary School,Primary,120 Bellbridge Drive,Hoppers Crossing,VIC,3029,03 9749 6161,726.0,Wyndham (C),144.71078,-37.87108
1035,Government,Croydon Hills Primary School,Primary,Campaspe Drive,Croydon Hills - Warranwood,VIC,3136,03 9725 1206,441.0,Maroondah (C),145.27133999999998,-37.7773
1036,Government,Kurunjang Primary School,Primary,37-45 Mowbray Crescent,Melton,VIC,3337,03 9743 0633,465.0,Melton (C),144.58597,-37.670159999999996
1037,Government,Langwarrin Park Primary School,Primary,19-27 Northgateway,Langwarrin,VIC,3910,03 9775 7533,217.0,Frankston (C),145.2025,-38.15092
1038,Government,Taylors Lakes Primary School,Primary,21-35 Chichester Drive,Taylors Lakes,VIC,3038,03 9390 3388,118.0,Brimbank (C),144.79408,-37.70892
1040,Government,Coburg Special Developmental School,Special,Cnr Bishop & Gaffney Streets,Coburg,VIC,3058,03 9354 4366,525.0,Moreland (C),144.95174,-37.73292
1041,Government,Broadmeadows Special Developmental School,Special,29 - 35 Dimboola Road,Broadmeadows,VIC,3047,03 9302 1244,327.0,Hume (C),144.9141,-37.68165
1042,Government,Sunshine Special Developmental School,Special,Ivory Court,Sunshine,VIC,3020,03 9311 4804,118.0,Brimbank (C),144.81989,-37.80343
1044,Government,Richmond Primary School,Primary,85 Brighton Street,Richmond,VIC,3121,03 9428 1909,735.0,Yarra (C),144.99907,-37.829570000000004
1045,Government,Yarra Primary School,Primary,68-76 Davison Street,Richmond,VIC,3121,03 9428 3286,735.0,Yarra (C),145.00748000000002,-37.814640000000004
1050,Government,Yarraville Special Developmental School,Special,117 Blackwood Street,Yarraville,VIC,3013,03 9314 4919,433.0,Maribyrnong (C),144.88365,-37.81791
1052,Government,Park Ridge Primary School,Primary,Wentworth Avenue,Rowville,VIC,3178,03 9752 8555,367.0,Knox (C),145.26246,-37.918409999999994
1055,Government,Merriang Special Developmental School,Special,11 Duncan Road,Lalor,VIC,3075,03 9464 3011,707.0,Whittlesea (C),145.01508,-37.66724
1056,Government,Orchard Grove Primary School,Primary,101 Orchard Grove,Blackburn South,VIC,3130,03 9894 3400,698.0,Whitehorse (C),145.14653,-37.84023
1057,Government,Meadowglen Primary School,Primary,22-48 Meadow Glen Drive,Epping,VIC,3076,03 9408 6222,707.0,Whittlesea (C),145.05309,-37.64275
1058,Government,Altona Green Primary School,Primary,240 Victoria Street,Altona Meadows,VIC,3028,03 9360 0777,311.0,Hobsons Bay (C),144.78468999999998,-37.88658
1059,Government,Boroondara Park Primary School,Primary,40 Almond Street,Balwyn North,VIC,3104,03 9857 5157,111.0,Boroondara (C),145.08806,-37.78898
1061,Government,Western Autistic School,Special,1 Burnley Street,Laverton,VIC,3028,03 9097 2000,311.0,Hobsons Bay (C),144.77806999999999,-37.85078
1063,Government,Coral Park Primary School,Primary,145 Coral Drive,Hampton Park - Lynbrook,VIC,3976,03 9702 8398,161.0,Casey (C),145.27403999999999,-38.043490000000006
1064,Government,Maramba Primary School,Primary,Maramba Drive,Narre Warren,VIC,3805,03 9796 7150,161.0,Casey (C),145.30375,-38.0036
1065,Government,Thomas Mitchell Primary School,Primary,67-77 Thomas Mitchell Drive,Endeavour Hills,VIC,3802,03 9706 2254,161.0,Casey (C),145.27446,-37.97997
1066,Government,Karoo Primary School,Primary,Karoo Road,Rowville,VIC,3178,03 9759 6222,367.0,Knox (C),145.26328,-37.90532
1067,Government,Mackellar Primary School,Primary,29-35 Goldsmith Avenue,Delahey,VIC,3037,03 9364 0200,118.0,Brimbank (C),144.77685,-37.71735
1070,Government,Aspendale Gardens Primary School,Primary,96 Kearney Drive,Aspendale Gardens - Waterways,VIC,3195,03 9587 0877,343.0,Kingston (C),145.1168,-38.02251
1071,Government,Berwick Fields Primary School,Primary,35 Gwendoline Drive,Berwick,VIC,3806,03 8786 9988,161.0,Casey (C),145.33365,-38.04955
1072,Government,Brentwood Park Primary School,Primary,Bemersyde Drive,Berwick,VIC,3806,03 9702 2022,161.0,Casey (C),145.34745,-38.05256
1073,Government,Eastern Ranges School,Special,56 Dorset Road,Ferntree Gully,VIC,3156,03 9758 3772,367.0,Knox (C),145.28492,-37.88042
1074,Government,Cambridge Primary School,Primary,Carruthers Drive,Hoppers Crossing,VIC,3029,03 9748 9011,726.0,Wyndham (C),144.67569,-37.86739
1075,Government,Rowellyn Park Primary School,Primary,Rowellyn Avenue,Carrum Downs,VIC,3201,03 9782 0953,217.0,Frankston (C),145.19195,-38.10376
1076,Government,Baden Powell P-9 College,Pri/Sec,Sycamore Street,Hoppers Crossing,VIC,3029,03 9748 8688,726.0,Wyndham (C),144.69086000000001,-37.859809999999996
1077,Government,Woodlands Primary School,Primary,10 Gum Nut Drive,Langwarrin,VIC,3910,03 9788 8333,217.0,Frankston (C),145.20502,-38.13568
1078,Government,Mill Park Heights Primary School,Primary,Pindari Avenue,Mill Park,VIC,3082,03 9436 8866,707.0,Whittlesea (C),145.05131,-37.65721
1079,Government,Monmia Primary School,Primary,Copernicus Way,Keilor Downs,VIC,3038,03 9364 1007,118.0,Brimbank (C),144.79238,-37.71783
1080,Government,Seabrook Primary School,Primary,83-105 Point Cook Road,Seabrook,VIC,3028,03 9395 1758,311.0,Hobsons Bay (C),144.7579,-37.878840000000004
1081,Government,Willmott Park Primary School,Primary,Dorchester Street,Craigieburn,VIC,3064,03 9305 6639,327.0,Hume (C),144.92141999999998,-37.59146
1082,Government,Thomas Chirnside Primary School,Primary,85 Walls Road,Werribee,VIC,3030,03 9741 0200,726.0,Wyndham (C),144.63788,-37.9032
1083,Government,Heany Park Primary School,Primary,Buckingham Drive,Rowville,VIC,3178,03 9764 5533,367.0,Knox (C),145.24288,-37.93392
1085,Government,Kilberry Valley Primary School,Primary,Kilberry Boulevard,Hampton Park - Lynbrook,VIC,3976,03 9702 8688,161.0,Casey (C),145.27926000000002,-38.0336
1086,Government,Killara Primary School,Primary,Phillip Drive,Sunbury,VIC,3429,03 9744 6432,327.0,Hume (C),144.70476000000002,-37.56387
1088,Government,Oatlands Primary School,Primary,79 - 93 Kurrajong Road,Narre Warren,VIC,3805,03 9705 6055,161.0,Casey (C),145.31618999999998,-38.006440000000005
1089,Government,Westgrove Primary School,Primary,Thames Boulevard,Werribee,VIC,3030,03 9749 8233,726.0,Wyndham (C),144.65898,-37.8781
1092,Government,Pentland Primary School,Primary,164 Halletts Way,Bacchus Marsh,VIC,3340,03 5367 6080,515.0,Moorabool (S),144.42318,-37.65586
1093,Government,Pakenham Hills Primary School,Primary,15 Kennedy Road,Pakenham,VIC,3810,03 5941 4436,145.0,Cardinia (S),145.49598999999998,-38.06091
1094,Government,Courtenay Gardens Primary School,Primary,Rosebank Drive,Cranbourne,VIC,3977,03 5995 7139,161.0,Casey (C),145.28348,-38.079640000000005
1095,Government,Somerville Rise Primary School,Primary,Blacks Camp Road,Somerville,VIC,3912,03 5977 8500,534.0,Mornington Peninsula (S),145.16775,-38.23003
1119,Government,Niddrie Primary School,Primary,25 Watt Street,Niddrie - Essendon West,VIC,3042,03 9379 6587,506.0,Moonee Valley (C),144.87843,-37.73084
1121,Government,Parkhill Primary School,Primary,Parkhill Drive,Ashwood - Chadstone,VIC,3147,03 9807 2239,497.0,Monash (C),145.1066,-37.8629
1122,Government,Kananook Primary School,Primary,22 Wells Road,Seaford,VIC,3198,03 9786 6066,217.0,Frankston (C),145.13308999999998,-38.12526
1128,Government,Glen Waverley Primary School,Primary,774 High Street Road,Glen Waverley,VIC,3150,03 9802 9938,497.0,Monash (C),145.1678,-37.87469
1129,Government,Carrington Primary School,Primary,Laura Road,Knoxfield - Scoresby,VIC,3180,03 9763 9600,367.0,Knox (C),145.24697,-37.89203
1130,Government,Albany Rise Primary School,Primary,Albany Drive,Mulgrave,VIC,3170,03 9547 1146,497.0,Monash (C),145.17279,-37.928329999999995
1132,Government,Knox Central Primary School,Primary,39 Darwin Road,Boronia,VIC,3155,03 9801 3289,367.0,Knox (C),145.25516000000002,-37.86138
1133,Government,Mount Waverley North Primary School,Primary,Marcus Avenue,Mount Waverley,VIC,3149,03 9802 3168,497.0,Monash (C),145.14186,-37.86804
1134,Government,Rangeview Primary School,Primary,27 Churinga Avenue,Mitcham,VIC,3132,03 9874 6381,698.0,Whitehorse (C),145.20622,-37.82956
1138,Government,Carwatha College P-12,Pri/Sec,43-81 Browns Road,Noble Park,VIC,3174,03 9795 5848,267.0,Greater Dandenong (C),145.18913,-37.94245
1139,Government,Glen Waverley South Primary School,Primary,Whites Lane,Glen Waverley,VIC,3150,03 9560 6371,497.0,Monash (C),145.16761,-37.89686
1140,Government,Streeton Primary School,Primary,209 Yallambie Road,Viewbank - Yallambie,VIC,3085,03 9435 6070,66.0,Banyule (C),145.10135,-37.7215
1145,Government,Roxburgh Homestead Primary School,Primary,Mcpherson Boulevard,Roxburgh Park - Somerton,VIC,3064,03 9305 1688,327.0,Hume (C),144.91699,-37.63165
1147,Government,Dinjerra Primary School,Primary,44 South Road,Braybrook,VIC,3019,03 9311 1598,433.0,Maribyrnong (C),144.85629,-37.791779999999996
1148,Government,Belle Vue Park Primary School,Primary,Morell Street,Glenroy,VIC,3046,03 9306 7900,525.0,Moreland (C),144.94363,-37.7012
1149,Government,Doncaster Gardens Primary School,Primary,Sandhurst Avenue,Doncaster East,VIC,3109,03 9848 5282,421.0,Manningham (C),145.1475,-37.78161
1151,Government,Strathaird Primary School,Primary,20 Sherwood Road,Narre Warren South,VIC,3805,03 9705 3800,161.0,Casey (C),145.28609,-38.06257
1152,Government,Marnebek School Cranbourne,Special,9 New Holland Drive,Cranbourne,VIC,3977,03 5996 3858,161.0,Casey (C),145.2965,-38.1102
1154,Government,Timbarra P-9 College,Pri/Sec,159-197 Parkhill Drive,Berwick,VIC,3806,03 9704 2744,161.0,Casey (C),145.32263,-38.015570000000004
1155,Government,Parkwood Green Primary School,Primary,Cnr Gourlay Rd & Community Hub,Hillside,VIC,3037,03 9449 3600,465.0,Melton (C),144.74446,-37.69921
1156,Government,Hillsmeade Primary School,Primary,82S The Promenade,Narre Warren South,VIC,3805,03 9704 6313,161.0,Casey (C),145.30748,-38.06499
1157,Government,Roxburgh Park Primary School,Primary,7-21 Almands Avenue,Roxburgh Park - Somerton,VIC,3064,03 9303 9335,327.0,Hume (C),144.93129,-37.63433
1158,Government,Carranballac P-9 College,Pri/Sec,Cnr Foxwood Dve & Dunnings Rd,Point Cook,VIC,3030,03 9395 3533,726.0,Wyndham (C),144.74309,-37.88524
1159,Government,Benton Junior College,Primary,261 Racecourse Road,Mornington,VIC,3931,03 5973 9100,534.0,Mornington Peninsula (S),145.06111,-38.24595
1162,Government,Roxburgh Rise Primary School,Primary,Cnr Lockwood Dr & Bluebird Way,Roxburgh Park - Somerton,VIC,3064,03 9305 4334,327.0,Hume (C),144.92325,-37.61655
1163,Government,Lynbrook Primary School,Primary,Paterson Drive,Hampton Park - Lynbrook,VIC,3975,03 8787 5390,161.0,Casey (C),145.24878,-38.051970000000004
1165,Government,Laurimar Primary School,Primary,Armidale Road,Doreen,VIC,3754,03 9717 7100,707.0,Whittlesea (C),145.12646,-37.586090000000006
1166,Government,Truganina South Primary School,Primary,3-19 Parkvista Drive,Truganina,VIC,3029,03 9296 1800,726.0,Wyndham (C),144.72651000000002,-37.86363
1167,Government,Kororoit Creek Primary School,Primary,130 Tenterfield Drive,Burnside Heights,VIC,3023,03 8358 0600,465.0,Melton (C),144.75423999999998,-37.73511
1168,Government,Truganina P-9 College,Pri/Sec,55 Clearwood Drive,Truganina,VIC,3029,03 9368 9800,726.0,Wyndham (C),144.71909,-37.838770000000004
1169,Government,Berwick Chase Primary School,Primary,72 Viewgrand Drive,Berwick,VIC,3806,03 9707 7799,161.0,Casey (C),145.34696,-38.06743
1170,Government,Pakenham Lakeside Primary School,Primary,23 Shearwater Drive,Pakenham,VIC,3810,03 5940 9532,145.0,Cardinia (S),145.43939,-38.068000000000005
1171,Government,Pakenham Springs Primary School,Primary,5 Livingstone Boulevard,Pakenham,VIC,3810,03 5945 7400,145.0,Cardinia (S),145.47038,-38.08447
1172,Government,Taylors Hill Primary School,Primary,40-50 Loddon Drive,Taylors Hill,VIC,3037,03 9361 4900,465.0,Melton (C),144.7599,-37.71669
1173,Government,Cranbourne Carlisle Primary School,Primary,15 Silky Oak Drive,Cranbourne,VIC,3977,03 5991 3600,161.0,Casey (C),145.28838000000002,-38.0868
1174,Government,Aurora School,Special,96 Holland Road,Blackburn South,VIC,3130,03 8878 9878,698.0,Whitehorse (C),145.15079,-37.84018
1175,Government,Derrimut Primary School,Primary,40 Lennon Parkway,Deer Park - Derrimut,VIC,3030,03 8361 1000,118.0,Brimbank (C),144.7632,-37.78927
1176,Government,Epping Views Primary School,Primary,20 Mansfield Street,Epping,VIC,3076,03 8401 3791,707.0,Whittlesea (C),145.02473,-37.6287
1177,Government,Cranbourne East Primary School,Primary,2 Bowyer Avenue,Cranbourne,VIC,3977,03 5990 0400,161.0,Casey (C),145.30461,-38.10621
1179,Government,Lyndhurst Primary School,Primary,70 Brookwater Parade,Lynbrook - Lyndhurst,VIC,3975,03 8768 6700,161.0,Casey (C),145.25408000000002,-38.07496
1180,Government,Aitken Creek Primary School,Primary,51-81 Grevillea Street,Craigieburn,VIC,3064,03 8338 3700,327.0,Hume (C),144.90604,-37.58226
1181,Government,Reservoir Views Primary School,Primary,73-91 Hickford Street,Reservoir,VIC,3073,03 9460 6995,189.0,Darebin (C),145.02068,-37.70584
1182,Government,Meadows Primary School,Primary,41 Gerbert Street,Broadmeadows,VIC,3047,03 9309 2573,327.0,Hume (C),144.92891,-37.68756
1183,Government,Sunshine Harvester Primary School,Primary,132 Hertford Road,Sunshine,VIC,3020,03 9311 1234,118.0,Brimbank (C),144.84569,-37.78293
1184,Government,Alamanda K-9 College,Pri/Sec,86-100 Alamanda Boulevard,Point Cook,VIC,3030,03 8376 5200,726.0,Wyndham (C),144.7412,-37.90834
1187,Government,Lalor Gardens Primary School,Primary,134 Kingsway Drive,Lalor,VIC,3075,03 9465 1351,707.0,Whittlesea (C),145.00135,-37.66369
1188,Government,Chandler Park Primary School,Primary,Cochrane Avenue,Keysborough,VIC,3173,03 9798 2228,267.0,Greater Dandenong (C),145.18018999999998,-37.99232
1189,Government,Keysborough Primary School,Primary,33 Coomoora Road,Springvale South,VIC,3172,03 9798 4764,267.0,Greater Dandenong (C),145.1549,-37.98256
1190,Government,Lyndale Greens Primary School,Primary,1 - 19 Oakwood Avenue,Dandenong,VIC,3175,03 9795 2271,267.0,Greater Dandenong (C),145.20553,-37.96503
1191,Government,Athol Road Primary School,Primary,159-167 Athol Road,Springvale South,VIC,3172,03 9547 1224,267.0,Greater Dandenong (C),145.15034,-37.97112
1192,Government,Springvale Rise Primary School (interim name),Primary,32-52 Wareham Street,Springvale,VIC,3171,03 9546 3799,267.0,Greater Dandenong (C),145.15882,-37.93923
1193,Government,Spring Parks Primary School,Primary,24 Erica Street,Springvale,VIC,3171,03 9546 6402,267.0,Greater Dandenong (C),145.13961,-37.95875
1194,Government,Keilor Views Primary School,Primary,18 Swindon Crescent,Keilor Downs,VIC,3038,03 9367 7466,118.0,Brimbank (C),144.80886,-37.71796
1195,Government,Wyndham Park Primary School,Primary,Kookaburra Avenue,Werribee,VIC,3030,03 9741 4549,726.0,Wyndham (C),144.67735,-37.88474
1197,Government,Glenroy Central Primary School,Primary,10 Logan Street,Glenroy,VIC,3046,03 9306 4144,525.0,Moreland (C),144.92771000000002,-37.7057
1198,Government,William Ruthven Primary School,Primary,60 Merrilands Road,Reservoir,VIC,3073,03 9460 1668,189.0,Darebin (C),145.00278,-37.696670000000005
1202,Government,Wyndham Vale Primary School,Primary,85 Ribblesdale Avenue,Wyndham Vale,VIC,3024,03 8754 0888,726.0,Wyndham (C),144.61063000000001,-37.895920000000004
1203,Government,Officer Specialist School,Special,3 Parker Street,Beaconsfield - Officer,VIC,3809,03 5943 2800,145.0,Cardinia (S),145.41131000000001,-38.07079
1204,Government,Epping Primary School,Primary,805 High Street,Epping,VIC,3076,03 9401 1389,707.0,Whittlesea (C),145.02559,-37.64485
1205,Government,Hazel Glen College,Pri/Sec,175 Cookes Road,Doreen,VIC,3754,03 9717 7500,707.0,Whittlesea (C),145.1234,-37.59822
1206,Government,Coolaroo South Primary School,Primary,52-72 Bushfield Crescent,Campbellfield - Coolaroo,VIC,3048,03 9309 1664,327.0,Hume (C),144.93066000000002,-37.66189
1208,Government,Arnolds Creek Primary School,Primary,59 Claret Ash Boulevard,Melton West,VIC,3337,03 9732 8300,465.0,Melton (C),144.54161000000002,-37.66642
1214,Government,Collingwood College,Pri/Sec,Cnr Cromwell St/McCutcheon Way,Collingwood,VIC,3066,03 9417 6681,735.0,Yarra (C),144.9905,-37.80298
1228,Government,Pakenham Consolidated School,Primary,2 Rundell Way,Pakenham,VIC,3810,03 5941 1511,145.0,Cardinia (S),145.46456,-38.06541
1237,Government,Distance Education Centre Victoria,Pri/Sec,315 Clarendon Street,Thornbury,VIC,3071,03 8480 0000,189.0,Darebin (C),145.0257,-37.76204
1239,Government,Mount Erin Secondary College,Secondary,Robinsons Road,Frankston South,VIC,3199,03 5971 6000,217.0,Frankston (C),145.14608,-38.17396
1242,Government,Lyndhurst Secondary College,Secondary,950 South Gippsland Highway,Cranbourne,VIC,3977,03 5996 0144,161.0,Casey (C),145.27122,-38.07501
1244,Government,Dromana Secondary College,Secondary,110 Harrisons Road,Dromana,VIC,3936,03 5987 2805,534.0,Mornington Peninsula (S),145.01358000000002,-38.34264
1248,Government,Peter Lalor Secondary College,Secondary,35 Duncan Road,Lalor,VIC,3075,03 9464 0122,707.0,Whittlesea (C),145.01316,-37.6669
1249,Government,Lilydale Heights College,Secondary,17 Nelson Road,Lilydale - Coldstream,VIC,3140,03 9735 1133,745.0,Yarra Ranges (S),145.34141,-37.74582
1250,Government,Staughton College,Secondary,Wilson Road,Melton South,VIC,3338,03 9743 4622,465.0,Melton (C),144.56774,-37.70827
1252,Government,Bentleigh Secondary College,Secondary,Vivien St,Bentleigh East,VIC,3165,03 9579 1044,231.0,Glen Eira (C),145.05991,-37.92767
1254,Government,Rosehill Secondary College,Secondary,Sapphire Street,Niddrie - Essendon West,VIC,3042,03 9337 2488,506.0,Moonee Valley (C),144.88618,-37.74668
1255,Government,Northern College of the Arts and Technology,Secondary,62 Murray Road,Preston,VIC,3072,03 9478 1333,189.0,Darebin (C),145.02537,-37.74007
1257,Government,Swinburne Senior Secondary College,Secondary,505 Burwood Road,Hawthorn,VIC,3122,03 8862 4400,111.0,Boroondara (C),145.04082,-37.82314
1258,Government,Victorian College Of The Arts Secondary School,Secondary,57 Miles Street,Southbank,VIC,3006,03 8644 8644,460.0,Melbourne (C),144.96477,-37.82823
1260,Government,Wyndham Central Secondary College,Secondary,101 Shaws Road,Werribee,VIC,3030,03 9741 4911,726.0,Wyndham (C),144.65363,-37.88896
1262,Government,Whittlesea Secondary College,Secondary,Laurel Street,Whittlesea,VIC,3757,03 9719 1200,707.0,Whittlesea (C),145.12017,-37.51505
1264,Government,Auburn High School,Secondary,26 Burgess Street,Hawthorn East,VIC,3123,03 9822 3247,111.0,Boroondara (C),145.04463,-37.83985
1266,Government,Balwyn High School,Secondary,Buchanan Avenue,Balwyn North,VIC,3104,03 9819 7911,111.0,Boroondara (C),145.07676999999998,-37.79786
1267,Government,Bayswater Secondary College,Secondary,14 Orchard Road,Bayswater,VIC,3153,03 8720 7555,367.0,Knox (C),145.262,-37.83903
1272,Government,Berwick Secondary College,Secondary,Manuka Road,Berwick,VIC,3806,03 8768 1000,161.0,Casey (C),145.36418,-38.03107
1273,Government,Blackburn High School,Secondary,60 Springfield Road,Blackburn,VIC,3130,03 8804 6464,698.0,Whitehorse (C),145.14989,-37.81037
1274,Government,Box Hill High School,Secondary,1180 Whitehorse Road,Box Hill,VIC,3128,03 9877 1177,698.0,Whitehorse (C),145.13795,-37.820640000000004
1275,Government,Braybrook College,Secondary,352 Ballarat Road,Braybrook,VIC,3019,03 9312 2900,433.0,Maribyrnong (C),144.84757,-37.77798
1276,Government,Brentwood Secondary College,Secondary,65-71 Watsons Road,Glen Waverley,VIC,3150,03 8545 0300,497.0,Monash (C),145.16634,-37.89951
1277,Government,Brighton Secondary College,Secondary,120 Marriage Road,Brighton East,VIC,3187,03 9592 7488,91.0,Bayside (C),145.01912,-37.920159999999996
1279,Government,Buckley Park College,Secondary,Cooper Street,Essendon - Aberfeldie,VIC,3040,03 9331 9999,506.0,Moonee Valley (C),144.89775,-37.74712
1286,Government,Cranbourne Secondary College,Secondary,Stawell Street,Cranbourne,VIC,3977,03 5996 3544,161.0,Casey (C),145.28663999999998,-38.108129999999996
1287,Government,Croydon Community School,Secondary,177-181 Mt Dandenong Road,Croydon,VIC,3136,03 9724 2900,441.0,Maroondah (C),145.27893,-37.79842
1288,Government,Mount Alexander 7-12 College,Secondary,167-175 Mt Alexander Road,Flemington,VIC,3031,03 9376 1622,506.0,Moonee Valley (C),144.93326000000002,-37.78235
1290,Government,East Doncaster Secondary College,Secondary,20 George Street,Doncaster East,VIC,3109,03 9842 2244,421.0,Manningham (C),145.15887,-37.78217
1292,Government,Doncaster Secondary College,Secondary,123 Church Road,Doncaster,VIC,3108,03 9848 4677,421.0,Manningham (C),145.13805,-37.78458
1295,Government,Eltham High School,Secondary,30-60 Withers Way,Eltham,VIC,3095,03 9430 5111,571.0,Nillumbik (S),145.14248,-37.72464
1296,Government,Elwood College,Secondary,101 Glenhuntly Road,Elwood,VIC,3184,03 9531 9566,590.0,Port Phillip (C),144.98449,-37.88199
1297,Government,Epping Secondary College,Secondary,Mcdonalds Road,Epping,VIC,3076,03 9401 2599,707.0,Whittlesea (C),145.03283000000002,-37.644290000000005
1299,Government,Fairhills High School,Secondary,Scoresby Road,Knoxfield - Scoresby,VIC,3180,03 9758 5022,367.0,Knox (C),145.25933,-37.872659999999996
1301,Government,Gilmore College For Girls,Secondary,298 Barkly Street,Footscray,VIC,3011,03 9689 4788,433.0,Maribyrnong (C),144.89489,-37.7991
1303,Government,Frankston High School,Secondary,97 Foot Street,Frankston,VIC,3199,03 9783 7955,217.0,Frankston (C),145.12843,-38.16056
1306,Government,Gisborne Secondary College,Secondary,95 Melton Road,Gisborne,VIC,3437,03 5428 3691,413.0,Macedon Ranges (S),144.58477,-37.49811
1307,Government,Gladstone Park Secondary College,Secondary,14 - 36 Taylor Drive,Gladstone Park - Westmeadows,VIC,3043,03 9933 0500,327.0,Hume (C),144.89082,-37.689209999999996
1308,Government,Bundoora Secondary College,Secondary,53 Balmoral Avenue,Bundoora,VIC,3083,03 9467 1511,66.0,Banyule (C),145.06158,-37.707570000000004
1309,Government,Western Port Secondary College,Secondary,215 High Street,Hastings - Somers,VIC,3915,03 5979 1577,534.0,Mornington Peninsula (S),145.17524,-38.307990000000004
1310,Government,Healesville High School,Secondary,10 Camerons Road,Healesville - Yarra Glen,VIC,3777,03 5962 4088,745.0,Yarra Ranges (S),145.53197,-37.64356
1312,Government,Highvale Secondary College,Secondary,Capital Avenue,Glen Waverley,VIC,3150,03 9803 5144,497.0,Monash (C),145.17672,-37.866240000000005
1314,Government,Kensington Community High School,Secondary,405 Racecourse Rd,Kensington,VIC,3031,03 9376 1953,506.0,Moonee Valley (C),144.92558,-37.78791
1315,Government,Kew High School,Secondary,1393 Burke Road,Kew East,VIC,3102,03 9092 7500,111.0,Boroondara (C),145.06156000000001,-37.79472
1317,Government,Koo Wee Rup Secondary College,Secondary,Rossiter Road,Koo Wee Rup,VIC,3981,03 5997 1444,145.0,Cardinia (S),145.49578,-38.19702
1321,Government,Lalor Secondary College,Secondary,118 David Street,Lalor,VIC,3075,03 9463 7300,707.0,Whittlesea (C),145.03062,-37.67266
1322,Government,Lalor North Secondary College,Secondary,114 Childs Road,Epping,VIC,3076,03 9401 3888,707.0,Whittlesea (C),145.03496,-37.66098
1323,Government,Lilydale High School,Secondary,25 Melba Avenue,Lilydale - Coldstream,VIC,3140,03 9735 5644,745.0,Yarra Ranges (S),145.34521999999998,-37.76073
1324,Government,Lyndale Secondary College,Secondary,170-174 Gladstone Road,Dandenong,VIC,3175,03 9795 2366,267.0,Greater Dandenong (C),145.20675,-37.95778
1325,Government,Lynall Hall Community School,Secondary,Cnr Gleadell & Highett Street,Richmond,VIC,3121,03 9428 4421,735.0,Yarra (C),145.00226,-37.81648
1328,Government,Maribyrnong Secondary College,Secondary,River Street,Maribyrnong,VIC,3032,03 9091 8100,433.0,Maribyrnong (C),144.88851,-37.779540000000004
1330,Government,Melbourne High School,Secondary,Forrest Hill,South Yarra,VIC,3141,03 9826 0711,635.0,Stonnington (C),144.99531000000002,-37.83683
1331,Government,Melton Secondary College,Secondary,Coburns Road,Melton,VIC,3337,03 9743 3322,465.0,Melton (C),144.56798,-37.68312
1332,Government,Mentone Girls Secondary College,Secondary,Cnr Balcombe & Charman Rds,Mentone,VIC,3194,03 9581 5200,343.0,Kingston (C),145.05397,-37.98035
1335,Government,Monbulk College,Secondary,146-148 David Hill Road,Monbulk - Silvan,VIC,3793,03 9751 9000,745.0,Yarra Ranges (S),145.42781000000002,-37.883179999999996
1336,Government,Montmorency Secondary College,Secondary,Para Road,Montmorency - Briar Hill,VIC,3094,03 9422 1500,66.0,Banyule (C),145.11361000000002,-37.714079999999996
1337,Government,Mooroolbark College,Secondary,186 Manchester Road,Mooroolbark,VIC,3138,03 9727 8100,745.0,Yarra Ranges (S),145.31423,-37.775079999999996
1339,Government,Mordialloc College,Secondary,1 Station Street,Mordialloc - Parkdale,VIC,3195,03 9580 1184,343.0,Kingston (C),145.09198999999998,-38.0123
1341,Government,Mount Eliza Secondary College,Secondary,204 Canadian Bay Road,Mount Eliza,VIC,3930,03 9787 6288,534.0,Mornington Peninsula (S),145.09381000000002,-38.19014
1342,Government,Mount Waverley Secondary College,Secondary,9 Lechte Road,Mount Waverley,VIC,3149,03 9803 6811,497.0,Monash (C),145.13163,-37.868790000000004
1344,Government,MacRobertson Girls High School,Secondary,350-370 Kings Way,Melbourne,VIC,3004,03 9864 7700,590.0,Port Phillip (C),144.97186000000002,-37.83589
1348,Government,Northcote High School,Secondary,St Georges Road,Northcote,VIC,3070,03 9488 2300,189.0,Darebin (C),144.98971,-37.774159999999995
1349,Government,Norwood Secondary College,Secondary,Byron Street,Ringwood,VIC,3134,03 9871 0400,441.0,Maroondah (C),145.23825,-37.800470000000004
1354,Government,Pakenham Secondary College,Secondary,1020 Princes Highway,Pakenham,VIC,3810,03 5945 1433,145.0,Cardinia (S),145.4711,-38.06908
1355,Government,Parkdale Secondary College,Secondary,Warren Road,Mordialloc - Parkdale,VIC,3195,03 9580 6311,343.0,Kingston (C),145.0941,-37.98964
1356,Government,Pascoe Vale Girls Secondary College,Secondary,Lake Avenue,Pascoe Vale,VIC,3044,03 9306 2544,525.0,Moreland (C),144.93538,-37.717659999999995
1357,Government,Princes Hill Secondary College,Secondary,Arnold Street,Carlton North - Princes Hill,VIC,3054,03 9389 0600,735.0,Yarra (C),144.96503,-37.78348
1361,Government,Ringwood Secondary College,Secondary,Bedford Road,Ringwood,VIC,3134,03 9870 2002,441.0,Maroondah (C),145.23915,-37.81661
1364,Government,Rosebud Secondary College,Secondary,245 Eastbourne Road,Rosebud - McCrae,VIC,3939,03 5986 8595,534.0,Mornington Peninsula (S),144.88745,-38.36762
1366,Government,Scoresby Secondary College,Secondary,Cavell Street,Knoxfield - Scoresby,VIC,3179,03 9765 4100,367.0,Knox (C),145.2362,-37.88864
1368,Government,St Albans Secondary College,Secondary,289 Main Road East,St Albans,VIC,3021,03 9366 2555,118.0,Brimbank (C),144.80701000000002,-37.745309999999996
1371,Government,Strathmore Secondary College,Secondary,400 Pascoe Vale Road,Strathmore,VIC,3041,03 9379 7999,506.0,Moonee Valley (C),144.92664,-37.73695
1372,Government,Sunbury College,Secondary,30 Racecourse Road,Sunbury,VIC,3429,03 9744 1066,327.0,Hume (C),144.72869,-37.57421
1373,Government,Sydney Road Community School,Secondary,350 Sydney Road,Brunswick,VIC,3056,03 9380 9417,525.0,Moreland (C),144.96188,-37.769690000000004
1375,Government,Thomastown Secondary College,Secondary,80-96 Main Street,Thomastown,VIC,3074,03 9465 0844,707.0,Whittlesea (C),145.00194,-37.67872
1377,Government,University High School,Secondary,77 Story Street,Parkville,VIC,3052,03 9347 2022,460.0,Melbourne (C),144.95566000000002,-37.79701
1378,Government,Roxburgh College,Secondary,60-70 Donald Cameron Drive,Roxburgh Park - Somerton,VIC,3064,03 9930 8100,327.0,Hume (C),144.92946,-37.63063
1380,Government,Upwey High School,Secondary,1451 Burwood Highway,Upwey - Tecoma,VIC,3158,03 9754 2838,745.0,Yarra Ranges (S),145.33536,-37.90338
1381,Government,Vermont Secondary College,Secondary,27 - 63 Morack Road,Vermont,VIC,3133,03 9873 1077,698.0,Whitehorse (C),145.19985,-37.842859999999995
1382,Government,Kambrya College,Secondary,68 Bemersyde Drive,Berwick,VIC,3806,03 9707 7600,161.0,Casey (C),145.34741,-38.05369
1384,Government,Carrum Downs Secondary College,Secondary,263 McCormicks Road,Carrum Downs,VIC,3201,03 9788 9100,217.0,Frankston (C),145.19824,-38.09409
1386,Government,Wantirna College,Secondary,Harold Street,Wantirna,VIC,3152,03 9801 9700,367.0,Knox (C),145.22997,-37.8576
1388,Government,Warrandyte High School,Secondary,241-247 Heidelberg-Warrandyte Rd,Research - North Warrandyte,VIC,3113,03 9844 2749,421.0,Manningham (C),145.18405,-37.74694
1389,Government,Wellington Secondary College,Secondary,91 Police Road,Mulgrave,VIC,3170,03 9547 6822,497.0,Monash (C),145.17022,-37.93466
1390,Government,Werribee Secondary College,Secondary,45 Duncans Road,Werribee,VIC,3030,03 9741 1822,726.0,Wyndham (C),144.66873999999999,-37.90554
1392,Government,Westall Secondary College,Secondary,88-128 Rosebank Avenue,Clayton South,VIC,3169,03 9546 3233,343.0,Kingston (C),145.1361,-37.940220000000004
1393,Government,Wheelers Hill Secondary College,Secondary,Raphael Drive,Wheelers Hill,VIC,3150,03 9561 5811,497.0,Monash (C),145.18174,-37.91013
1394,Government,Williamstown High School,Secondary,76 Pasco Street,Williamstown,VIC,3016,03 9397 1899,311.0,Hobsons Bay (C),144.89513,-37.86275
1396,Government,Yarram Secondary College,Secondary,86 James Street,Plenty - Yarrambat,VIC,3971,03 5182 5522,681.0,Wellington (S),146.68546,-38.56658
1399,Government,Craigieburn Secondary College,Secondary,102 Hothlyn Drive,Craigieburn,VIC,3064,03 9308 1144,327.0,Hume (C),144.93558000000002,-37.60862
1400,Government,Emerald Secondary College,Secondary,425 Belgrave-gembrook Rd,Emerald - Cockatoo,VIC,3782,03 5968 5388,145.0,Cardinia (S),145.45873999999998,-37.92427
1401,Government,Reservoir High School,Secondary,855 Plenty Road,Reservoir,VIC,3073,03 9466 0900,189.0,Darebin (C),145.02976999999998,-37.72226
1402,Government,Hampton Park Secondary College,Secondary,58 - 96 Fordholm Road,Hampton Park - Lynbrook,VIC,3976,03 8795 9400,161.0,Casey (C),145.25915,-38.03492
1403,Government,Hoppers Crossing Secondary College,Secondary,2 Fraser Street,Hoppers Crossing,VIC,3029,03 9974 7777,726.0,Wyndham (C),144.69536000000002,-37.87122
1404,Government,Keilor Downs Secondary College,Secondary,100-110 Odessa Avenue,Keilor Downs,VIC,3038,03 9365 8000,118.0,Brimbank (C),144.81158,-37.716229999999996
1406,Government,Kurunjang Secondary College,Secondary,Kurunjang Drive,Melton,VIC,3337,03 9743 9211,465.0,Melton (C),144.58583000000002,-37.67318
1408,Government,Elisabeth Murdoch College,Secondary,80 Warrandyte Road,Langwarrin,VIC,3910,03 9788 2600,217.0,Frankston (C),145.19018,-38.159290000000006
1409,Government,Sunbury Downs Secondary College,Secondary,Mitchells Lane,Sunbury,VIC,3429,03 9744 7366,327.0,Hume (C),144.70461,-37.583940000000005
1410,Government,Forest Hill College,Secondary,178-180 Mahoneys Road,Burwood East,VIC,3151,03 9814 9444,698.0,Whitehorse (C),145.16386,-37.84796
1411,Government,Patterson River Secondary College,Secondary,70 - 98 Eel Race Road,Seaford,VIC,3198,03 8770 6700,217.0,Frankston (C),145.13482,-38.08328
1414,Government,Rowville Secondary College,Secondary,17 Paratea Drive,Rowville,VIC,3178,03 9755 4555,367.0,Knox (C),145.23709,-37.92389
1416,Government,Sandringham College,Secondary,11 Holloway Road,Sandringham - Black Rock,VIC,3191,03 8599 0500,91.0,Bayside (C),145.02335,-37.95668
1417,Government,Fitzroy High School,Secondary,Falconer Street,Fitzroy North,VIC,3068,03 9488 1900,735.0,Yarra (C),144.98748,-37.784909999999996
1418,Government,Ashwood High School,Secondary,Vannam Drive,Ashwood - Chadstone,VIC,3147,03 9807 1333,497.0,Monash (C),145.10341,-37.8641
1419,Government,Mullauna Secondary College,Secondary,456 Springfield Road,Mitcham,VIC,3132,03 9874 3422,698.0,Whitehorse (C),145.19031,-37.80685
1421,Government,Diamond Valley College,Secondary,165-179 Main Hurstbridge Road,Wattle Glen - Diamond Creek,VIC,3089,03 9438 1411,571.0,Nillumbik (S),145.1677,-37.67243
1422,Government,Blackburn English Language School,Language,120 Eley Road,Burwood East,VIC,3151,03 9803 4022,698.0,Whitehorse (C),145.14829,-37.84789
1423,Government,Collingwood English Language School,Language,19 Cambridge Street,Collingwood,VIC,3066,03 9419 7633,735.0,Yarra (C),144.9848,-37.80784
1424,Government,Noble Park English Language School,Language,21-35 Thomas Street,Noble Park,VIC,3174,03 9546 9578,267.0,Greater Dandenong (C),145.17817,-37.97117
1425,Government,Greensborough Secondary College,Secondary,Nell  Street,Greensborough,VIC,3088,03 9433 2666,66.0,Banyule (C),145.09013000000002,-37.708659999999995
1427,Government,Mill Park Secondary College,Secondary,9 - 25 Moorhead Drive,Mill Park,VIC,3082,03 9407 9700,707.0,Whittlesea (C),145.06286,-37.6639
1428,Government,Bacchus Marsh College,Secondary,73 Grant Street,Bacchus Marsh,VIC,3340,03 5367 2955,515.0,Moorabool (S),144.43306,-37.685629999999996
1429,Government,The Grange P-12 College,Pri/Sec,30 Deloraine Drive,Hoppers Crossing,VIC,3029,03 9748 9166,726.0,Wyndham (C),144.67494,-37.858129999999996
1430,Government,Taylors Lakes Secondary College,Secondary,1-39 Parmelia Drive,Taylors Lakes,VIC,3038,03 9390 3130,118.0,Brimbank (C),144.79365,-37.70666
1431,Government,Sunshine College,Secondary,Graham Street,Sunshine,VIC,3020,03 8311 5200,118.0,Brimbank (C),144.82807,-37.79025
1432,Government,Wallan Secondary College,Secondary,100 Duke Street,Wallan,VIC,3756,03 5783 0300,485.0,Mitchell (S),144.98147,-37.41839
1433,Government,Thornbury High School,Secondary,238 Collins Street,Thornbury,VIC,3071,03 9480 4066,189.0,Darebin (C),145.02521000000002,-37.75649
1435,Government,Copperfield College,Secondary,Goldsmith Avenue,Delahey,VIC,3037,03 9307 5555,118.0,Brimbank (C),144.77245,-37.719609999999996
1436,Government,Bayside P-12 College,Pri/Sec,29-69 Kororoit Creek Road,Williamstown,VIC,3016,03 9393 5800,311.0,Hobsons Bay (C),144.88521,-37.8577
1440,Government,Mornington Secondary College,Secondary,1051 Nepean Highway,Mornington,VIC,3931,03 5970 0200,534.0,Mornington Peninsula (S),145.05881000000002,-38.21826
1441,Government,Essendon East Keilor District College,Secondary,Quinn Grove,Keilor East,VIC,3033,03 8331 0100,506.0,Moonee Valley (C),144.86971,-37.739709999999995
1442,Government,Brunswick Secondary College,Secondary,47 Dawson Street,Brunswick,VIC,3056,03 9387 6133,525.0,Moreland (C),144.95577,-37.77101
1443,Government,Glen Waverley Secondary College,Secondary,13-21 O'Sullivan Road,Glen Waverley,VIC,3150,03 8805 6700,497.0,Monash (C),145.16271,-37.87811
1444,Government,Monterey Secondary College,Secondary,Silvertop Street,Frankston North,VIC,3200,03 9781 7700,217.0,Frankston (C),145.14793,-38.12673
1446,Government,Viewbank College,Secondary,Warren Road,Heidelberg - Rosanna,VIC,3084,03 9458 2811,66.0,Banyule (C),145.08695,-37.74123
1447,Government,Noble Park Secondary College,Secondary,3 Callaghan Street,Noble Park,VIC,3174,03 9546 9066,267.0,Greater Dandenong (C),145.18237,-37.970209999999994
1449,Government,Yarra Hills Secondary College,Secondary,16 Reay Road,Mooroolbark,VIC,3138,03 9839 8800,745.0,Yarra Ranges (S),145.31575,-37.788709999999995
1452,Government,Melbourne Girls College,Secondary,Yarra Boulevard,Richmond,VIC,3121,03 9428 8955,735.0,Yarra (C),145.01433,-37.82251
1455,Government,Templestowe College,Secondary,7 Cypress Avenue,Templestowe Lower,VIC,3107,03 9850 6333,421.0,Manningham (C),145.12183000000002,-37.76747
1464,Government,McClelland Secondary College,Secondary,Belar Avenue,Frankston,VIC,3199,03 9789 4544,217.0,Frankston (C),145.15836000000002,-38.14667
1465,Government,Footscray City College,Secondary,1 Kinnear Street,Footscray,VIC,3011,03 8387 1500,433.0,Maribyrnong (C),144.89401,-37.79107
1466,Government,Western English Language School,Language,46 South Road,Braybrook,VIC,3019,03 9311 9325,433.0,Maribyrnong (C),144.85404,-37.791
1472,Government,The Lakes South Morang P-9 School,Pri/Sec,80 Jardier Terrace,South Morang,VIC,3752,03 9401 3919,707.0,Whittlesea (C),145.0767,-37.6346
1473,Government,Point Cook Senior Secondary College,Secondary,Cnr Boardwalk Blvd & Bergamot,Point Cook,VIC,3030,03 9395 9271,726.0,Wyndham (C),144.73282,-37.886720000000004
1474,Government,Manor Lakes P-12 College,Pri/Sec,2-50 Minindee Road,Wyndham Vale,VIC,3024,03 9741 4202,726.0,Wyndham (C),144.60228,-37.874159999999996
1475,Government,Coburg High School,Secondary,189 Urquhart Street,Coburg,VIC,3058,03 9353 1700,525.0,Moreland (C),144.9764,-37.74118
1477,Government,Mount Ridley P-12 College,Pri/Sec,2-30 Hampton Street,Craigieburn,VIC,3064,03 8338 3600,327.0,Hume (C),144.92342,-37.58027
1478,Government,Tarneit Senior College,Secondary,861 Leakes Road,Tarneit,VIC,3029,03 9749 0246,726.0,Wyndham (C),144.68041000000002,-37.83335
1480,Government,John Monash Science School,Secondary,39 Innovation Walk,Clayton,VIC,3800,03 9905 1002,497.0,Monash (C),145.12868999999998,-37.91422
1481,Government,Altona P-9 College,Pri/Sec,103 A Grieve Parade,Altona,VIC,3018,03 9250 8050,311.0,Hobsons Bay (C),144.81726,-37.86152
1482,Government,Dandenong High School,Secondary,92-106 Princes Highway,Dandenong,VIC,3175,03 9792 0561,267.0,Greater Dandenong (C),145.20901,-37.979420000000005
1484,Government,Laverton P-12 College,Pri/Sec,91 Bladin Street,Laverton,VIC,3028,03 9369 1833,311.0,Hobsons Bay (C),144.77263,-37.85617
1485,Government,Hume Central Secondary College,Secondary,60-78 Tanderrum Way,Broadmeadows,VIC,3047,03 9066 3600,327.0,Hume (C),144.91536000000002,-37.68038
1487,Government,Nossal High School,Secondary,100 Clyde Road,Berwick,VIC,3806,03 8762 4600,161.0,Casey (C),145.33656000000002,-38.0385
1488,Government,Suzanne Cory High School,Secondary,225 Hoppers Lane,Werribee,VIC,3030,03 8734 2800,726.0,Wyndham (C),144.70075,-37.89385
1489,Government,Keysborough Secondary College,Secondary,8-20 Janine Road,Springvale South,VIC,3172,03 9546 4144,267.0,Greater Dandenong (C),145.15936000000002,-37.967
1490,Government,Hallam Senior Secondary College,Secondary,74-84 Frawley Road,Hallam,VIC,3803,03 9703 1266,161.0,Casey (C),145.26092,-38.0002
1491,Government,Gleneagles Secondary College,Secondary,58 Reema Boulevard,Endeavour Hills,VIC,3802,03 9708 1319,161.0,Casey (C),145.27628,-37.97435
1492,Government,Fountain Gate Secondary College,Secondary,45 Josephine Avenue,Narre Warren,VIC,3805,03 8762 6839,161.0,Casey (C),145.2951,-38.0062
1495,Government,Alkira Secondary College,Secondary,15 Nurture Avenue,Cranbourne,VIC,3977,03 5991 3500,161.0,Casey (C),145.31052,-38.07331
1496,Government,Somerville Secondary College,Secondary,37 Graf Road,Somerville,VIC,3912,03 5973 1000,534.0,Mornington Peninsula (S),145.16823,-38.22722
1501,Government,Albert Park College,Secondary,83 Danks Street,Albert Park,VIC,3206,03 8695 9000,590.0,Port Phillip (C),144.94742,-37.84437
1503,Government,Victoria University Secondary College,Secondary,5A Jamieson Street,St Albans,VIC,3021,03 8312 0200,118.0,Brimbank (C),144.78595,-37.740320000000004
1505,Government,Glenroy Secondary College,Secondary,120 Glenroy Road,Glenroy,VIC,3046,03 9304 0400,525.0,Moreland (C),144.925,-37.7047
1506,Government,John Fawkner Secondary College,Secondary,Jukes Road,Fawkner,VIC,3060,03 9359 1166,525.0,Moreland (C),144.97186000000002,-37.702709999999996
1507,Government,William Ruthven Secondary College,Secondary,60 Merrilands Road,Reservoir,VIC,3073,03 9462 2177,189.0,Darebin (C),145.003,-37.696529999999996
1508,Government,Cranbourne East Secondary College,Secondary,50 Stately Drive,Cranbourne,VIC,3977,03 5990 0200,161.0,Casey (C),145.30603,-38.10487
1513,Government,Doveton College,Pri/Sec,62 Tristania Street,Doveton,VIC,3177,03 8765 0111,161.0,Casey (C),145.24329,-37.9903
1514,Government,Officer Secondary College (interim name),Secondary,1 Parker Street,Beaconsfield - Officer,VIC,3809,03 5942 4000,145.0,Cardinia (S),145.4109,-38.07195
1515,Government,Brookside P-9 College,Pri/Sec,Federation Way,Caroline Springs,VIC,3023,03 9361 4201,465.0,Melton (C),144.73653000000002,-37.74638
1516,Government,Creekside K-9 College,Pri/Sec,The Crossing,Caroline Springs,VIC,3023,03 9361 4202,465.0,Melton (C),144.73803999999998,-37.73445
1517,Government,Lakeview Senior College,Secondary,College Street,Caroline Springs,VIC,3023,03 9219 3100,465.0,Melton (C),144.73707,-37.735659999999996
1518,Government,Springside P-9 College,Pri/Sec,22 Becca Way,Caroline Springs,VIC,3023,03 9449 6400,465.0,Melton (C),144.73866999999998,-37.71118
1519,Government,Melba Secondary College,Secondary,Brentnall Road,Croydon,VIC,3136,03 9870 4551,441.0,Maroondah (C),145.26119,-37.79513
1520,Government,Boronia K-12 College,Pri/Sec,35-37 Albert Avenue,Boronia,VIC,3155,03 9760 4900,367.0,Knox (C),145.28942,-37.85893
1521,Government,Tarneit P-9 College,Pri/Sec,21-23 Brinbrook Street,Tarneit,VIC,3029,03 9749 0506,726.0,Wyndham (C),144.68073,-37.83651
1524,Independent,Wesley College,Pri/Sec,577 St Kilda Road,Melbourne,VIC,3004,03 8102 6100,460.0,Melbourne (C),144.98214,-37.84883
1526,Catholic,Parade College,Secondary,1436 Plenty Road,Bundoora,VIC,3083,03 9468 3300,66.0,Banyule (C),145.06698,-37.69018
1527,Catholic,Simonds Catholic College,Secondary,273 Victoria Street,West Melbourne,VIC,3003,03 9321 9200,460.0,Melbourne (C),144.95288,-37.80597
1528,Catholic,Christian Brothers' College St Kilda,Secondary,11 Westbury Street,St Kilda East,VIC,3183,03 9529 6611,590.0,Port Phillip (C),144.997,-37.859359999999995
1535,Catholic,Sacred Heart School,Primary,4 Newcastle Street,Newport,VIC,3015,03 9391 6262,311.0,Hobsons Bay (C),144.8814,-37.84003
1536,Catholic,St Mary's School,Primary,118 Cecil Street,Williamstown,VIC,3016,03 9397 7926,311.0,Hobsons Bay (C),144.90089,-37.8635
1537,Independent,Ruyton Girls' School,Pri/Sec,12 Selbourne Road,Kew,VIC,3101,03 9819 2422,111.0,Boroondara (C),145.03918000000002,-37.81111
1538,Independent,Caulfield Grammar School,Pri/Sec,217 Glen Eira Road,St Kilda East,VIC,3183,03 9524 6300,231.0,Glen Eira (C),145.00489,-37.87738
1541,Catholic,Presentation College Windsor,Secondary,187 Dandenong Road,Prahran - Windsor,VIC,3181,03 8517 2777,635.0,Stonnington (C),144.99472,-37.85764
1542,Catholic,St Mary's School,Primary,214 Dandenong Road,St Kilda East,VIC,3183,03 9510 7420,590.0,Port Phillip (C),144.99759,-37.85902
1544,Catholic,St Brendan's School,Primary,103 Wellington Street,Flemington,VIC,3031,03 9376 0249,506.0,Moonee Valley (C),144.93173000000002,-37.7847
1550,Catholic,St Joseph's School,Primary,571 Glenferrie Road,Hawthorn,VIC,3122,03 9818 7570,111.0,Boroondara (C),145.03432,-37.82646
1552,Catholic,St Joseph's School,Primary,39 James Street,Northcote,VIC,3070,03 9481 7166,189.0,Darebin (C),144.99671999999998,-37.77462
1553,Catholic,Sacred Heart School,Primary,1 Clifton Grove,Preston,VIC,3072,03 9484 3514,189.0,Darebin (C),145.00377,-37.74481
1573,Catholic,Star of the Sea College,Secondary,80 Martin Street,Brighton,VIC,3186,03 9596 6099,91.0,Bayside (C),144.99678,-37.89673
1574,Catholic,St James' School,Primary,6 St James Close,Brighton,VIC,3186,03 9596 4766,91.0,Bayside (C),144.99766,-37.897940000000006
1575,Catholic,St Peter's School,Primary,842 Centre Road,Bentleigh East,VIC,3165,03 9579 5068,231.0,Glen Eira (C),145.07091,-37.92304
1576,Independent,Methodist Ladies' College,Pri/Sec,207 Barkers Road,Kew,VIC,3101,03 9274 6333,111.0,Boroondara (C),145.03849,-37.81395
1585,Independent,Christ Church Grammar School,Primary,677 Punt Road,South Yarra,VIC,3141,03 9866 3540,460.0,Melbourne (C),144.98574,-37.83895
1586,Catholic,St Paul's School,Primary,562 Sydney Road,Coburg,VIC,3058,03 9354 8970,525.0,Moreland (C),144.96785,-37.738929999999996
1587,Catholic,St Andrew's School,Primary,110 Greaves Street North,Werribee,VIC,3030,03 9741 3686,726.0,Wyndham (C),144.65057,-37.901270000000004
1588,Catholic,St Brigid's School,Primary,68 Aitken Street,Gisborne,VIC,3437,03 5428 2220,413.0,Macedon Ranges (S),144.59009,-37.49091
1589,Catholic,Our Lady of Mount Carmel School,Primary,53 Macedon Street,Sunbury,VIC,3429,03 9740 7344,327.0,Hume (C),144.7363,-37.580040000000004
1594,Independent,Fintona Girls' School,Pri/Sec,79 Balwyn Road,Balwyn,VIC,3103,03 9830 1388,111.0,Boroondara (C),145.08033,-37.81516
1595,Catholic,St Patrick's School,Primary,136 Princes Highway,Pakenham,VIC,3810,03 5940 2888,145.0,Cardinia (S),145.47453000000002,-38.069379999999995
1596,Independent,Lauriston Girls' School,Pri/Sec,38 Huntingtower Road,Armadale,VIC,3143,03 9864 7555,635.0,Stonnington (C),145.02508999999998,-37.85232
1598,Catholic,Xavier College,Pri/Sec,135 Barkers Road,Kew,VIC,3101,03 9854 5411,111.0,Boroondara (C),145.0311,-37.81386
1602,Catholic,St Bernard's School,Primary,Gisborne Road,Bacchus Marsh,VIC,3340,03 5367 2379,515.0,Moorabool (S),144.43486000000001,-37.672270000000005
1605,Independent,Trinity Grammar School Kew,Pri/Sec,40 Charles Street,Kew,VIC,3101,03 9854 3600,111.0,Boroondara (C),145.0355,-37.8102
1606,Catholic,Academy of Mary Immaculate,Secondary,88 Nicholson Street,Fitzroy,VIC,3065,03 9412 7100,735.0,Yarra (C),144.97441,-37.803709999999995
1607,Catholic,Sacred Heart School,Primary,107 King William Street,Fitzroy,VIC,3065,03 9419 3528,735.0,Yarra (C),144.97852,-37.80205
1608,Catholic,Mount Lilydale Mercy College,Secondary,120 Anderson Street,Lilydale - Coldstream,VIC,3140,03 9735 4022,745.0,Yarra Ranges (S),145.35775,-37.75076
1609,Catholic,St Monica's School,Primary,2 Wingfield Street,Footscray,VIC,3011,03 9689 4548,433.0,Maribyrnong (C),144.90684,-37.801159999999996
1610,Catholic,St Augustine's School,Primary,65 Somerville Road,Yarraville,VIC,3013,03 9314 5996,433.0,Maribyrnong (C),144.8899,-37.8137
1614,Catholic,Kilbreda College,Secondary,118 Mentone Parade,Mentone,VIC,3194,03 9581 7766,343.0,Kingston (C),145.06571,-37.98415
1615,Catholic,Padua College,Secondary,62 Oakbank Road,Mornington,VIC,3931,03 5976 0100,534.0,Mornington Peninsula (S),145.072,-38.21826
1616,Independent,Melbourne Girls Grammar,Pri/Sec,86 Anderson Street,South Yarra,VIC,3141,03 9862 9200,460.0,Melbourne (C),144.9848,-37.83169
1627,Independent,Presbyterian Ladies' College,Pri/Sec,141 Burwood Highway,Burwood,VIC,3125,03 9808 5811,698.0,Whitehorse (C),145.107,-37.84856
1628,Catholic,St Monica's Primary School,Primary,20 Robinson Street,Moonee Ponds,VIC,3039,03 9375 1132,506.0,Moonee Valley (C),144.92318,-37.75966
1629,Catholic,St Patrick's School,Primary,40 Jones Street,Lilydale - Coldstream,VIC,3140,03 9735 4388,745.0,Yarra Ranges (S),145.35261,-37.75273
1630,Catholic,Catholic Ladies' College Ltd,Secondary,19 Diamond Street,Eltham,VIC,3095,03 9439 4077,571.0,Nillumbik (S),145.14356,-37.71152
1631,Catholic,St Joseph's School,Primary,46 Otter Street,Collingwood,VIC,3066,03 9419 4918,735.0,Yarra (C),144.98639,-37.80046
1634,Catholic,Sacred Heart School,Primary,116 Cotham Road,Kew,VIC,3101,03 9853 5859,111.0,Boroondara (C),145.03744,-37.808170000000004
1639,Catholic,St Aloysius College,Secondary,31 Curran Street,North Melbourne,VIC,3051,03 9329 0411,460.0,Melbourne (C),144.94287,-37.79289
1643,Catholic,Our Holy Redeemer School,Primary,311 Mont Albert Road,Surrey Hills,VIC,3127,03 9898 2315,111.0,Boroondara (C),145.10008,-37.82032
1649,Catholic,St Columba's College,Secondary,2 Leslie Road,Essendon - Aberfeldie,VIC,3040,03 9337 5311,506.0,Moonee Valley (C),144.91429,-37.7572
1653,Catholic,Genazzano FCJ College,Pri/Sec,301 Cotham Road,Kew,VIC,3101,03 8862 1000,111.0,Boroondara (C),145.05578,-37.80897
1656,Independent,St Michael's Grammar School,Pri/Sec,25 - 27 Chapel Street,St Kilda,VIC,3182,03 8530 3200,590.0,Port Phillip (C),144.99155,-37.85955
1657,Catholic,St Patrick's School,Primary,16 Childers Street,Mentone,VIC,3194,03 9583 5033,343.0,Kingston (C),145.07016000000002,-37.98357
1661,Independent,Firbank Grammar School,Pri/Sec,51 Outer Crescent,Brighton,VIC,3186,03 9591 5188,91.0,Bayside (C),144.99694,-37.90612
1662,Catholic,St John's School,Primary,55 Cape Street,Heidelberg - Rosanna,VIC,3084,03 9459 2963,66.0,Banyule (C),145.06655,-37.75764
1663,Catholic,Our Lady of Mercy College,Secondary,52 Cape Street,Heidelberg - Rosanna,VIC,3084,03 9459 2511,66.0,Banyule (C),145.06759,-37.75793
1664,Catholic,St Joseph's School,Primary,185 Hope Street,Brunswick West,VIC,3055,03 9385 9800,525.0,Moreland (C),144.94298,-37.76229
1665,Catholic,St Brigid's School,Primary,129 Albert Street,Mordialloc - Parkdale,VIC,3195,03 9580 4518,343.0,Kingston (C),145.09178,-38.00804
1668,Catholic,Our Lady Help of Christians School,Primary,26 Miller Street,Brunswick East,VIC,3057,03 9380 5050,525.0,Moreland (C),144.97786000000002,-37.776340000000005
1669,Catholic,St Anthony's School,Primary,172 Neerim Road,Ormond - Glen Huntly,VIC,3163,03 9563 6780,231.0,Glen Eira (C),145.0471,-37.88689
1670,Catholic,St Mary's School,Primary,20-24 New Street,Dandenong,VIC,3175,03 9791 7650,267.0,Greater Dandenong (C),145.22083999999998,-37.99067
1671,Catholic,Sacred Heart School,Primary,11 Fernhill Road Nth,Sandringham - Black Rock,VIC,3191,03 9598 9322,91.0,Bayside (C),145.00855,-37.95148
1673,Catholic,St Mary's School,Primary,74 Roseberry Street,Ascot Vale,VIC,3032,03 9370 1194,506.0,Moonee Valley (C),144.91127,-37.77384
1675,Catholic,De La Salle College,Pri/Sec,1318 High Street,Malvern - Glen Iris,VIC,3144,03 9508 2100,635.0,Stonnington (C),145.03218,-37.85768
1681,Independent,Westbourne Grammar School,Primary,67 The Strand,Newport,VIC,3015,03 9731 9555,311.0,Hobsons Bay (C),144.89493000000002,-37.850190000000005
1682,Independent,Ivanhoe Grammar School,Pri/Sec,The Ridgeway,Ivanhoe,VIC,3079,03 9490 1877,66.0,Banyule (C),145.04448,-37.77252
1683,Catholic,St Brigid's School,Primary,1 High Street,Healesville - Yarra Glen,VIC,3777,03 5962 4200,745.0,Yarra Ranges (S),145.5158,-37.65868
1685,Independent,Scotch College,Pri/Sec,1 Morrison Street,Hawthorn,VIC,3122,03 9810 4321,111.0,Boroondara (C),145.03229,-37.83392
1686,Catholic,St Mary's School,Primary,91 Manning Road,Malvern East,VIC,3145,03 9571 1358,635.0,Stonnington (C),145.05292,-37.873020000000004
1687,Independent,St Leonard's College,Pri/Sec,163 South Rd,Brighton East,VIC,3187,03 9909 9300,91.0,Bayside (C),145.00755,-37.92863
1688,Catholic,Holy Rosary School,Primary,37 Gower Street,Kensington,VIC,3031,03 9376 9455,460.0,Melbourne (C),144.92878000000002,-37.79558
1690,Catholic,St Anthony's School,Primary,52 Austin Street,Alphington - Fairfield,VIC,3078,03 9489 7936,189.0,Darebin (C),145.02036,-37.78007
1691,Catholic,St Joseph's School,Primary,49 Stanhope Street,Malvern - Glen Iris,VIC,3144,03 9509 3092,635.0,Stonnington (C),145.03116,-37.85807
1692,Catholic,St Mary's School,Primary,5 Buckley Street,Plenty - Yarrambat,VIC,3971,03 5182 5659,681.0,Wellington (S),146.67597,-38.5569
1694,Catholic,St Columba's School,Primary,24 Glenhuntly Road,Elwood,VIC,3184,03 9531 6560,590.0,Port Phillip (C),144.98112,-37.882529999999996
1696,Independent,Tintern Grammar,Pri/Sec,90 Alexandra Road,Ringwood East,VIC,3135,03 9845 7777,441.0,Maroondah (C),145.25669,-37.81552
1699,Catholic,St Mary's School,Primary,69 Marine Parade,Hastings - Somers,VIC,3915,03 5979 1959,534.0,Mornington Peninsula (S),145.1917,-38.30344
1701,Catholic,Our Lady of the Immaculate Conception School,Primary,32 Station Place,Sunshine,VIC,3020,03 9312 2230,118.0,Brimbank (C),144.83556000000002,-37.78945
1702,Catholic,St Mary's School,Primary,2 Mansfield Street,Thornbury,VIC,3071,03 9484 5333,189.0,Darebin (C),145.00166000000002,-37.756840000000004
1704,Independent,St Catherine's School,Pri/Sec,17 Heyington Place,Toorak,VIC,3142,03 9822 1285,635.0,Stonnington (C),145.02127,-37.8383
1705,Independent,Lowther Hall Anglican Grammar School,Pri/Sec,17 Leslie Road,Essendon - Aberfeldie,VIC,3040,03 9325 5000,506.0,Moonee Valley (C),144.91496999999998,-37.75991
1707,Catholic,St Aloysius' School,Primary,Cromwell Street,Caulfield,VIC,3161,03 9532 9416,231.0,Glen Eira (C),145.02553,-37.87345
1708,Catholic,St Joan of Arc School,Primary,30 Dendy Street,Brighton,VIC,3186,03 9592 3840,91.0,Bayside (C),144.99415,-37.92011
1710,Independent,Penleigh & Essendon Grammar School,Pri/Sec,163 Rachelle Road,Keilor East,VIC,3033,03 9016 2000,506.0,Moonee Valley (C),144.87034,-37.73215
1711,Catholic,St John's School,Primary,34 Essex Street,Footscray,VIC,3011,03 9687 3150,433.0,Maribyrnong (C),144.88522,-37.79582
1713,Independent,Shelford Girls' Grammar,Pri/Sec,3 Hood Crescent,Caulfield,VIC,3161,03 9524 7333,231.0,Glen Eira (C),145.01131999999998,-37.87791
1714,Catholic,Mary Immaculate School,Primary,9 Rockbeare Grove,Ivanhoe,VIC,3079,03 9497 1827,66.0,Banyule (C),145.03876,-37.77194
1718,Independent,Mentone Grammar School,Pri/Sec,63 Venice Street,Mentone,VIC,3194,03 9584 4211,343.0,Kingston (C),145.06812,-37.98769
1719,Independent,Ivanhoe Girls' Grammar School,Pri/Sec,123 Marshall St,Ivanhoe,VIC,3079,03 9490 6222,66.0,Banyule (C),145.04672,-37.76527
1721,Independent,Carey Baptist Grammar School,Pri/Sec,349 Barkers Road,Kew,VIC,3101,03 9816 1222,111.0,Boroondara (C),145.04782,-37.81478
1722,Independent,Kilvington Grammar School,Pri/Sec,2 Leila Road,Ormond - Glen Huntly,VIC,3204,03 9578 6231,231.0,Glen Eira (C),145.04121999999998,-37.89952
1723,Independent,Haileybury College,Pri/Sec,855 Springvale Rd,Keysborough,VIC,3173,03 9213 2222,267.0,Greater Dandenong (C),145.14643,-37.995979999999996
1724,Catholic,St Therese's School,Primary,25-31 Edward Street,Essendon - Aberfeldie,VIC,3040,03 9379 8748,506.0,Moonee Valley (C),144.91031,-37.75111
1728,Catholic,St Kevin's School,Primary,Glen Orme Avenue,Ormond - Glen Huntly,VIC,3204,03 9578 1182,231.0,Glen Eira (C),145.0388,-37.9044
1729,Independent,Mentone Girls' Grammar School,Pri/Sec,11 Mentone Parade,Mentone,VIC,3194,03 9581 1200,343.0,Kingston (C),145.06346000000002,-37.98938
1730,Catholic,St Joseph's School,Primary,362 Station Street,Chelsea - Bonbeach,VIC,3196,03 9772 8251,343.0,Kingston (C),145.11858999999998,-38.055440000000004
1732,Catholic,St Finbar's School,Primary,90 Centre Road,Brighton East,VIC,3187,03 9592 4479,91.0,Bayside (C),145.01746,-37.91628
1733,Catholic,Loreto Mandeville Hall,Pri/Sec,10 Mandeville Crescent,Toorak,VIC,3142,03 9823 8100,635.0,Stonnington (C),145.01488999999998,-37.84819
1735,Catholic,St Mary's School,Primary,59 Holyrood Street,Hampton,VIC,3188,03 9521 9335,91.0,Bayside (C),145.0009,-37.93305
1740,Independent,Brighton Grammar School,Pri/Sec,90 Outer Crescent,Brighton,VIC,3186,03 8591 2200,91.0,Bayside (C),144.99352,-37.91111
1743,Catholic,St Francis Xavier's School,Primary,1087 Whitehorse Road,Box Hill,VIC,3128,03 9890 1108,698.0,Whitehorse (C),145.13148999999999,-37.818490000000004
1744,Catholic,St Mary's School,Primary,95A Railway Street,Altona,VIC,3018,03 9398 4842,311.0,Hobsons Bay (C),144.82838,-37.866659999999996
1745,Catholic,Our Lady Help of Christians School,Primary,1-13 Henry Street,Eltham,VIC,3095,03 9439 7824,571.0,Nillumbik (S),145.14791,-37.716120000000004
1747,Catholic,St Francis Xavier School,Primary,8 Park Street,Frankston,VIC,3199,03 9783 3424,217.0,Frankston (C),145.1262,-38.1488
1748,Catholic,Our Lady of Sion College,Secondary,1065 Whitehorse Road,Box Hill,VIC,3128,03 9890 9097,698.0,Whitehorse (C),145.12992,-37.81835
1749,Catholic,St Gabriel's School,Primary,237 Spring Street,Reservoir,VIC,3073,03 9469 3513,189.0,Darebin (C),145.00512,-37.71802
1750,Catholic,St Paul's School,Primary,122 Jasper Road,Bentleigh - McKinnon,VIC,3204,03 9557 7130,231.0,Glen Eira (C),145.04147,-37.92283
1751,Catholic,St Joseph's School,Primary,544 Balcombe Road,Sandringham - Black Rock,VIC,3193,03 9589 4685,91.0,Bayside (C),145.02316000000002,-37.97592
1752,Catholic,Salesian College,Secondary,Rupertswood,Sunbury,VIC,3429,03 9744 0000,327.0,Hume (C),144.73903,-37.57264
1754,Independent,Kingswood College,Pri/Sec,355 Station Street,Box Hill,VIC,3128,03 9896 1700,698.0,Whitehorse (C),145.11863,-37.83278
1756,Catholic,St Patrick's School,Primary,3 Dalny Road,Murrumbeena,VIC,3163,03 9569 7487,231.0,Glen Eira (C),145.06527,-37.90178
1758,Catholic,Holy Eucharist School,Primary,1241 Dandenong Road,Malvern East,VIC,3145,03 9571 8007,635.0,Stonnington (C),145.06958999999998,-37.88425
1759,Independent,St Margaret's School,Pri/Sec,27-47 Gloucester Ave,Berwick,VIC,3806,03 9703 8111,161.0,Casey (C),145.34654,-38.03535
1761,Catholic,St Anne's School,Primary,7-19 Beresford Street,Kew East,VIC,3102,03 9859 4116,111.0,Boroondara (C),145.04981,-37.79538
1762,Catholic,Our Lady of Perpetual Help School,Primary,2 Wilana Street,Ringwood,VIC,3134,03 9870 7227,441.0,Maroondah (C),145.23218,-37.81642
1763,Catholic,St Francis Xavier's School,Primary,90 Mayona Road,Montmorency - Briar Hill,VIC,3094,03 9435 8474,66.0,Banyule (C),145.12656,-37.71601
1766,Catholic,St Joseph's School,Primary,28 Sandham Street,Elsternwick,VIC,3185,03 9528 1614,231.0,Glen Eira (C),145.00529,-37.882509999999996
1768,Independent,"Preshil, The Margaret Lyttle Memorial School",Pri/Sec,395 Barkers Road,Kew,VIC,3101,03 9817 6135,111.0,Boroondara (C),145.05221,-37.81593
1769,Catholic,St Peter's School,Primary,32 Wedge Street,Epping,VIC,3076,03 9401 1157,707.0,Whittlesea (C),145.02755,-37.65054
1770,Catholic,Santa Maria College,Secondary,50 Separation Street,Northcote,VIC,3070,03 9489 7644,189.0,Darebin (C),145.00248,-37.77036
1771,Catholic,Sacred Heart School,Primary,2 Mora Avenue,Oakleigh - Huntingdale,VIC,3166,03 8574 4500,497.0,Monash (C),145.08692,-37.90184
1772,Catholic,St Mark's School,Primary,118 Argyle Street,Fawkner,VIC,3060,03 9359 6463,525.0,Moreland (C),144.96362,-37.71628
1773,Catholic,St John the Baptist School,Primary,17 Forest Road,Ferntree Gully,VIC,3156,03 9758 1013,367.0,Knox (C),145.29516999999998,-37.88738
1774,Catholic,St John's School,Primary,490 Whitehorse Road,Mitcham,VIC,3132,03 9874 1575,698.0,Whitehorse (C),145.1904,-37.817440000000005
1777,Catholic,St Kevin's College,Pri/Sec,31 Moonga Road,Toorak,VIC,3142,03 9822 0911,635.0,Stonnington (C),145.0247,-37.8354
1778,Catholic,St John the Baptist's School,Primary,Station Street,Koo Wee Rup,VIC,3981,03 5997 1653,145.0,Cardinia (S),145.48526999999999,-38.19746
1779,Catholic,St Vincent de Paul's School,Primary,92 - 114 Woodland Street,Strathmore,VIC,3041,03 9379 5723,506.0,Moonee Valley (C),144.92413,-37.74214
1781,Catholic,St Joseph's School,Primary,33 St John's Avenue,Springvale,VIC,3171,03 9546 8223,267.0,Greater Dandenong (C),145.15034,-37.95323
1782,Catholic,St Bede's College,Secondary,2 Mentone Parade,Mentone,VIC,3194,03 9582 5999,343.0,Kingston (C),145.06821000000002,-37.99116
1784,Catholic,Siena College Ltd,Secondary,815 Riversdale Road,Camberwell,VIC,3124,03 9835 0200,111.0,Boroondara (C),145.08258,-37.833659999999995
1786,Catholic,St Benedict's School,Primary,3-9 Central Avenue,Burwood,VIC,3125,03 9808 8551,698.0,Whitehorse (C),145.0974,-37.84949
1787,Catholic,St Oliver Plunkett's School,Primary,1-39 Landells Road,Pascoe Vale,VIC,3044,03 9354 5411,525.0,Moreland (C),144.94186000000002,-37.73089
1788,Catholic,Corpus Christi School,Primary,380 Geelong Road,Seddon - Kingsville,VIC,3012,03 9314 7303,433.0,Maribyrnong (C),144.87292,-37.80853
1790,Catholic,St Bernard's College,Secondary,41 Rosehill Road,Essendon - Aberfeldie,VIC,3040,03 9289 1000,506.0,Moonee Valley (C),144.8832,-37.749390000000005
1791,Catholic,Whitefriars College Inc,Secondary,156 Park Road,Donvale - Park Orchards,VIC,3111,03 9872 8200,421.0,Manningham (C),145.19953999999998,-37.7918
1792,Catholic,St Michael's School,Primary,268 High Street,Ashburton,VIC,3147,03 9885 3105,111.0,Boroondara (C),145.08248,-37.864129999999996
1794,Catholic,Our Lady of the Sacred Heart College,Secondary,111 Jasper Road,Bentleigh - McKinnon,VIC,3204,03 8520 9200,231.0,Glen Eira (C),145.03994,-37.92572
1795,Catholic,St Bede's School,Primary,2 Marwal Avenue,Balwyn North,VIC,3104,03 8851 4651,111.0,Boroondara (C),145.0709,-37.79352
1796,Catholic,Salesian College,Secondary,10 Bosco Street,Ashwood - Chadstone,VIC,3148,03 9807 2644,497.0,Monash (C),145.10026000000002,-37.88273
1799,Independent,Mount Scopus Memorial College,Pri/Sec,245 Burwood Highway,Burwood,VIC,3125,03 9834 0000,698.0,Whitehorse (C),145.11777,-37.84722
1801,Catholic,Marcellin College,Secondary,160 Bulleen Road,Bulleen,VIC,3105,03 9851 1589,421.0,Manningham (C),145.08268,-37.77478
1807,Catholic,St Agnes' School,Primary,Peterson Street,Cheltenham - Highett,VIC,3190,03 9532 0344,91.0,Bayside (C),145.03183,-37.9461
1809,Independent,Nunawading Christian College-Primary,Primary,Laughlin Ave,Nunawading,VIC,3131,03 9878 9927,698.0,Whitehorse (C),145.17005,-37.82192
1810,Catholic,Sacred Heart School,Primary,35 Wicklow Avenue,Croydon,VIC,3136,03 9724 4333,441.0,Maroondah (C),145.27279,-37.79749
1812,Independent,Heritage College,Pri/Sec,333 Centre Road,Narre Warren South,VIC,3805,03 9796 0100,161.0,Casey (C),145.31652,-38.05022
1814,Catholic,Resurrection House,Primary,6 Aberfeldie Street,Essendon - Aberfeldie,VIC,3040,03 9337 0084,506.0,Moonee Valley (C),144.9052,-37.75665
1815,Independent,Adass Israel School,Pri/Sec,10-12 King Street,Elsternwick,VIC,3185,03 9523 6422,231.0,Glen Eira (C),145.0082,-37.8839
1817,Catholic,Larmenier,Special,453 Bluff Road,Hampton,VIC,3188,03 9521 8511,91.0,Bayside (C),145.02306000000002,-37.9383
1818,Catholic,Sacred Heart School,Primary,Winifred Street,St Albans,VIC,3021,03 9366 0266,118.0,Brimbank (C),144.80005,-37.73769
1819,Catholic,St Thomas The Apostle School,Primary,67 Central Road,Blackburn,VIC,3130,03 9878 8268,698.0,Whitehorse (C),145.15743,-37.82325
1823,Catholic,St Pius X School,Primary,431 Waterdale Road,Heidelberg West,VIC,3081,03 9457 3776,66.0,Banyule (C),145.04629,-37.74692
1826,Catholic,St Mary Magdalen's School,Primary,20 Bolwarra Street,Ashwood - Chadstone,VIC,3148,03 9807 0315,497.0,Monash (C),145.1012,-37.87978
1827,Catholic,St Anthony's School,Primary,90 Buckley Street,Noble Park,VIC,3174,03 9546 0044,267.0,Greater Dandenong (C),145.17243,-37.971709999999995
1828,Catholic,St Peter's School,Primary,16 Mary Street,Clayton,VIC,3168,03 9544 3032,497.0,Monash (C),145.12186,-37.923140000000004
1830,Independent,Yeshivah College,Pri/Sec,88 Hotham Street,St Kilda East,VIC,3183,03 9522 8222,231.0,Glen Eira (C),145.00034,-37.868120000000005
1831,Catholic,St John Bosco's School,Primary,6 Teague Street,Niddrie - Essendon West,VIC,3042,03 9337 2314,506.0,Moonee Valley (C),144.88903,-37.74366
1834,Catholic,St Mary's School,Primary,210 Grimshaw Street,Greensborough,VIC,3088,03 9433 4000,66.0,Banyule (C),145.09263,-37.70285
1835,Catholic,Mother of God School,Primary,67 Blanche Street,Ardeer,VIC,3022,03 9363 1734,118.0,Brimbank (C),144.80081,-37.77941
1836,Catholic,St Peter Chanel School,Primary,848 Ballarat Road,Deer Park - Derrimut,VIC,3023,03 9363 1586,118.0,Brimbank (C),144.76927,-37.76853
1837,Catholic,Christ the King Primary School,Primary,28 Riley Court,Braybrook,VIC,3019,03 9311 7387,433.0,Maribyrnong (C),144.86196,-37.78761
1838,Catholic,Corpus Christi School,Primary,13-21 Widford Street,Glenroy,VIC,3046,03 9306 3062,525.0,Moreland (C),144.9228,-37.70389
1839,Catholic,Killester College,Secondary,433 Springvale Road,Springvale,VIC,3171,03 9547 5000,267.0,Greater Dandenong (C),145.15202,-37.959070000000004
1840,Catholic,St Paul's School,Primary,Links Street,Sunshine West,VIC,3020,03 9363 1568,118.0,Brimbank (C),144.80751999999998,-37.78753
1843,Catholic,Stella Maris School,Primary,113 Oak Street,Beaumaris,VIC,3193,03 9589 2641,91.0,Bayside (C),145.04103999999998,-37.98199
1845,Catholic,St Bernadette's School,Primary,2 Willey Street,Sunshine North,VIC,3020,03 9311 8872,118.0,Brimbank (C),144.83528,-37.771159999999995
1847,Independent,Rossbourne School,Special,131 Power Street,Hawthorn,VIC,3122,03 9819 4611,111.0,Boroondara (C),145.02655,-37.82304
1849,Independent,Beth Rivkah Ladies College,Pri/Sec,14-20 Balaclava Road,St Kilda East,VIC,3183,03 9522 8227,231.0,Glen Eira (C),145.00083999999998,-37.869279999999996
1850,Catholic,St Margaret's Primary School,Primary,67 The Esplanade,Maribyrnong,VIC,3032,03 9318 1339,433.0,Maribyrnong (C),144.89104,-37.7669
1852,Catholic,Holy Family School,Primary,250 Stephensons Road,Mount Waverley,VIC,3149,03 9807 3300,497.0,Monash (C),145.12963,-37.87426
1853,Catholic,St Gerard's School,Primary,71 Gladstone Road,Dandenong,VIC,3175,03 9791 7553,267.0,Greater Dandenong (C),145.20582,-37.97133
1855,Catholic,Our Lady of Perpetual Succour School,Primary,31 Erasmus Street,Surrey Hills,VIC,3127,03 9898 7655,698.0,Whitehorse (C),145.11139,-37.830059999999996
1856,Catholic,St Catherine's School,Primary,14-28 Fletcher Street,Moorabbin - Heatherton,VIC,3189,03 9555 7200,343.0,Kingston (C),145.05217,-37.93822
1857,Catholic,Sacred Heart Girls' College,Secondary,113 Warrigal Road,Hughesdale,VIC,3166,03 9568 5488,497.0,Monash (C),145.08608,-37.902159999999995
1864,Catholic,St Martin of Tours School,Primary,2-12 Silk Street,Heidelberg - Rosanna,VIC,3084,03 9459 0902,66.0,Banyule (C),145.07698,-37.73518
1867,Catholic,Our Lady of the Nativity School,Primary,29 Fawkner Street,Essendon - Aberfeldie,VIC,3040,03 9337 4204,506.0,Moonee Valley (C),144.89658,-37.75635
1868,Catholic,St John's Regional College,Secondary,5-11 Caroline Street,Dandenong,VIC,3175,03 9791 3366,267.0,Greater Dandenong (C),145.22626,-37.99023
1872,Catholic,Emmaus College,Secondary,503 Springvale Road,Vermont South,VIC,3133,03 9845 3211,698.0,Whitehorse (C),145.17411,-37.84779
1873,Catholic,St Dominic's School,Primary,408 Camp Road,Broadmeadows,VIC,3047,03 9309 4146,327.0,Hume (C),144.9237,-37.68506
1875,Catholic,St Bridget's School,Primary,36 Sweyn Street,Balwyn North,VIC,3104,03 9857 6394,111.0,Boroondara (C),145.10325,-37.79592
1876,Catholic,St Leonard's School,Primary,349 Springvale Road,Glen Waverley,VIC,3150,03 9560 8491,497.0,Monash (C),145.16388999999998,-37.8868
1878,Catholic,St Christopher's School,Primary,Doon Avenue,Glen Waverley,VIC,3150,03 9803 0011,497.0,Monash (C),145.1502,-37.8711
1880,Catholic,Ss Peter & Paul's School,Primary,16 Beverley Street,Doncaster East,VIC,3109,03 9842 2056,421.0,Manningham (C),145.1534,-37.79055
1882,Catholic,Holy Family School,Primary,100 Power Road,Doveton,VIC,3177,03 9791 1853,161.0,Casey (C),145.23863,-37.9905
1883,Catholic,Aquinas College,Secondary,46 Great Ryrie Street,Ringwood,VIC,3134,03 9259 3000,441.0,Maroondah (C),145.23494,-37.82306
1884,Independent,Leibler Yavneh College,Pri/Sec,2 Nagle Avenue,Elsternwick,VIC,3185,03 9528 4911,231.0,Glen Eira (C),145.00663,-37.89287
1887,Catholic,St John Vianney's School,Primary,23 Police Road,Mulgrave,VIC,3170,03 9546 4161,497.0,Monash (C),145.15956,-37.93272
1888,Catholic,St Luke's School,Primary,1A David Street,Lalor,VIC,3075,03 9465 2099,707.0,Whittlesea (C),145.01883,-37.67237
1891,Catholic,St Thomas More's School,Primary,Reynold's Lane,Belgrave - Selby,VIC,3160,03 9754 4444,745.0,Yarra Ranges (S),145.35268,-37.908409999999996
1893,Catholic,St Christopher's School,Primary,34 Roberts Road,Airport West,VIC,3042,03 9338 3591,506.0,Moonee Valley (C),144.88025,-37.72501
1895,Catholic,Sacred Heart School,Primary,25 Gipson Street,Wattle Glen - Diamond Creek,VIC,3089,03 9438 1590,571.0,Nillumbik (S),145.15878,-37.67215
1896,Catholic,St Michael's School,Primary,16 Scanlan Street,Berwick,VIC,3806,03 9707 1600,161.0,Casey (C),145.35357,-38.03382
1897,Catholic,Ave Maria College,Secondary,14-22 Vida Street,Essendon - Aberfeldie,VIC,3040,03 9331 9300,506.0,Moonee Valley (C),144.89796,-37.75662
1898,Independent,Bialik College,Pri/Sec,429 Auburn Road,Hawthorn East,VIC,3122,03 9822 7981,111.0,Boroondara (C),145.04336999999998,-37.84227
1899,Catholic,Our Lady of the Way School,Primary,11-13 Green Avenue,Kingsbury,VIC,3083,03 9460 6684,189.0,Darebin (C),145.03552,-37.71526
1900,Catholic,St Luke the Evangelist School,Primary,46 Orchard Grove,Blackburn South,VIC,3130,03 9877 4023,698.0,Whitehorse (C),145.14671,-37.83555
1903,Independent,Luther College,Secondary,Plymouth Rd,Croydon Hills - Warranwood,VIC,3136,03 9724 2000,441.0,Maroondah (C),145.27291,-37.782959999999996
1904,Catholic,Marian College,Secondary,196 Glengala Road,Sunshine West,VIC,3020,03 9363 1711,118.0,Brimbank (C),144.80613,-37.787729999999996
1905,Catholic,Mount St Joseph Girls' College,Secondary,133 Maidstone Street,Altona,VIC,3018,03 8398 2000,311.0,Hobsons Bay (C),144.81167,-37.8639
1906,Catholic,Mother of God School,Primary,66 Wilfred Road,Ivanhoe East - Eaglemont,VIC,3079,03 9497 1094,66.0,Banyule (C),145.05878,-37.7738
1908,Catholic,St Clement of Rome School,Primary,9 Egan Drive,Bulleen,VIC,3105,03 9850 1216,421.0,Manningham (C),145.09033,-37.7673
1909,Catholic,St Joseph's Primary School,Primary,212 Boronia Road,Boronia,VIC,3155,03 9762 3275,367.0,Knox (C),145.27481,-37.86271
1911,Catholic,Mater Christi College,Secondary,28 Bayview Road,Belgrave - Selby,VIC,3160,03 9754 6611,745.0,Yarra Ranges (S),145.35889,-37.91064
1912,Catholic,Our Lady of Lourdes School,Primary,23 Orange Grove,Bayswater,VIC,3153,03 9729 3411,367.0,Knox (C),145.26576,-37.84898
1913,Catholic,St Joseph's College,Secondary,5 Brenock Park Drive,Ferntree Gully,VIC,3156,03 9758 2000,367.0,Knox (C),145.29509,-37.89049
1914,Catholic,St Paul's College,Special,3-13 Fernhurst Grove,Kew,VIC,3101,03 9855 7700,111.0,Boroondara (C),145.02695,-37.80623
1916,Catholic,St Louis de Montfort's School,Primary,37 Dolphin Street,Aspendale Gardens - Waterways,VIC,3195,03 9580 5169,343.0,Kingston (C),145.10226,-38.01813
1917,Catholic,St Thomas More's School,Primary,30 Angus Street,Hadfield,VIC,3046,03 9306 6225,525.0,Moreland (C),144.94494,-37.70729
1918,Catholic,Avila College,Secondary,35 Charles Street,Mount Waverley,VIC,3149,03 9831 9600,497.0,Monash (C),145.13326,-37.87467
1921,Catholic,Emmanuel College,Secondary,423 Blackshaws Road,Altona North,VIC,3025,03 8325 5100,311.0,Hobsons Bay (C),144.84239,-37.83162
1922,Catholic,St Peter Julian Eymard,Primary,Reay Road,Mooroolbark,VIC,3138,03 9725 0595,745.0,Yarra Ranges (S),145.31751,-37.78791
1923,Catholic,St Damian's School,Primary,5 Settlement Road,Bundoora,VIC,3083,03 9467 8566,707.0,Whittlesea (C),145.05722,-37.69849
1924,Catholic,St Monica's College,Secondary,16 Davisson Street,Epping,VIC,3076,03 9409 8800,707.0,Whittlesea (C),145.03028,-37.65071
1925,Independent,Yarra Valley Grammar,Pri/Sec,Kalinda Road,Ringwood,VIC,3134,03 9262 7777,441.0,Maroondah (C),145.25816,-37.7837
1927,Catholic,Mercy College,Secondary,760 Sydney Road,Coburg,VIC,3058,03 9319 9299,525.0,Moreland (C),144.96456,-37.7304
1928,Catholic,St Timothy's School,Primary,21 Stevens Road,Vermont,VIC,3133,03 9878 4188,698.0,Whitehorse (C),145.18365,-37.84039
1930,Catholic,St Macartan's School,Primary,97 Bungower Road,Mornington,VIC,3931,03 5973 4550,534.0,Mornington Peninsula (S),145.07046,-38.223209999999995
1932,Catholic,St Mary's College for Hearing Impaired Students,Special,10 Riddell Road,Wantirna South,VIC,3152,03 9800 2733,367.0,Knox (C),145.24278999999999,-37.8779
1933,Catholic,John Paul College,Secondary,165 Mc Mahons Road,Frankston,VIC,3199,03 9784 0200,217.0,Frankston (C),145.13887,-38.13557
1934,Catholic,St Anne's School,Primary,86-94 Austin Road,Seaford,VIC,3198,03 9786 4736,217.0,Frankston (C),145.14095,-38.1066
1935,Catholic,Mazenod College,Secondary,Kernot Ave,Mulgrave,VIC,3170,03 9560 0911,497.0,Monash (C),145.16613999999998,-37.9152
1937,Catholic,St Gregory the Great School,Primary,396 Manningham Road,Doncaster,VIC,3108,03 9848 4483,421.0,Manningham (C),145.12228000000002,-37.7806
1938,Independent,Maranatha Christian School,Pri/Sec,104-108 Reema Boulevard,Endeavour Hills,VIC,3802,03 9709 7209,161.0,Casey (C),145.27803,-37.97092
1939,Catholic,St Kevin's School,Primary,26-44 Herlihys Road,Templestowe Lower,VIC,3107,03 9850 4609,421.0,Manningham (C),145.12287,-37.76127
1940,Catholic,St James' School,Primary,51 Centre Road,Vermont,VIC,3133,03 9874 1830,698.0,Whitehorse (C),145.20969,-37.83675
1941,Catholic,Good Shepherd School,Primary,30 Academy Avenue,Wheelers Hill,VIC,3150,03 9562 0229,497.0,Monash (C),145.16605,-37.908120000000004
1942,Catholic,MacKillop Catholic Regional College,Secondary,1 Russell Street,Werribee,VIC,3030,03 8734 5200,726.0,Wyndham (C),144.6651,-37.9095
1943,Catholic,St James'  College,Secondary,156 Bignell Road,Bentleigh East,VIC,3165,03 9575 8100,231.0,Glen Eira (C),145.07136,-37.92647
1945,Catholic,St Leo the Great School,Primary,315 Mason Street,Altona North,VIC,3025,03 9391 5522,311.0,Hobsons Bay (C),144.85169,-37.839220000000005
1946,Catholic,St Peter's School,Primary,2A Parkside Avenue,Keilor East,VIC,3033,03 9337 4111,506.0,Moonee Valley (C),144.85942,-37.744240000000005
1949,Catholic,St Martin de Porres School,Primary,13-25 Bellin Street,Laverton,VIC,3028,03 9369 1070,311.0,Hobsons Bay (C),144.77698,-37.85378
1950,Catholic,St Jude the Apostle School,Primary,53 George Street,Knoxfield - Scoresby,VIC,3179,03 9763 7703,367.0,Knox (C),145.22596000000001,-37.88984
1952,Independent,Mount Evelyn Christian School/Ranges TEC,Pri/Sec,135 York Road,Mount Evelyn,VIC,3796,03 9738 6000,745.0,Yarra Ranges (S),145.3671,-37.79883
1953,Independent,Melbourne Rudolf Steiner School,Pri/Sec,213 Wonga Road,Croydon Hills - Warranwood,VIC,3134,03 9876 2633,441.0,Maroondah (C),145.24881000000002,-37.77722
1956,Independent,The Currajong School,Special,90 Darling Road,Malvern East,VIC,3145,03 9571 7869,635.0,Stonnington (C),145.05995,-37.87595
1957,Independent,Nunawading Christian College-Secondary,Secondary,161 Central Rd,Nunawading,VIC,3131,03 9877 3555,698.0,Whitehorse (C),145.16902,-37.82255
1958,Independent,Eltham College,Pri/Sec,1660 Main Road,Research - North Warrandyte,VIC,3095,03 9437 1421,571.0,Nillumbik (S),145.19223,-37.70044
1961,Independent,Learning Co-Operative School,Primary,10 Laceys Road,Hurstbridge,VIC,3099,03 9718 1481,571.0,Nillumbik (S),145.21333,-37.62939
1962,Catholic,St Peter Apostle School,Primary,16-38 Guinane Avenue,Hoppers Crossing,VIC,3029,03 9749 1055,726.0,Wyndham (C),144.69031,-37.87464
1963,Independent,Donvale Christian College,Pri/Sec,155 Tindals Road,Donvale - Park Orchards,VIC,3111,03 9844 2471,421.0,Manningham (C),145.19345,-37.774029999999996
1964,Independent,Berengarra School,Special,43 Harrison Street,Box Hill North,VIC,3129,03 9898 9167,698.0,Whitehorse (C),145.13214,-37.80388
1965,Independent,Sholem Aleichem College,Primary,11 Sinclair St,Elsternwick,VIC,3185,03 8527 3000,231.0,Glen Eira (C),145.0012,-37.882290000000005
1968,Catholic,School of the Good Shepherd,Primary,88 South Circular Road,Gladstone Park - Westmeadows,VIC,3043,03 9338 7686,327.0,Hume (C),144.88946,-37.69303
1969,Catholic,St Agatha's School,Primary,Scott Street,Cranbourne,VIC,3977,03 5996 2724,161.0,Casey (C),145.27885,-38.11164
1970,Catholic,Resurrection School,Primary,402 Corrigan Road,Keysborough,VIC,3173,03 9798 4126,267.0,Greater Dandenong (C),145.16293000000002,-37.989940000000004
1971,Catholic,St Dominic's School,Primary,Church Street,Melton,VIC,3337,03 9743 6225,465.0,Melton (C),144.58463999999998,-37.68092
1973,Independent,Gilson College,Pri/Sec,450 Taylors Road,Taylors Hill,VIC,3037,03 9365 9365,465.0,Melton (C),144.76315,-37.7246
1974,Independent,Cheshire School,Special,583 Ferntree Gully Road,Glen Waverley,VIC,3150,03 8562 5100,497.0,Monash (C),145.15809,-37.902840000000005
1976,Catholic,Holy Spirit School,Primary,120 Oban Road,Ringwood North,VIC,3134,03 9876 1103,441.0,Maroondah (C),145.23692,-37.79323
1978,Catholic,Holy Saviour Parish School,Primary,765 Highbury Road,Vermont South,VIC,3133,03 9803 6828,698.0,Whitehorse (C),145.17504,-37.86234
1981,Catholic,St Anne's School,Primary,16 Stewarts Lane,Sunbury,VIC,3429,03 9744 3055,327.0,Hume (C),144.71746000000002,-37.56839
1982,Catholic,Our Lady of the Pines School,Primary,77 Carbine Street,Donvale - Park Orchards,VIC,3111,03 9842 2991,421.0,Manningham (C),145.17721,-37.774440000000006
1983,Catholic,St Jude's School,Primary,30 Warrandyte Road,Langwarrin,VIC,3910,03 9789 7581,217.0,Frankston (C),145.19111,-38.15528
1985,Catholic,St Elizabeth's School,Primary,111 Bakers Road,Dandenong,VIC,3175,03 9795 5258,267.0,Greater Dandenong (C),145.19888,-37.94632
1987,Catholic,Resurrection School,Primary,51 Gum Road,Kings Park,VIC,3021,03 9366 7022,118.0,Brimbank (C),144.77539,-37.7363
1988,Catholic,Catholic Regional College,Secondary,10 Theodore Street,St Albans,VIC,3021,03 9366 2544,118.0,Brimbank (C),144.79908999999998,-37.738890000000005
1989,Catholic,St Francis Xavier College,Secondary,4 Beaconsfield Avenue,Beaconsfield - Officer,VIC,3807,03 9707 3111,145.0,Cardinia (S),145.37311,-38.052
1992,Independent,Waverley Christian College,Pri/Sec,1248 High Street Road,Wantirna South,VIC,3152,03 9871 8600,367.0,Knox (C),145.2153,-37.880140000000004
1993,Independent,The King David School,Pri/Sec,517-519 Orrong Road,Armadale,VIC,3143,03 9529 5277,635.0,Stonnington (C),145.0105,-37.85823
1994,Independent,Westbourne Grammar School,Pri/Sec,300 Sayers Rd,Truganina,VIC,3029,03 9731 9444,726.0,Wyndham (C),144.7249,-37.850840000000005
1996,Catholic,St Augustine's Primary School,Primary,Augustine's Way,Keilor,VIC,3036,03 9336 4294,118.0,Brimbank (C),144.82052,-37.71063
1997,Catholic,St Anthony's School,Primary,Wilson Road,Melton South,VIC,3338,03 9743 1401,465.0,Melton (C),144.5729,-37.70966
1999,Catholic,St Luke's School,Primary,25 Stokes Road,Wantirna,VIC,3152,03 9801 6917,367.0,Knox (C),145.23507,-37.85338
2001,Independent,Northside Christian College,Pri/Sec,31 McLeans Rd,Bundoora,VIC,3083,03 9467 2499,707.0,Whittlesea (C),145.05467,-37.695009999999996
2002,Independent,St John's College Preston,Pri/Sec,21 Railway Place West,Preston,VIC,3072,03 9480 5300,189.0,Darebin (C),144.99874,-37.74725
2003,Independent,Good Shepherd Lutheran Primary School,Primary,53-57 Plymouth Rd,Croydon Hills - Warranwood,VIC,3136,03 9725 8255,441.0,Maroondah (C),145.26862,-37.78268
2004,Independent,Oxley Christian College,Pri/Sec,15 - 49 Old Melbourne Rd,Chirnside Park,VIC,3116,03 9727 9900,745.0,Yarra Ranges (S),145.30432,-37.76294
2007,Independent,Mountain District Christian School,Pri/Sec,325 Macclesfield Road,Monbulk - Silvan,VIC,3793,03 9756 7244,745.0,Yarra Ranges (S),145.45271,-37.85665
2009,Catholic,Caroline Chisholm Catholic College,Secondary,204 Churchill Avenue,Braybrook,VIC,3019,03 9296 5311,433.0,Maribyrnong (C),144.8501,-37.78586
2011,Catholic,St Mary's School,Primary,58 Clegg Road,Mount Evelyn,VIC,3796,03 9736 2219,745.0,Yarra Ranges (S),145.39586,-37.79052
2012,Catholic,St Anne's School,Primary,60 Knees Road,Donvale - Park Orchards,VIC,3114,03 9876 1533,421.0,Manningham (C),145.21858999999998,-37.7733
2014,Catholic,Our Lady's School,Primary,Craigieburn Road West,Craigieburn,VIC,3064,03 9308 2011,327.0,Hume (C),144.93137,-37.5986
2015,Catholic,St Augustine's School,Primary,80 Golf Links Road,Frankston South,VIC,3199,03 9781 3007,217.0,Frankston (C),145.14587,-38.17205
2016,Catholic,St Francis of Assisi School,Primary,290-312 Childs Road,Mill Park,VIC,3082,03 9407 3100,707.0,Whittlesea (C),145.05891,-37.66499
2017,Catholic,Loyola College,Secondary,325 Grimshaw Street,Watsonia,VIC,3087,03 9434 4466,66.0,Banyule (C),145.08073000000002,-37.7034
2018,Catholic,Catholic Regional College,Secondary,109-141 Bulman's Road,Melton,VIC,3337,03 9743 6522,465.0,Melton (C),144.55041,-37.67725
2022,Independent,Billanook College,Pri/Sec,197-199 Cardigan Road,Mooroolbark,VIC,3138,03 9725 5388,745.0,Yarra Ranges (S),145.33887,-37.78785
2023,Independent,Fitzroy Community School,Primary,597 Brunswick Street,Fitzroy North,VIC,3068,03 9489 5700,735.0,Yarra (C),144.97981000000001,-37.78917
2024,Catholic,St Paul Apostle South School,Primary,9 William Hovell Drive,Endeavour Hills,VIC,3802,03 9700 3663,161.0,Casey (C),145.25793000000002,-37.98052
2025,Catholic,St Andrew's School,Primary,96 Bunney Road,Clayton South,VIC,3169,03 9551 5094,343.0,Kingston (C),145.10719,-37.93489
2026,Catholic,St Thomas More's School,Primary,313 Canadian Bay Road,Mount Eliza,VIC,3930,03 9787 7788,534.0,Mornington Peninsula (S),145.10114,-38.19773
2030,Independent,Plenty Valley Christian College,Pri/Sec,840 Yan Yean Road,Doreen,VIC,3754,03 9717 7400,571.0,Nillumbik (S),145.13879,-37.613459999999996
2032,Catholic,St Simon's School,Primary,2 Taylors Lane,Rowville,VIC,3178,03 9755 4222,367.0,Knox (C),145.24533,-37.92568
2033,Catholic,Queen of Peace Primary School,Primary,62 Everingham Road,Altona Meadows,VIC,3028,03 9369 2581,311.0,Hobsons Bay (C),144.7917,-37.87515
2034,Catholic,Don Bosco School,Primary,496 Princes Highway,Narre Warren,VIC,3805,03 9704 7255,161.0,Casey (C),145.31501,-38.02597
2036,Catholic,Catholic Regional College Institute of Training,Secondary,380 Sydenham Road,Sydenham,VIC,3037,03 9361 0000,118.0,Brimbank (C),144.77101000000002,-37.69914
2040,Independent,Andale School,Special,84 Charles Street,Kew,VIC,3101,03 9853 3911,111.0,Boroondara (C),145.03603999999999,-37.80551
2043,Independent,The Knox School,Pri/Sec,220 Burwood Highway,Wantirna South,VIC,3152,03 8805 3800,367.0,Knox (C),145.2192,-37.86547
2044,Independent,Heathdale Christian College,Pri/Sec,175 Derrimut Rd,Werribee,VIC,3030,03 9749 1522,726.0,Wyndham (C),144.68133,-37.88132
2047,Independent,Sunshine Christian School,Primary,81 - 83 Westmoreland Road,Sunshine North,VIC,3020,03 9312 1253,118.0,Brimbank (C),144.83586,-37.7684
2048,Independent,Frank Dando Sports Academy,Special,33 Raymond Street,Ashwood - Chadstone,VIC,3147,03 9807 2111,497.0,Monash (C),145.10889,-37.8668
2049,Independent,Beaconhills College,Pri/Sec,30-34 Toomuc Valley Road,Pakenham,VIC,3810,1300 002 225,145.0,Cardinia (S),145.46732,-38.0619
2050,Independent,Ghilgai School,Primary,295 Liverpool Road,Kilsyth,VIC,3137,03 9728 5819,745.0,Yarra Ranges (S),145.31893,-37.82914
2051,Catholic,St Bernadette's Catholic Primary School,Primary,1264 Mountain Highway,The Basin,VIC,3154,03 9762 5135,367.0,Knox (C),145.31083999999998,-37.8539
2054,Catholic,St Mary's School,Primary,2-20 Fir Street,Whittlesea,VIC,3757,03 9716 2478,707.0,Whittlesea (C),145.11453999999998,-37.50906
2055,Catholic,St Charles Borromeo School,Primary,230-234 Serpells Road,Templestowe,VIC,3106,03 9842 7634,421.0,Manningham (C),145.15343000000001,-37.7674
2058,Independent,Oakleigh Grammar,Pri/Sec,77  Willesden Road,Oakleigh - Huntingdale,VIC,3166,03 9569 6128,497.0,Monash (C),145.08282,-37.89591
2059,Independent,Worawa Aboriginal College,Special,60 - 80 Barak Lane,Healesville - Yarra Glen,VIC,3777,03 5962 4344,745.0,Yarra Ranges (S),145.50922,-37.68452
2061,Independent,St Andrews Christian College,Pri/Sec,130 Tyner Road,Wantirna South,VIC,3152,03 9800 2922,367.0,Knox (C),145.24464,-37.873870000000004
2063,Independent,Australian International Academy of Education,Pri/Sec,653 Sydney Road,Coburg,VIC,3058,03 9350 4533,525.0,Moreland (C),144.96612,-37.73633
2065,Catholic,St Mary MacKillop Primary School,Primary,152 Odessa Avenue,Keilor Downs,VIC,3038,03 9367 6199,118.0,Brimbank (C),144.80435,-37.714620000000004
2066,Catholic,St Catherine of Siena School,Primary,Bulman's Road,Melton West,VIC,3337,03 9743 2166,465.0,Melton (C),144.5502,-37.678779999999996
2067,Catholic,St Paul's School,Primary,59 Moores Road,Monbulk - Silvan,VIC,3793,03 9756 7201,745.0,Yarra Ranges (S),145.41206,-37.868
2068,Catholic,Our Lady of Fatima School,Primary,16 Hinton Street,Rosebud - McCrae,VIC,3939,03 5950 0400,534.0,Mornington Peninsula (S),144.89754,-38.37133
2069,Catholic,St Justin's School,Primary,42 Whalley Drive,Wheelers Hill,VIC,3150,03 9561 7644,497.0,Monash (C),145.19051000000002,-37.917809999999996
2071,Catholic,St Richard's Primary School,Primary,672 Mount Dandenong Road,Kilsyth,VIC,3137,03 9728 4378,745.0,Yarra Ranges (S),145.32173999999998,-37.80656
2072,Catholic,Holy Trinity School,Primary,10 Riddell Road,Wantirna South,VIC,3152,03 9801 8296,367.0,Knox (C),145.24291000000002,-37.87747
2073,Independent,Melton Christian College,Pri/Sec,152-156 Brooklyn Road,Melton South,VIC,3338,03 9743 8193,465.0,Melton (C),144.56028,-37.70028
2075,Catholic,St Paul Apostle North School,Primary,76 Mossgiel Park Drive,Endeavour Hills,VIC,3802,03 9700 6068,161.0,Casey (C),145.26266,-37.96753
2076,Catholic,Corpus Christi School,Primary,29  Russell Street,Werribee,VIC,3030,03 9741 8440,726.0,Wyndham (C),144.66343999999998,-37.90995
2077,Catholic,Nazareth College,Secondary,Manning Drive,Noble Park North,VIC,3174,03 9795 8100,267.0,Greater Dandenong (C),145.19546,-37.94023
2082,Independent,Sophia Mundi Steiner School,Pri/Sec,1 St Helliers Street,Abbotsford,VIC,3067,03 9419 9229,735.0,Yarra (C),145.00522,-37.80366
2083,Independent,Al-Taqwa College,Pri/Sec,201 Sayers Road,Truganina,VIC,3029,03 9269 5000,726.0,Wyndham (C),144.72202,-37.85265
2084,Independent,Overnewton Anglican Community College,Pri/Sec,2-30 Overnewton Road,Keilor,VIC,3036,03 9334 0149,118.0,Brimbank (C),144.82318,-37.706559999999996
2085,Catholic,St Joachim's School,Primary,25 Broderick Road,Carrum Downs,VIC,3201,03 9785 2633,217.0,Frankston (C),145.17847,-38.10335
2087,Catholic,St Carlo Borromeo School,Primary,5-9 Drummond Street,Greenvale - Bulla,VIC,3059,03 9333 2572,327.0,Hume (C),144.88863999999998,-37.65364
2090,Catholic,St Kevin's School,Primary,120 Hallam Road,Hampton Park - Lynbrook,VIC,3976,03 9709 8600,161.0,Casey (C),145.2674,-38.039320000000004
2091,Independent,Bacchus Marsh Grammar,Pri/Sec,South Maddingley Road,Bacchus Marsh,VIC,3340,03 5366 4800,515.0,Moorabool (S),144.43159,-37.69027
2092,Catholic,St Peter's College,Secondary,Cranbourne-Frankston Road,Cranbourne,VIC,3977,03 5990 7777,161.0,Casey (C),145.25687,-38.10841
2093,Independent,Lighthouse Christian College,Pri/Sec,927-937 Springvale Road,Keysborough,VIC,3173,03 8796 7373,267.0,Greater Dandenong (C),145.1435,-38.0012
2094,Independent,Alphington Grammar School,Pri/Sec,12 - 18 Old Heidelberg Road,Alphington - Fairfield,VIC,3078,03 9497 4777,735.0,Yarra (C),145.03617,-37.780429999999996
2095,Catholic,St Therese's School,Primary,131 Endeavour Drive,Cranbourne,VIC,3977,03 5996 7525,161.0,Casey (C),145.26724,-38.07727
2097,Independent,Yarralinda School,Primary,4 Birchwood Drive,Mooroolbark,VIC,3138,03 9727 3032,745.0,Yarra Ranges (S),145.32506,-37.76461
2101,Independent,St Mary's Coptic Orthodox College,Pri/Sec,19-35 Thorpdale Avenue,Campbellfield - Coolaroo,VIC,3048,03 9302 2788,327.0,Hume (C),144.93121000000002,-37.65583
2103,Independent,Minaret College,Pri/Sec,1 Birch Street,Springvale,VIC,3171,03 9574 0567,267.0,Greater Dandenong (C),145.14863,-37.939040000000006
2109,Independent,Casey Grammar School,Pri/Sec,3 New Holland Drive,Cranbourne,VIC,3977,03 5991 0800,161.0,Casey (C),145.2929,-38.1103
2110,Catholic,St Brendan's School,Primary,19 Austin Road,Somerville,VIC,3912,03 5977 7277,534.0,Mornington Peninsula (S),145.1684,-38.23365
2111,Catholic,Mary MacKillop School,Primary,2 Ernst Wanke Road,Narre Warren North,VIC,3804,03 8794 5777,161.0,Casey (C),145.31128,-37.99584
2114,Independent,Ilim College,Pri/Sec,30 Inverloch Crescent,Broadmeadows,VIC,3047,03 9302 3770,327.0,Hume (C),144.93007,-37.668620000000004
2115,Catholic,Penola Catholic College,Secondary,29 GIbson Street,Broadmeadows,VIC,3047,03 9301 2777,327.0,Hume (C),144.91826,-37.68786
2117,Catholic,Good Samaritan Catholic Primary School,Primary,1-29 Southern Cross Drive,Roxburgh Park - Somerton,VIC,3064,03 9308 6177,327.0,Hume (C),144.93431999999999,-37.62344
2118,Independent,Erasmus School,Primary,40 Lisson Grove,Hawthorn,VIC,3122,03 9819 1266,111.0,Boroondara (C),145.03133,-37.82708
2121,Catholic,St Catherine's Primary School,Primary,73 Ridgemont Drive,Berwick,VIC,3806,03 9702 1466,161.0,Casey (C),145.33695,-38.06977
2122,Independent,Good News Lutheran College,Pri/Sec,580 Tarneit Road,Tarneit,VIC,3029,03 8742 9000,726.0,Wyndham (C),144.6666,-37.85525
2123,Independent,Sirius College,Pri/Sec,Goulburn Street,Broadmeadows,VIC,3047,03 9301 5800,327.0,Hume (C),144.93563999999998,-37.68472
2124,Catholic,Emmaus Catholic Primary School,Primary,370 Sydenham Road,Sydenham,VIC,3037,03 9390 4500,118.0,Brimbank (C),144.77223999999998,-37.7003
2125,Independent,Red Rock Christian College,Primary,340 Settlement Road,Sunbury,VIC,3429,03 9740 5400,327.0,Hume (C),144.70602,-37.5191
2126,Independent,Maharishi School of the Age of Enlightenment,Primary,2-6 Dundee Street,Reservoir,VIC,3073,03 9462 2888,189.0,Darebin (C),145.01946999999998,-37.70438
2127,Catholic,Thomas Carr College,Secondary,35 Thomas Carr Drive,Tarneit,VIC,3029,03 8734 2444,726.0,Wyndham (C),144.70206000000002,-37.84768
2135,Independent,Dandenong Ranges Steiner School,Primary,11c Duffys Road,Emerald - Cockatoo,VIC,3782,03 8790 4797,145.0,Cardinia (S),145.38821000000002,-37.959759999999996
2136,Independent,Aitken College,Pri/Sec,1010 Mickleham Road,Greenvale - Bulla,VIC,3059,03 9333 1866,327.0,Hume (C),144.8907,-37.62771
2137,Independent,Alia College,Secondary,405 Tooronga Road,Hawthorn East,VIC,3123,03 9822 9622,111.0,Boroondara (C),145.04516999999998,-37.84322
2140,Catholic,Christ the Priest Catholic Primary School,Primary,54 Caroline Springs Boulevard,Caroline Springs,VIC,3023,03 9361 8600,465.0,Melton (C),144.73744,-37.74772
2143,Independent,Mt Hira College,Pri/Sec,185 Perry Road,Keysborough,VIC,3173,03 9709 0100,267.0,Greater Dandenong (C),145.17547,-38.01399
2144,Catholic,Lumen Christi School,Primary,260 - 278 Point Cook Road,Point Cook,VIC,3030,03 9395 2555,726.0,Wyndham (C),144.75333999999998,-37.8926
2145,Catholic,Trinity Catholic Primary School,Primary,103-129 Oak Grove Drive,Narre Warren South,VIC,3805,03 9704 1970,161.0,Casey (C),145.29799,-38.05539
2146,Catholic,Columba Catholic School,Primary,28-36 Hope Street,Bunyip - Garfield,VIC,3815,03 5629 5933,145.0,Cardinia (S),145.71586000000002,-38.09326
2147,Independent,Stott's Colleges,Secondary,"Level 1, 252 Lygon Street",Carlton,VIC,3053,03 9663 3399,460.0,Melbourne (C),144.96716,-37.80142
2148,Independent,Glenvale School,Pri/Sec,395 Ironbark Road,Plenty - Yarrambat,VIC,3091,03 9355 0788,571.0,Nillumbik (S),145.13881,-37.643229999999996
2149,Independent,Kamaruka,Special,52 River Street,South Yarra,VIC,3141,03 9826 0330,635.0,Stonnington (C),144.99768,-37.83762
2153,Independent,Haileybury Girls College,Pri/Sec,855 Springvale Road,Keysborough,VIC,3173,03 9213 2222,267.0,Greater Dandenong (C),145.14477,-37.99555
2154,Catholic,Antonine College,Pri/Sec,71 Grandview Avenue,Pascoe Vale South,VIC,3044,03 9354 1377,525.0,Moreland (C),144.94274,-37.74119
2155,Independent,Ozford College,Secondary,"Level 2, 123 Lonsdale Street",Melbourne,VIC,3000,03 8663 7188,460.0,Melbourne (C),144.9686,-37.81069
2156,Independent,Berry Street Victoria Inc,Special,11 Tower Court,Noble Park,VIC,3174,03 9429 9266,267.0,Greater Dandenong (C),145.19019,-37.98155
2157,Independent,Yesodei HaTorah College,Pri/Sec,39 Dickens Street,Elwood,VIC,3184,03 9531 3203,590.0,Port Phillip (C),144.98349,-37.87323
2158,Catholic,Cana Catholic Primary School,Primary,46-60 Banchory Avenue,Hillside,VIC,3037,03 8390 9200,465.0,Melton (C),144.74715,-37.68792
2159,Independent,Holmes Secondary College,Secondary,185 Spring Street,Melbourne,VIC,3000,03 9662 2055,460.0,Melbourne (C),144.97227,-37.8103
2163,Catholic,Marymede Catholic College,Pri/Sec,60 Williamsons Road,South Morang,VIC,3752,03 9407 9000,707.0,Whittlesea (C),145.09103000000002,-37.64332
2165,Independent,Lakeside College,Pri/Sec,2 Portobello Road,Pakenham,VIC,3810,03 5941 7544,145.0,Cardinia (S),145.45593,-38.06492
2170,Catholic,Catholic Regional College,Secondary,10 College Drive,Caroline Springs,VIC,3023,03 9217 8000,465.0,Melton (C),144.7396,-37.72888
2176,Independent,Hume Anglican Grammar,Pri/Sec,100 Mount Ridley Road,Mickleham - Yuroke,VIC,3064,03 9305 7900,327.0,Hume (C),144.93125,-37.56798
2177,Independent,Lighthouse Christian College Cranbourne,Pri/Sec,1785 South Gippsland Hwy,Cranbourne,VIC,3977,03 5996 1588,161.0,Casey (C),145.3073,-38.14
2180,Catholic,Our Lady of the Southern Cross,Primary,2-20 Howqua Way,Wyndham Vale,VIC,3024,03 9974 8500,726.0,Wyndham (C),144.60622,-37.87585
2182,Catholic,St George Preca School,Primary,22-48 Lancefield Drive,Caroline Springs,VIC,3023,03 8390 7352,465.0,Melton (C),144.73671000000002,-37.71349
2183,Catholic,St Joseph's School,Primary,44 Mernda Village Drive,Mernda,VIC,3754,03 9717 6480,707.0,Whittlesea (C),145.0906,-37.59574
2184,Independent,Al Siraat College,Pri/Sec,45 Harvest Home Road,Epping,VIC,3076,03 9408 1999,707.0,Whittlesea (C),145.03753,-37.62426
2189,Catholic,St Brigid's School,Primary,25 Bayview Road,Beaconsfield - Officer,VIC,3809,03 5943 2447,145.0,Cardinia (S),145.40567,-38.05462
2190,Catholic,St Francis de Sales Catholic Primary School,Primary,122 Paterson Drive,Hampton Park - Lynbrook,VIC,3975,03 8773 6700,161.0,Casey (C),145.25248,-38.05901
2191,Catholic,St Lawrence Catholic Primary School,Primary,93A Capesthorne Drive,Deer Park - Derrimut,VIC,3030,03 8390 5326,118.0,Brimbank (C),144.76051999999999,-37.79068
2192,Independent,Christadelphian Heritage College Melbourne,Primary,16 Clevedon Road,The Basin,VIC,3154,03 9739 8126,367.0,Knox (C),145.32225,-37.85948
2193,Independent,Melbourne Grammar School,Pri/Sec,355 St Kilda Road,Melbourne,VIC,3004,03 9865 7555,460.0,Melbourne (C),144.97709,-37.83359
2194,Independent,Islamic College of Melbourne,Pri/Sec,83 Wootten Road,Tarneit,VIC,3029,03 8742 1739,726.0,Wyndham (C),144.66038,-37.854240000000004
2195,Independent,Southern Cross Grammar,Pri/Sec,2-20 Lancefield Drive,Caroline Springs,VIC,3023,03 8363 2000,465.0,Melton (C),144.7396,-37.71396
2199,Catholic,St Francis of Assisi Catholic Primary School,Primary,45 Fairview Parade,Tarneit,VIC,3029,03 9731 6004,726.0,Wyndham (C),144.69823,-37.848290000000006
2200,Catholic,St Joseph's Flexible Learning Centre Melbourne,Special,385 Queensberry Street,North Melbourne,VIC,3051,03 9269 6900,460.0,Melbourne (C),144.95494,-37.80384
2201,Independent,Glenroy Private,Pri/Sec,93 Daley Street,Glenroy,VIC,3046,03 9306 7988,525.0,Moreland (C),144.92926,-37.69777
2204,Independent,Divrei Emineh,Primary,442-452 North Road,Ormond - Glen Huntly,VIC,3204,03 9530 8777,91.0,Bayside (C),145.03508,-37.9036
2206,Independent,Insight Education Centre for the Blind and Vision Impaired,Special,120 Enterprise Avenue,Berwick,VIC,3806,03 9707 1585,145.0,Cardinia (S),145.33745,-38.03928
2209,Catholic,St Mary of the Cross Catholic Primary School,Primary,1 Carrick Street,Point Cook,VIC,3030,03 8353 5400,726.0,Wyndham (C),144.76594,-37.9088
2210,Catholic,St Thomas the Apostle Catholic Primary School,Primary,Enter via Mac Killop Way,Cranbourne,VIC,3977,03 5998 9293,161.0,Casey (C),145.31954,-38.11445
2213,Catholic,St John the Apostle Catholic Primary School,Primary,54 - 76 Kingbird Avenue,Tarneit,VIC,3029,03 9741 9003,726.0,Wyndham (C),144.66571000000002,-37.833420000000004
2215,Catholic,St Clare's Primary School,Primary,95 Majestic Drive,Beaconsfield - Officer,VIC,3809,03 5940 6777,145.0,Cardinia (S),145.43271000000001,-38.06277
2216,Catholic,St Paul the Apostle Catholic Primary School,Primary,80 Bassetts Road,Doreen,VIC,3754,03 9216 2000,707.0,Whittlesea (C),145.11522,-37.59693
2219,Independent,Heatherton Christian College,Pri/Sec,316-322 Kingston Road,Clarinda,VIC,3169,03 8551 6650,343.0,Kingston (C),145.11136000000002,-37.957840000000004
2220,Independent,Melbourne Indigenous Transition School,Secondary,Richmond Football Club,Richmond,VIC,3121,,460.0,Melbourne (C),144.98926,-37.81954
2221,Independent,Alice Miller School,Pri/Sec,110 Bailey Road,Macedon,VIC,3440,03 5427 0384,413.0,Macedon Ranges (S),144.53319,-37.4457
2222,Independent,Hoa Nghiem Primary School,Primary,442 - 448 Springvale Road,Springvale South,VIC,3172,03 9548 2215,267.0,Greater Dandenong (C),145.14879,-37.96694
2223,Independent,Al Iman College,Pri/Sec,20-40 Rees Road,Melton South,VIC,3338,,465.0,Melton (C),144.56548,-37.70712
2224,Independent,Edinburgh College,Pri/Sec,33-61 Edinburgh Road,Lilydale - Coldstream,VIC,3140,03 9728 2211,745.0,Yarra Ranges (S),145.3511,-37.785270000000004
2225,Independent,Giant Steps Melbourne,Special,11 Malmsbury Street,Kew,VIC,3101,03 9853 9578,111.0,Boroondara (C),145.03148000000002,-37.80222
2226,Independent,Harkaway Hills College,Primary,28 Bayview Road,Belgrave - Selby,VIC,3160,03 9028 4420,745.0,Yarra Ranges (S),145.35948,-37.91056
2227,Independent,Sandridge School,Primary,126-128 Nelson Place,Williamstown,VIC,3016,,311.0,Hobsons Bay (C),144.9052,-37.86318
2229,Government,Mernda Central P-12 College,Pri/Sec, 70 Breadalbane Ave,Mernda,VIC,3754,03  8776 9600,,,,
2230,Government,Mernda Park Primary¾,Primary,40 Riverdale Blvd,Mernda,VIC,3754,03  8776 9700,,,,
2231,Government,Harvest Home Primary School,Primary,365 Harvest Home Rd,Epping,VIC,3076,03 5174 5272,,,,
2234,Government,Richmond High School,Secondary,4 Griffiths St,Richmond,VIC,3121,03 8396 6399,,,,
2236,Government,South Melbourne Primary School,Primary,129 Ferrars St,Southbank,VIC,3006,03 9935 9399,,,,
2239,Government,Beaumaris Secondary College,Secondary,117-135 Reserve Rd,Beaumaris,VIC,3193,03 8569 9200,,,,
2241,Government,Edgars Creek Secondary College,Secondary,2 Steen Ave,Wollert,VIC,3750,03  9134 8200,,,,
2242,Government,Bridgewood Primary School,Primary,115 Bridge Rd,Beaconsfield - Officer,VIC,3809,03 8766 9400,,,,
2243,Government,Tarneit Rise Primary School,Primary,51 - 71 Hummingbird Boulevard,Tarneit,VIC,3029,03 7002 6580,,,,
